{"type": "FeatureCollection", "features": [{"type": "Feature", "properties": {"name": "Elmsleigh Lane", "highway": "residential", "length_m": 245.2}, "geometry": {"type": "LineString", "coordinates": [[-82.91004, 42.38052], [-82.91011, 42.38054], [-82.91026, 42.38064], [-82.91133, 42.38234], [-82.9114, 42.38245]]}}, {"type": "Feature", "properties": {"name": "Lakeside Court", "highway": "residential", "length_m": 224.0}, "geometry": {"type": "LineString", "coordinates": [[-82.91231, 42.38209], [-82.91223, 42.38197], [-82.91124, 42.38046], [-82.91117, 42.38041], [-82.91111, 42.38037], [-82.91108, 42.38035], [-82.91103, 42.38033]]}}, {"type": "Feature", "properties": {"name": "Lakeside Court", "highway": "residential", "length_m": 31.0}, "geometry": {"type": "LineString", "coordinates": [[-82.91126, 42.38022], [-82.91132, 42.38032], [-82.91133, 42.38035], [-82.91132, 42.38039], [-82.91131, 42.38041], [-82.91124, 42.38046]]}}, {"type": "Feature", "properties": {"name": "Notre Dame Street", "highway": "residential", "length_m": 1167.4}, "geometry": {"type": "LineString", "coordinates": [[-82.9119, 42.38225], [-82.91328, 42.38434], [-82.91399, 42.38541], [-82.91427, 42.38583], [-82.9145, 42.38618], [-82.915, 42.38694], [-82.91552, 42.38773], [-82.91592, 42.38834], [-82.91626, 42.38885], [-82.91632, 42.38893], [-82.91635, 42.38898], [-82.91656, 42.38928], [-82.91661, 42.38936], [-82.91667, 42.38943], [-82.91695, 42.38986], [-82.91721, 42.39026], [-82.91728, 42.39037], [-82.91756, 42.3908], [-82.91764, 42.39092], [-82.91774, 42.39108], [-82.91808, 42.39161], [-82.91811, 42.39168]]}}, {"type": "Feature", "properties": {"name": "Cadieux Road", "highway": "tertiary", "length_m": 952.0}, "geometry": {"type": "LineString", "coordinates": [[-82.91363, 42.38154], [-82.91503, 42.38366], [-82.91506, 42.3837], [-82.91527, 42.38401], [-82.91576, 42.38476], [-82.91598, 42.38509], [-82.91608, 42.38524], [-82.91627, 42.38554], [-82.91676, 42.38629], [-82.91729, 42.38709], [-82.91768, 42.3877], [-82.91792, 42.38806], [-82.91807, 42.38828], [-82.9183, 42.38862], [-82.9184, 42.38879], [-82.91861, 42.38909], [-82.91865, 42.38915], [-82.91871, 42.38923]]}}, {"type": "Feature", "properties": {"name": "Woodland Place", "highway": "residential", "length_m": 209.3}, "geometry": {"type": "LineString", "coordinates": [[-82.90874, 42.38354], [-82.90867, 42.38342], [-82.90772, 42.38197], [-82.90766, 42.38189], [-82.90763, 42.38185]]}}, {"type": "Feature", "properties": {"name": "Martin Place", "highway": "residential", "length_m": 91.4}, "geometry": {"type": "LineString", "coordinates": [[-82.90473, 42.38298], [-82.90475, 42.38292], [-82.90477, 42.38286], [-82.90477, 42.38276], [-82.90474, 42.38268], [-82.90451, 42.3823], [-82.90445, 42.38221]]}}, {"type": "Feature", "properties": {"name": "Donovan Place", "highway": "residential", "length_m": 179.1}, "geometry": {"type": "LineString", "coordinates": [[-82.9086, 42.38175], [-82.90945, 42.3831], [-82.90952, 42.38321]]}}, {"type": "Feature", "properties": {"name": "Wellington Place", "highway": "residential", "length_m": 271.0}, "geometry": {"type": "LineString", "coordinates": [[-82.90823, 42.38096], [-82.90962, 42.38303], [-82.90968, 42.38315]]}}, {"type": "Feature", "properties": {"name": "Lake Court", "highway": "residential", "length_m": 245.7}, "geometry": {"type": "LineString", "coordinates": [[-82.91223, 42.37968], [-82.91218, 42.3797], [-82.91217, 42.37971], [-82.91214, 42.37975], [-82.91214, 42.37978], [-82.91217, 42.37983], [-82.91247, 42.38027], [-82.91255, 42.38043], [-82.91264, 42.38056], [-82.91282, 42.38086], [-82.91289, 42.38094], [-82.9129, 42.38095], [-82.91329, 42.38154], [-82.91336, 42.38165]]}}, {"type": "Feature", "properties": {"name": "Stratford Place", "highway": "residential", "length_m": 262.4}, "geometry": {"type": "LineString", "coordinates": [[-82.90917, 42.38067], [-82.90924, 42.38082], [-82.91046, 42.38269], [-82.91054, 42.3828]]}}, {"type": "Feature", "properties": {"name": "Sycamore Lane", "highway": "residential", "length_m": 286.5}, "geometry": {"type": "LineString", "coordinates": [[-82.91298, 42.38181], [-82.91291, 42.38169], [-82.91281, 42.38152], [-82.91231, 42.38076], [-82.91226, 42.38065], [-82.91223, 42.38054], [-82.91213, 42.38034], [-82.91173, 42.37974], [-82.91155, 42.37947]]}}, {"type": "Feature", "properties": {"name": "Lakeland Street", "highway": "residential", "length_m": 2140.1}, "geometry": {"type": "LineString", "coordinates": [[-82.90611, 42.38163], [-82.90642, 42.38208], [-82.90757, 42.38387], [-82.90765, 42.38399], [-82.90782, 42.38425], [-82.90798, 42.3845], [-82.90962, 42.38698], [-82.91114, 42.38929], [-82.91254, 42.39145], [-82.91373, 42.39325], [-82.91446, 42.39437], [-82.91526, 42.39557], [-82.91742, 42.39889], [-82.91744, 42.39894]]}}, {"type": "Feature", "properties": {"name": "East Jefferson Avenue", "highway": "secondary", "length_m": 1475.8}, "geometry": {"type": "LineString", "coordinates": [[-82.92418, 42.37922], [-82.92325, 42.37939], [-82.92238, 42.37955], [-82.92094, 42.3798], [-82.9202, 42.37993], [-82.91991, 42.37998], [-82.91952, 42.38005], [-82.91888, 42.38016], [-82.91851, 42.38022], [-82.91804, 42.38031], [-82.91771, 42.38036], [-82.91652, 42.38058], [-82.91624, 42.38062], [-82.91561, 42.38074], [-82.91554, 42.38076], [-82.91548, 42.38078], [-82.91543, 42.3808], [-82.91514, 42.38092], [-82.9151, 42.38094], [-82.91469, 42.3811], [-82.91432, 42.38126], [-82.91423, 42.38129], [-82.91363, 42.38154], [-82.91336, 42.38165], [-82.91298, 42.38181], [-82.9125, 42.38201], [-82.91231, 42.38209], [-82.9119, 42.38225], [-82.9114, 42.38245], [-82.91065, 42.38276], [-82.91054, 42.3828], [-82.90968, 42.38315], [-82.90952, 42.38321], [-82.90892, 42.38346], [-82.90874, 42.38354], [-82.90765, 42.38399]]}}, {"type": "Feature", "properties": {"name": "Kercheval Place", "highway": "residential", "length_m": 124.0}, "geometry": {"type": "LineString", "coordinates": [[-82.91667, 42.38943], [-82.91674, 42.38941], [-82.91723, 42.38922], [-82.91768, 42.38906], [-82.91783, 42.389], [-82.91801, 42.38893]]}}, {"type": "Feature", "properties": {"name": "Williams Avenue", "highway": "residential", "length_m": 363.1}, "geometry": {"type": "LineString", "coordinates": [[-82.9122, 42.40329], [-82.91121, 42.40361], [-82.91033, 42.40392], [-82.91024, 42.40398], [-82.90971, 42.40474], [-82.90919, 42.40544]]}}, {"type": "Feature", "properties": {"name": "Maumee Street", "highway": "residential", "length_m": 1669.8}, "geometry": {"type": "LineString", "coordinates": [[-82.9213, 42.38277], [-82.91997, 42.38325], [-82.91866, 42.38372], [-82.91685, 42.38437], [-82.91576, 42.38476], [-82.91399, 42.38541], [-82.91271, 42.38587], [-82.91194, 42.38615], [-82.91155, 42.38629], [-82.91094, 42.38651], [-82.90962, 42.38698], [-82.90839, 42.38742], [-82.90728, 42.38782], [-82.90645, 42.38812], [-82.90557, 42.38843], [-82.90436, 42.38887], [-82.90355, 42.38917], [-82.90309, 42.38935]]}}, {"type": "Feature", "properties": {"name": "Goethe Street", "highway": "residential", "length_m": 536.4}, "geometry": {"type": "LineString", "coordinates": [[-82.91597, 42.39797], [-82.91544, 42.39816], [-82.91432, 42.39856], [-82.91268, 42.39915], [-82.9114, 42.39961], [-82.91011, 42.40007]]}}, {"type": "Feature", "properties": {"name": "Charles Street", "highway": "residential", "length_m": 65.1}, "geometry": {"type": "LineString", "coordinates": [[-82.90799, 42.38891], [-82.90729, 42.38918]]}}, {"type": "Feature", "properties": {"name": "Rivard Boulevard", "highway": "residential", "length_m": 2217.0}, "geometry": {"type": "LineString", "coordinates": [[-82.90537, 42.38492], [-82.90563, 42.38533], [-82.90728, 42.38782], [-82.90799, 42.38891], [-82.90879, 42.39014], [-82.9102, 42.39229], [-82.91139, 42.39409], [-82.91291, 42.39641], [-82.91432, 42.39856], [-82.91644, 42.40179], [-82.91681, 42.40236], [-82.91701, 42.40266], [-82.91708, 42.40276], [-82.91714, 42.40285]]}}, {"type": "Feature", "properties": {"name": "Neff Lane", "highway": "residential", "length_m": 125.9}, "geometry": {"type": "LineString", "coordinates": [[-82.91343, 42.38847], [-82.91278, 42.38745]]}}, {"type": "Feature", "properties": {"name": "Rathbone Place", "highway": "residential", "length_m": 216.2}, "geometry": {"type": "LineString", "coordinates": [[-82.90473, 42.38298], [-82.90481, 42.38311], [-82.90509, 42.38337], [-82.90523, 42.38353], [-82.90529, 42.38368], [-82.90543, 42.38394], [-82.90551, 42.38415], [-82.90559, 42.38424], [-82.90573, 42.38437], [-82.90588, 42.38452], [-82.9059, 42.38455], [-82.90597, 42.38467]]}}, {"type": "Feature", "properties": {"name": "Bluehill Street", "highway": "residential", "length_m": 297.8}, "geometry": {"type": "LineString", "coordinates": [[-82.92106, 42.39614], [-82.9211, 42.39617], [-82.92114, 42.3962], [-82.92114, 42.39628], [-82.92115, 42.39632], [-82.92117, 42.39635], [-82.92136, 42.39663], [-82.92175, 42.39721], [-82.92218, 42.39786], [-82.92231, 42.39806], [-82.92263, 42.39854]]}}, {"type": "Feature", "properties": {"name": "Vernor Highway", "highway": "residential", "length_m": 2244.3}, "geometry": {"type": "LineString", "coordinates": [[-82.94441, 42.38224], [-82.94391, 42.38242], [-82.9439, 42.38242], [-82.94345, 42.38258], [-82.94298, 42.38276], [-82.94251, 42.38293], [-82.94176, 42.38319], [-82.94107, 42.38344], [-82.94043, 42.38367], [-82.93993, 42.38385], [-82.93943, 42.38403], [-82.93893, 42.38421], [-82.93796, 42.38455], [-82.93672, 42.385], [-82.93525, 42.38553], [-82.93378, 42.38605], [-82.93234, 42.38657], [-82.93113, 42.38701], [-82.92963, 42.38755], [-82.928, 42.38813], [-82.9267, 42.3886], [-82.92539, 42.38906], [-82.92406, 42.38954], [-82.9229, 42.38996], [-82.92197, 42.3903], [-82.92099, 42.39065], [-82.9199, 42.39104]]}}, {"type": "Feature", "properties": {"name": "Loraine Street", "highway": "residential", "length_m": 488.2}, "geometry": {"type": "LineString", "coordinates": [[-82.919, 42.39136], [-82.91904, 42.39142], [-82.92049, 42.39362], [-82.92053, 42.39368], [-82.92057, 42.39374], [-82.92153, 42.3952], [-82.9216, 42.39531]]}}, {"type": "Feature", "properties": {"name": "Beaupre Avenue", "highway": "residential", "length_m": 289.3}, "geometry": {"type": "LineString", "coordinates": [[-82.91011, 42.40007], [-82.90913, 42.40042], [-82.90862, 42.40061], [-82.90853, 42.40064], [-82.90846, 42.40069], [-82.90829, 42.40079], [-82.90824, 42.40084], [-82.90817, 42.40096], [-82.90762, 42.40174]]}}, {"type": "Feature", "properties": {"name": "Ridge Road", "highway": "residential", "length_m": 1665.5}, "geometry": {"type": "LineString", "coordinates": [[-82.90718, 42.3956], [-82.90622, 42.39595], [-82.90526, 42.3963], [-82.90503, 42.39638], [-82.90495, 42.39647], [-82.90425, 42.39738], [-82.90422, 42.39743], [-82.90421, 42.39744], [-82.90403, 42.39768], [-82.90332, 42.39861], [-82.90257, 42.39962], [-82.90249, 42.39973], [-82.90219, 42.40013], [-82.90184, 42.4006], [-82.90113, 42.40155], [-82.90029, 42.40268], [-82.89958, 42.40361], [-82.89944, 42.40381], [-82.8994, 42.40386], [-82.89875, 42.40474], [-82.89867, 42.40485], [-82.89796, 42.4058], [-82.89734, 42.40663], [-82.89647, 42.40778], [-82.89637, 42.40792]]}}, {"type": "Feature", "properties": {"name": "Guilford Street", "highway": "residential", "length_m": 1239.9}, "geometry": {"type": "LineString", "coordinates": [[-82.92703, 42.4071], [-82.92678, 42.40671], [-82.92658, 42.40638], [-82.92594, 42.40541], [-82.92573, 42.4051], [-82.92487, 42.40379], [-82.92478, 42.40365], [-82.92432, 42.40294], [-82.92381, 42.40216], [-82.92329, 42.40136], [-82.92273, 42.40053], [-82.92164, 42.39891], [-82.92074, 42.39752], [-82.92057, 42.39725], [-82.92054, 42.39723], [-82.92044, 42.3972], [-82.92032, 42.39719]]}}, {"type": "Feature", "properties": {"name": "Roosevelt Place", "highway": "residential", "length_m": 140.7}, "geometry": {"type": "LineString", "coordinates": [[-82.90729, 42.38918], [-82.90719, 42.38917], [-82.90716, 42.38916], [-82.90681, 42.38867], [-82.90645, 42.38812]]}}, {"type": "Feature", "properties": {"name": "Grosse Point Court", "highway": "residential", "length_m": 418.9}, "geometry": {"type": "LineString", "coordinates": [[-82.91726, 42.39486], [-82.91845, 42.39665], [-82.91942, 42.39815], [-82.91948, 42.39825]]}}, {"type": "Feature", "properties": {"name": "Neff Avenue", "highway": "residential", "length_m": 1514.2}, "geometry": {"type": "LineString", "coordinates": [[-82.91912, 42.39893], [-82.91917, 42.399], [-82.91922, 42.39908], [-82.91943, 42.39939], [-82.91962, 42.39969], [-82.92005, 42.40035], [-82.92048, 42.401], [-82.92091, 42.40165], [-82.92119, 42.40207], [-82.92133, 42.40226], [-82.92175, 42.40289], [-82.92272, 42.40439], [-82.92281, 42.40453], [-82.92331, 42.40531], [-82.9234, 42.40545], [-82.92351, 42.40567], [-82.92362, 42.40588], [-82.92388, 42.40629], [-82.92465, 42.40747], [-82.92487, 42.4078], [-82.92494, 42.40786], [-82.92521, 42.40825], [-82.92539, 42.40852], [-82.92717, 42.41116]]}}, {"type": "Feature", "properties": {"name": "Waterloo Street", "highway": "residential", "length_m": 82.6}, "geometry": {"type": "LineString", "coordinates": [[-82.9199, 42.39104], [-82.91982, 42.39107], [-82.919, 42.39136]]}}, {"type": "Feature", "properties": {"name": "Cranford Lane", "highway": "residential", "length_m": 162.7}, "geometry": {"type": "LineString", "coordinates": [[-82.91627, 42.38554], [-82.9145, 42.38618]]}}, {"type": "Feature", "properties": {"name": "Alger Place", "highway": "residential", "length_m": 211.8}, "geometry": {"type": "LineString", "coordinates": [[-82.90267, 42.38388], [-82.90287, 42.38426], [-82.90299, 42.38455], [-82.90305, 42.38464], [-82.9031, 42.38471], [-82.90319, 42.38481], [-82.90327, 42.38487], [-82.90354, 42.38508], [-82.90366, 42.38517], [-82.90378, 42.3853], [-82.90392, 42.38551]]}}, {"type": "Feature", "properties": {"name": "Chalfonte Avenue", "highway": "residential", "length_m": 387.2}, "geometry": {"type": "LineString", "coordinates": [[-82.91644, 42.40179], [-82.9149, 42.40235], [-82.91479, 42.40239], [-82.91466, 42.40243], [-82.91351, 42.40284], [-82.9122, 42.40329]]}}, {"type": "Feature", "properties": {"name": "Lakeland Court", "highway": "residential", "length_m": 78.0}, "geometry": {"type": "LineString", "coordinates": [[-82.91744, 42.39894], [-82.91747, 42.3991], [-82.91748, 42.39916], [-82.91748, 42.39926], [-82.91745, 42.39937], [-82.91745, 42.39943], [-82.91747, 42.39949], [-82.91751, 42.39955], [-82.91759, 42.3996]]}}, {"type": "Feature", "properties": {"name": "University Place", "highway": "residential", "length_m": 1770.0}, "geometry": {"type": "LineString", "coordinates": [[-82.91778, 42.40174], [-82.91772, 42.40164], [-82.91766, 42.40155], [-82.91759, 42.40145], [-82.9175, 42.40133], [-82.91544, 42.39816], [-82.91403, 42.39601], [-82.91251, 42.39369], [-82.91132, 42.39189], [-82.90994, 42.38979], [-82.90991, 42.38974], [-82.90839, 42.38742]]}}, {"type": "Feature", "properties": {"name": "Woodhall Street", "highway": "residential", "length_m": 1223.8}, "geometry": {"type": "LineString", "coordinates": [[-82.91975, 42.398], [-82.9198, 42.39802], [-82.91984, 42.39804], [-82.9199, 42.39808], [-82.91993, 42.3981], [-82.91995, 42.39813], [-82.92011, 42.39838], [-82.9207, 42.39925], [-82.92177, 42.40088], [-82.92199, 42.40121], [-82.92284, 42.40251], [-82.92364, 42.40371], [-82.92391, 42.40413], [-82.92498, 42.40576], [-82.92583, 42.40705], [-82.92596, 42.40724], [-82.92609, 42.40745], [-82.92635, 42.40784]]}}, {"type": "Feature", "properties": {"name": "Cameron Place", "highway": "residential", "length_m": 267.4}, "geometry": {"type": "LineString", "coordinates": [[-82.90359, 42.38294], [-82.90361, 42.38312], [-82.90364, 42.38319], [-82.90414, 42.38396], [-82.90417, 42.38404], [-82.90436, 42.38462], [-82.90439, 42.38468], [-82.90464, 42.38506], [-82.90472, 42.38518]]}}, {"type": "Feature", "properties": {"name": "Saint Paul Street", "highway": "residential", "length_m": 3359.5}, "geometry": {"type": "LineString", "coordinates": [[-82.94127, 42.37849], [-82.94085, 42.37863], [-82.94036, 42.37881], [-82.93999, 42.37895], [-82.9399, 42.37898], [-82.93982, 42.37901], [-82.93915, 42.37924], [-82.93849, 42.37948], [-82.93782, 42.37972], [-82.93734, 42.37989], [-82.93684, 42.38007], [-82.93634, 42.38025], [-82.93537, 42.3806], [-82.93414, 42.38105], [-82.93266, 42.38158], [-82.9312, 42.3821], [-82.92976, 42.38262], [-82.92855, 42.38306], [-82.92705, 42.38359], [-82.92542, 42.38417], [-82.92412, 42.38463], [-82.92282, 42.38511], [-82.92149, 42.38558], [-82.9203, 42.38601], [-82.91937, 42.38634], [-82.91838, 42.3867], [-82.91729, 42.38709], [-82.91552, 42.38773], [-82.91424, 42.38818], [-82.91343, 42.38847], [-82.91246, 42.38882], [-82.91114, 42.38929], [-82.90991, 42.38974], [-82.90879, 42.39014], [-82.90715, 42.39073], [-82.90587, 42.39118], [-82.90506, 42.39147], [-82.90458, 42.39164]]}}, {"type": "Feature", "properties": {"name": "Charlevoix Avenue", "highway": "tertiary", "length_m": 1785.5}, "geometry": {"type": "LineString", "coordinates": [[-82.92821, 42.39095], [-82.92691, 42.39139], [-82.92573, 42.39182], [-82.92558, 42.39187], [-82.9254, 42.39193], [-82.92442, 42.39228], [-82.9236, 42.39258], [-82.92349, 42.39262], [-82.92338, 42.39266], [-82.92251, 42.39297], [-82.92155, 42.39332], [-82.92143, 42.39336], [-82.92135, 42.39339], [-82.92122, 42.39343], [-82.92059, 42.39366], [-82.92053, 42.39368], [-82.92047, 42.39371], [-82.91976, 42.39396], [-82.91972, 42.39397], [-82.91964, 42.394], [-82.91957, 42.39403], [-82.91952, 42.39405], [-82.91889, 42.39427], [-82.91848, 42.39442], [-82.91836, 42.39446], [-82.91726, 42.39486], [-82.91672, 42.39505], [-82.91659, 42.3951], [-82.91644, 42.39515], [-82.91526, 42.39557], [-82.91416, 42.39597], [-82.91403, 42.39601], [-82.91386, 42.39607], [-82.91291, 42.39641], [-82.91141, 42.39695], [-82.91127, 42.39701], [-82.91107, 42.39707], [-82.91, 42.39746], [-82.90879, 42.39789], [-82.9087, 42.39792]]}}, {"type": "Feature", "properties": {"name": "Village Lane", "highway": "residential", "length_m": 162.7}, "geometry": {"type": "LineString", "coordinates": [[-82.915, 42.38694], [-82.91676, 42.38629]]}}, {"type": "Feature", "properties": {"name": "Saint Clair Street", "highway": "residential", "length_m": 1077.9}, "geometry": {"type": "LineString", "coordinates": [[-82.91065, 42.38276], [-82.91109, 42.38343], [-82.9111, 42.38344], [-82.91138, 42.38386], [-82.91168, 42.38432], [-82.91254, 42.38561], [-82.91271, 42.38587], [-82.91424, 42.38818], [-82.91518, 42.38961], [-82.91526, 42.38973], [-82.91533, 42.38983], [-82.91565, 42.39033], [-82.91591, 42.39072], [-82.91601, 42.39086], [-82.91607, 42.39096], [-82.91615, 42.39107], [-82.91617, 42.39111], [-82.91621, 42.39117], [-82.9164, 42.39146]]}}, {"type": "Feature", "properties": {"name": "Lincoln Road", "highway": "residential", "length_m": 2439.9}, "geometry": {"type": "LineString", "coordinates": [[-82.90252, 42.38608], [-82.90436, 42.38887], [-82.90587, 42.39118], [-82.90728, 42.39333], [-82.90847, 42.39514], [-82.91, 42.39746], [-82.9114, 42.39961], [-82.91351, 42.40284], [-82.91355, 42.4029], [-82.91523, 42.40546], [-82.91531, 42.40558], [-82.91539, 42.40569], [-82.91541, 42.40571], [-82.91542, 42.40572], [-82.91546, 42.40574], [-82.91554, 42.40577]]}}, {"type": "Feature", "properties": {"name": "Hereford Street", "highway": "residential", "length_m": 2380.9}, "geometry": {"type": "LineString", "coordinates": [[-82.91832, 42.40038], [-82.91841, 42.40041], [-82.91846, 42.40046], [-82.91848, 42.40049], [-82.91862, 42.40071], [-82.91863, 42.40073], [-82.91871, 42.40084], [-82.92137, 42.40488], [-82.92336, 42.40792], [-82.92362, 42.40832], [-82.92389, 42.40873], [-82.92451, 42.40968], [-82.92583, 42.41168], [-82.92683, 42.4132], [-82.92696, 42.41341], [-82.92701, 42.41348], [-82.92796, 42.41493], [-82.92901, 42.41653], [-82.93009, 42.41817], [-82.93075, 42.41922], [-82.93099, 42.4196]]}}, {"type": "Feature", "properties": {"name": "Washington Road", "highway": "residential", "length_m": 2351.4}, "geometry": {"type": "LineString", "coordinates": [[-82.9037, 42.3856], [-82.90404, 42.38612], [-82.90432, 42.38655], [-82.90557, 42.38843], [-82.90629, 42.38954], [-82.90651, 42.38988], [-82.90659, 42.38995], [-82.90668, 42.39001], [-82.90715, 42.39073], [-82.90818, 42.39229], [-82.90856, 42.39287], [-82.90974, 42.39468], [-82.91127, 42.39701], [-82.91268, 42.39915], [-82.91479, 42.40239], [-82.91483, 42.40244], [-82.91592, 42.40409], [-82.91599, 42.40421], [-82.9161, 42.40437], [-82.91615, 42.40441], [-82.9162, 42.40443], [-82.9163, 42.40447], [-82.91637, 42.4045]]}}, {"type": "Feature", "properties": {"name": "Neff Road", "highway": "residential", "length_m": 1913.6}, "geometry": {"type": "LineString", "coordinates": [[-82.90892, 42.38346], [-82.90897, 42.38352], [-82.9094, 42.38417], [-82.91069, 42.38612], [-82.91094, 42.38651], [-82.91246, 42.38882], [-82.91348, 42.39038], [-82.91387, 42.39097], [-82.91505, 42.39277], [-82.91659, 42.3951], [-82.9179, 42.39708], [-82.91894, 42.39866], [-82.91896, 42.39869], [-82.91899, 42.39874], [-82.91906, 42.39885], [-82.91912, 42.39893]]}}, {"type": "Feature", "properties": {"name": "Fisher Road", "highway": "residential", "length_m": 891.1}, "geometry": {"type": "LineString", "coordinates": [[-82.90133, 42.38656], [-82.9015, 42.38683], [-82.90309, 42.38935], [-82.90349, 42.38998], [-82.90364, 42.39021], [-82.90373, 42.39035], [-82.90396, 42.39069], [-82.90401, 42.39078], [-82.90408, 42.39088], [-82.90414, 42.39098], [-82.90419, 42.39105], [-82.90449, 42.3915], [-82.90458, 42.39164], [-82.90571, 42.39337], [-82.90587, 42.39362], [-82.90599, 42.39379]]}}, {"type": "Feature", "properties": {"name": "Lakeland Street", "highway": "residential", "length_m": 141.3}, "geometry": {"type": "LineString", "coordinates": [[-82.91744, 42.39894], [-82.9175, 42.39893], [-82.91761, 42.3989], [-82.91784, 42.39884], [-82.91792, 42.39884], [-82.91801, 42.39885], [-82.91809, 42.39886], [-82.91817, 42.39889], [-82.9182, 42.39891], [-82.91826, 42.39894], [-82.9183, 42.39897], [-82.91834, 42.39901], [-82.91858, 42.39937], [-82.91865, 42.39948]]}}, {"type": "Feature", "properties": {"name": "Mack Avenue", "highway": "secondary", "length_m": 2105.6}, "geometry": {"type": "LineString", "coordinates": [[-82.92209, 42.39502], [-82.92194, 42.39507], [-82.92185, 42.39511], [-82.92171, 42.3952], [-82.9216, 42.39531], [-82.92139, 42.39555], [-82.921, 42.3961], [-82.92094, 42.39618], [-82.92024, 42.39716], [-82.92004, 42.39746], [-82.91969, 42.39796], [-82.91964, 42.39803], [-82.91948, 42.39825], [-82.91943, 42.39831], [-82.91906, 42.39885], [-82.91898, 42.39897], [-82.91891, 42.39906], [-82.91886, 42.39914], [-82.91876, 42.3993], [-82.91869, 42.39939], [-82.91865, 42.39948], [-82.91823, 42.40036], [-82.91802, 42.4008], [-82.91766, 42.40155], [-82.91708, 42.40276], [-82.91702, 42.40287], [-82.91663, 42.40362], [-82.9162, 42.40443], [-82.91588, 42.40505], [-82.91554, 42.40577], [-82.91484, 42.40724], [-82.91474, 42.40747], [-82.91435, 42.40828], [-82.91388, 42.40931], [-82.91384, 42.40939], [-82.91379, 42.4095], [-82.91359, 42.40991], [-82.91348, 42.4101], [-82.91335, 42.41042], [-82.9132, 42.41074], [-82.91313, 42.41088], [-82.91311, 42.41093], [-82.91307, 42.41101], [-82.91287, 42.41144], [-82.91284, 42.41152], [-82.91276, 42.41169], [-82.91255, 42.41214], [-82.91254, 42.41215], [-82.91251, 42.41223], [-82.91246, 42.41235], [-82.91243, 42.41243]]}}, {"type": "Feature", "properties": {"name": "Mack Avenue", "highway": "secondary", "length_m": 33.1}, "geometry": {"type": "LineString", "coordinates": [[-82.9224, 42.39483], [-82.92209, 42.39502]]}}, {"type": "Feature", "properties": {"name": "Chalfonte Avenue", "highway": "tertiary", "length_m": 210.1}, "geometry": {"type": "LineString", "coordinates": [[-82.9122, 42.40329], [-82.912, 42.40343], [-82.9119, 42.40356], [-82.91186, 42.40361], [-82.91152, 42.40406], [-82.91098, 42.40474], [-82.91088, 42.4049]]}}, {"type": "Feature", "properties": {"name": "Fisher Road", "highway": "residential", "length_m": 663.0}, "geometry": {"type": "LineString", "coordinates": [[-82.9087, 42.39792], [-82.90875, 42.398], [-82.91011, 42.40007], [-82.91016, 42.40016], [-82.91026, 42.40032], [-82.9122, 42.40329]]}}, {"type": "Feature", "properties": {"name": "Fisher Road", "highway": "residential", "length_m": 507.0}, "geometry": {"type": "LineString", "coordinates": [[-82.9122, 42.40329], [-82.91223, 42.40338], [-82.91447, 42.40678], [-82.91454, 42.40689], [-82.91466, 42.40707], [-82.91471, 42.40715], [-82.91474, 42.40718], [-82.91479, 42.40722], [-82.91484, 42.40724], [-82.91493, 42.40727], [-82.91502, 42.40729]]}}, {"type": "Feature", "properties": {"name": "Charlevoix Avenue", "highway": "tertiary", "length_m": 316.7}, "geometry": {"type": "LineString", "coordinates": [[-82.9087, 42.39792], [-82.90774, 42.39827], [-82.90687, 42.3986], [-82.90678, 42.39864], [-82.9067, 42.39867], [-82.9066, 42.39873], [-82.90647, 42.39881], [-82.90637, 42.39887], [-82.90629, 42.39895], [-82.90622, 42.39901], [-82.90616, 42.3991], [-82.90581, 42.39956], [-82.90576, 42.39962]]}}, {"type": "Feature", "properties": {"name": "Mack Avenue", "highway": "secondary", "length_m": 67.4}, "geometry": {"type": "LineString", "coordinates": [[-82.92313, 42.39456], [-82.92304, 42.39459], [-82.92291, 42.39464], [-82.92253, 42.39478], [-82.9224, 42.39483]]}}, {"type": "Feature", "properties": {"name": "Fisher Road", "highway": "residential", "length_m": 510.8}, "geometry": {"type": "LineString", "coordinates": [[-82.90599, 42.39379], [-82.9061, 42.39394], [-82.90626, 42.39418], [-82.90718, 42.3956], [-82.9079, 42.3967], [-82.9087, 42.39792]]}}, {"type": "Feature", "properties": {"name": "Roosevelt Place", "highway": "residential", "length_m": 355.2}, "geometry": {"type": "LineString", "coordinates": [[-82.90645, 42.38812], [-82.90455, 42.38525]]}}, {"type": "Feature", "properties": {"name": "University Place", "highway": "residential", "length_m": 366.1}, "geometry": {"type": "LineString", "coordinates": [[-82.90839, 42.38742], [-82.90822, 42.38722], [-82.90814, 42.38711], [-82.90806, 42.38697], [-82.90797, 42.38676], [-82.90787, 42.38658], [-82.90777, 42.38645], [-82.9076, 42.38626], [-82.90749, 42.38612], [-82.90742, 42.38601], [-82.90733, 42.38578], [-82.90724, 42.38563], [-82.90714, 42.38548], [-82.90697, 42.3853], [-82.90687, 42.38517], [-82.90678, 42.38503], [-82.90671, 42.38486], [-82.90667, 42.38478], [-82.90661, 42.3847], [-82.90643, 42.38448]]}}, {"type": "Feature", "properties": {"name": "Cadieux Road", "highway": "tertiary", "length_m": 692.7}, "geometry": {"type": "LineString", "coordinates": [[-82.91871, 42.38923], [-82.91876, 42.38932], [-82.91886, 42.38948], [-82.91895, 42.3896], [-82.9199, 42.39104], [-82.92143, 42.39336], [-82.92211, 42.39441], [-82.92217, 42.39449], [-82.92232, 42.39472], [-82.9224, 42.39483]]}}, {"type": "Feature", "properties": {"name": "Kercheval Avenue", "highway": "tertiary", "length_m": 688.6}, "geometry": {"type": "LineString", "coordinates": [[-82.91352, 42.3911], [-82.91254, 42.39145], [-82.91132, 42.39189], [-82.91115, 42.39195], [-82.9102, 42.39229], [-82.90871, 42.39282], [-82.90856, 42.39287], [-82.90831, 42.39296], [-82.90728, 42.39333], [-82.90624, 42.3937], [-82.90599, 42.39379]]}}, {"type": "Feature", "properties": {"name": "East Jefferson Avenue", "highway": "secondary", "length_m": 594.6}, "geometry": {"type": "LineString", "coordinates": [[-82.90765, 42.38399], [-82.90678, 42.38434], [-82.90668, 42.38438], [-82.90643, 42.38448], [-82.90597, 42.38467], [-82.9058, 42.38474], [-82.90537, 42.38492], [-82.90472, 42.38518], [-82.90455, 42.38525], [-82.90392, 42.38551], [-82.9037, 42.3856], [-82.90311, 42.38584], [-82.90252, 42.38608], [-82.90185, 42.38635], [-82.90172, 42.3864], [-82.90133, 42.38656]]}}, {"type": "Feature", "properties": {"name": "Kercheval Avenue", "highway": "tertiary", "length_m": 618.9}, "geometry": {"type": "LineString", "coordinates": [[-82.90599, 42.39379], [-82.90569, 42.3939], [-82.90521, 42.39407], [-82.90504, 42.39413], [-82.90479, 42.39422], [-82.90425, 42.3944], [-82.90418, 42.39442], [-82.90406, 42.39449], [-82.90399, 42.39454], [-82.90393, 42.39459], [-82.90381, 42.39468], [-82.90287, 42.39536], [-82.90206, 42.39595], [-82.90203, 42.39598], [-82.90194, 42.39605], [-82.90182, 42.39622], [-82.90177, 42.39628], [-82.90172, 42.39634], [-82.90168, 42.39639], [-82.90133, 42.39687], [-82.90118, 42.39708], [-82.90087, 42.39748], [-82.9008, 42.39759]]}}, {"type": "Feature", "properties": {"name": "Kercheval Street", "highway": "tertiary", "length_m": 1541.1}, "geometry": {"type": "LineString", "coordinates": [[-82.93554, 42.3832], [-82.93541, 42.38324], [-82.93425, 42.38366], [-82.93418, 42.38368], [-82.93406, 42.38373], [-82.93393, 42.38377], [-82.93389, 42.38379], [-82.93272, 42.38421], [-82.9326, 42.38425], [-82.93248, 42.3843], [-82.93136, 42.38469], [-82.93127, 42.38472], [-82.93115, 42.38477], [-82.93103, 42.38481], [-82.93099, 42.38483], [-82.93001, 42.38518], [-82.92994, 42.3852], [-82.92987, 42.38523], [-82.92864, 42.38567], [-82.92861, 42.38569], [-82.92845, 42.38574], [-82.9283, 42.3858], [-82.92829, 42.3858], [-82.9269, 42.3863], [-82.92682, 42.38633], [-82.92673, 42.38636], [-82.92569, 42.38673], [-82.92563, 42.38676], [-82.92551, 42.3868], [-82.92539, 42.38684], [-82.92429, 42.38723], [-82.92421, 42.38726], [-82.92414, 42.38728], [-82.92305, 42.38767], [-82.923, 42.38769], [-82.92288, 42.38773], [-82.92275, 42.38778], [-82.92269, 42.3878], [-82.92177, 42.38813], [-82.92171, 42.38816], [-82.92164, 42.38818], [-82.921, 42.38841], [-82.92084, 42.38847], [-82.92078, 42.38849], [-82.92071, 42.38851], [-82.92061, 42.38855], [-82.91986, 42.38882], [-82.91979, 42.38885], [-82.91972, 42.38887], [-82.91894, 42.38915], [-82.91878, 42.38921], [-82.91871, 42.38923]]}}, {"type": "Feature", "properties": {"name": "Notre Dame Street", "highway": "residential", "length_m": 553.3}, "geometry": {"type": "LineString", "coordinates": [[-82.91811, 42.39168], [-82.91815, 42.39174], [-82.91961, 42.39394], [-82.91964, 42.394], [-82.91968, 42.39406], [-82.92096, 42.39598], [-82.921, 42.3961], [-82.92106, 42.39614]]}}, {"type": "Feature", "properties": {"name": "Waterloo Street", "highway": "residential", "length_m": 1000.6}, "geometry": {"type": "LineString", "coordinates": [[-82.91811, 42.39168], [-82.91805, 42.39171], [-82.91729, 42.39198], [-82.91695, 42.39209], [-82.91684, 42.39213], [-82.91671, 42.39217], [-82.91578, 42.39251], [-82.91505, 42.39277], [-82.91373, 42.39325], [-82.91251, 42.39369], [-82.91139, 42.39409], [-82.90974, 42.39468], [-82.90847, 42.39514], [-82.90718, 42.3956]]}}, {"type": "Feature", "properties": {"name": "Waterloo Street", "highway": "residential", "length_m": 81.2}, "geometry": {"type": "LineString", "coordinates": [[-82.919, 42.39136], [-82.91821, 42.39165], [-82.91811, 42.39168]]}}, {"type": "Feature", "properties": {"name": "Saint Clair Street", "highway": "residential", "length_m": 717.1}, "geometry": {"type": "LineString", "coordinates": [[-82.9164, 42.39146], [-82.91643, 42.39151], [-82.91672, 42.39195], [-82.9168, 42.39207], [-82.91684, 42.39213], [-82.91688, 42.39219], [-82.91699, 42.39236], [-82.91707, 42.39248], [-82.91722, 42.39272], [-82.91728, 42.39281], [-82.91737, 42.39294], [-82.9174, 42.39298], [-82.91753, 42.39318], [-82.9176, 42.39329], [-82.9177, 42.39345], [-82.91775, 42.39352], [-82.91782, 42.39363], [-82.91789, 42.39373], [-82.91797, 42.39385], [-82.91804, 42.39396], [-82.91809, 42.39404], [-82.91814, 42.39412], [-82.91826, 42.3943], [-82.91832, 42.3944], [-82.91836, 42.39446], [-82.91856, 42.39473], [-82.91877, 42.39504], [-82.92007, 42.39705], [-82.92012, 42.3971], [-82.92015, 42.39712], [-82.92024, 42.39716], [-82.92032, 42.39719]]}}, {"type": "Feature", "properties": {"name": "Kercheval Avenue", "highway": "tertiary", "length_m": 279.4}, "geometry": {"type": "LineString", "coordinates": [[-82.91871, 42.38923], [-82.91861, 42.38927], [-82.91852, 42.3893], [-82.91716, 42.38979], [-82.91706, 42.38982], [-82.91695, 42.38986], [-82.91668, 42.38996], [-82.91565, 42.39033]]}}, {"type": "Feature", "properties": {"name": "Kercheval Place", "highway": "residential", "length_m": 36.2}, "geometry": {"type": "LineString", "coordinates": [[-82.91801, 42.38893], [-82.91833, 42.38881], [-82.9184, 42.38879]]}}, {"type": "Feature", "properties": {"name": "Marseilles Street", "highway": "residential", "length_m": 783.5}, "geometry": {"type": "LineString", "coordinates": [[-82.91714, 42.40285], [-82.91717, 42.4029], [-82.9172, 42.40295], [-82.91726, 42.40304], [-82.9174, 42.40324], [-82.91826, 42.40457], [-82.91848, 42.4049], [-82.91852, 42.40497], [-82.91903, 42.40575], [-82.9202, 42.40753], [-82.92104, 42.40879], [-82.9213, 42.40918]]}}, {"type": "Feature", "properties": {"name": "Cadieux Road", "highway": "tertiary", "length_m": 69.3}, "geometry": {"type": "LineString", "coordinates": [[-82.9224, 42.39483], [-82.9225, 42.39499], [-82.92264, 42.3952], [-82.92277, 42.39539]]}}, {"type": "Feature", "properties": {"name": "Mack Avenue", "highway": "secondary", "length_m": 17.1}, "geometry": {"type": "LineString", "coordinates": [[-82.92197, 42.39514], [-82.92201, 42.3951], [-82.92209, 42.39502]]}}, {"type": "Feature", "properties": {"name": "Radnor Street", "highway": "residential", "length_m": 15.1}, "geometry": {"type": "LineString", "coordinates": [[-82.91554, 42.40577], [-82.91563, 42.4058], [-82.9157, 42.40582]]}}, {"type": "Feature", "properties": {"name": "Kercheval Avenue", "highway": "tertiary", "length_m": 91.7}, "geometry": {"type": "LineString", "coordinates": [[-82.91523, 42.39048], [-82.91423, 42.39084]]}}, {"type": "Feature", "properties": {"name": "Kercheval Avenue", "highway": "tertiary", "length_m": 38.7}, "geometry": {"type": "LineString", "coordinates": [[-82.91565, 42.39033], [-82.91523, 42.39048]]}}, {"type": "Feature", "properties": {"name": "Kercheval Avenue", "highway": "tertiary", "length_m": 32.7}, "geometry": {"type": "LineString", "coordinates": [[-82.91387, 42.39097], [-82.91369, 42.39103], [-82.91352, 42.3911]]}}, {"type": "Feature", "properties": {"name": "Kercheval Avenue", "highway": "tertiary", "length_m": 32.7}, "geometry": {"type": "LineString", "coordinates": [[-82.91423, 42.39084], [-82.91387, 42.39097]]}}, {"type": "Feature", "properties": {"name": "Island Lane", "highway": "residential", "length_m": 215.8}, "geometry": {"type": "LineString", "coordinates": [[-82.90311, 42.38584], [-82.90287, 42.38549], [-82.90197, 42.3841]]}}, {"type": "Feature", "properties": {"name": "Dodge Place", "highway": "residential", "length_m": 490.3}, "geometry": {"type": "LineString", "coordinates": [[-82.90185, 42.38635], [-82.90148, 42.38583], [-82.90121, 42.38541], [-82.90116, 42.38531], [-82.90114, 42.38524], [-82.90113, 42.38518], [-82.90113, 42.38485], [-82.90111, 42.38476], [-82.90109, 42.3847], [-82.90096, 42.38443], [-82.90091, 42.38435], [-82.90089, 42.38434], [-82.90084, 42.38434], [-82.90081, 42.38437], [-82.90081, 42.38439], [-82.90081, 42.38441], [-82.90099, 42.38473], [-82.90101, 42.38477], [-82.90101, 42.3848], [-82.90102, 42.38485], [-82.90102, 42.38502], [-82.90104, 42.38527], [-82.90106, 42.38535], [-82.90111, 42.38544], [-82.90138, 42.38586], [-82.90172, 42.3864]]}}, {"type": "Feature", "properties": {"name": "Dodge Place", "highway": "residential", "length_m": 47.8}, "geometry": {"type": "LineString", "coordinates": [[-82.9019, 42.38567], [-82.90148, 42.38583], [-82.90138, 42.38586]]}}, {"type": "Feature", "properties": {"name": "Grosse Pointe Boulevard", "highway": "residential", "length_m": 49.9}, "geometry": {"type": "LineString", "coordinates": [[-82.90309, 42.38935], [-82.90295, 42.38942], [-82.90256, 42.38956]]}}]}