{"type": "FeatureCollection", "features": [{"type": "Feature", "properties": {"name": "Nottingham Road", "highway": "residential", "length_m": 456.8}, "geometry": {"type": "LineString", "coordinates": [[-82.9318, 42.3732], [-82.93261, 42.37443], [-82.93396, 42.37649], [-82.93417, 42.37683], [-82.93421, 42.3769]]}}, {"type": "Feature", "properties": {"name": "Westchester Road", "highway": "residential", "length_m": 1353.3}, "geometry": {"type": "LineString", "coordinates": [[-82.92541, 42.36664], [-82.92572, 42.36689], [-82.92606, 42.36718], [-82.92634, 42.36744], [-82.92668, 42.36778], [-82.92692, 42.36805], [-82.92715, 42.36832], [-82.9274, 42.36865], [-82.92762, 42.36897], [-82.92964, 42.37206], [-82.9297, 42.37215], [-82.93146, 42.37485], [-82.93169, 42.37516], [-82.93299, 42.37722], [-82.93302, 42.37725], [-82.93314, 42.37732]]}}, {"type": "Feature", "properties": {"name": "Beaconsfield Avenue", "highway": "residential", "length_m": 668.1}, "geometry": {"type": "LineString", "coordinates": [[-82.93173, 42.37131], [-82.93179, 42.3714], [-82.9321, 42.37189], [-82.93274, 42.37286], [-82.93354, 42.37409], [-82.93489, 42.37616], [-82.93508, 42.37645], [-82.93513, 42.37652], [-82.93517, 42.37659], [-82.93527, 42.37672]]}}, {"type": "Feature", "properties": {"name": "Fairfax Avenue", "highway": "residential", "length_m": 989.0}, "geometry": {"type": "LineString", "coordinates": [[-82.93795, 42.37249], [-82.9374, 42.37269], [-82.93685, 42.37289], [-82.93572, 42.37331], [-82.93459, 42.37371], [-82.934, 42.37392], [-82.93354, 42.37409], [-82.93307, 42.37426], [-82.93261, 42.37443], [-82.93214, 42.3746], [-82.93146, 42.37485], [-82.93001, 42.37537], [-82.92858, 42.37589], [-82.92725, 42.37638], [-82.92718, 42.3764]]}}, {"type": "Feature", "properties": {"name": "Hally Place", "highway": "residential", "length_m": 130.5}, "geometry": {"type": "LineString", "coordinates": [[-82.93274, 42.37286], [-82.93227, 42.37303], [-82.93211, 42.37309], [-82.9318, 42.3732], [-82.93132, 42.37338]]}}, {"type": "Feature", "properties": {"name": "Lakepointe Street", "highway": "residential", "length_m": 1703.0}, "geometry": {"type": "LineString", "coordinates": [[-82.92654, 42.36268], [-82.92662, 42.36273], [-82.92671, 42.36279], [-82.92735, 42.36356], [-82.92811, 42.36443], [-82.92858, 42.36498], [-82.92938, 42.36598], [-82.93009, 42.36696], [-82.93071, 42.36785], [-82.93276, 42.37095], [-82.93313, 42.37152], [-82.93459, 42.37371], [-82.93617, 42.37612], [-82.93622, 42.37618]]}}, {"type": "Feature", "properties": {"name": "Berkshire Road", "highway": "residential", "length_m": 1076.3}, "geometry": {"type": "LineString", "coordinates": [[-82.92398, 42.36971], [-82.92408, 42.36975], [-82.92418, 42.36979], [-82.92435, 42.3699], [-82.92458, 42.37004], [-82.92469, 42.37012], [-82.92479, 42.37021], [-82.92488, 42.37029], [-82.92497, 42.37039], [-82.9251, 42.37055], [-82.92739, 42.37406], [-82.92745, 42.37415], [-82.92858, 42.37589], [-82.92999, 42.37807], [-82.93007, 42.37819]]}}, {"type": "Feature", "properties": {"name": "Windmill Pointe Drive", "highway": "residential", "length_m": 1044.7}, "geometry": {"type": "LineString", "coordinates": [[-82.9223, 42.37329], [-82.92239, 42.37299], [-82.92286, 42.37202], [-82.92301, 42.37172], [-82.92344, 42.37084], [-82.92349, 42.37075], [-82.92352, 42.37068], [-82.92356, 42.37063], [-82.92373, 42.37043], [-82.92388, 42.37023], [-82.92392, 42.37018], [-82.92418, 42.36979], [-82.92428, 42.36962], [-82.9244, 42.36942], [-82.92458, 42.36907], [-82.92474, 42.36869], [-82.92483, 42.36846], [-82.92489, 42.36828], [-82.92504, 42.36779], [-82.92513, 42.36738], [-82.92528, 42.3665], [-82.92561, 42.36462], [-82.92567, 42.36431]]}}, {"type": "Feature", "properties": {"name": "Windmill Pointe Drive", "highway": "residential", "length_m": 1466.1}, "geometry": {"type": "LineString", "coordinates": [[-82.92906, 42.36115], [-82.92893, 42.36126], [-82.92866, 42.36148], [-82.92838, 42.36167], [-82.92808, 42.36185], [-82.92785, 42.36197], [-82.92774, 42.36202], [-82.92721, 42.36227], [-82.92711, 42.36232], [-82.92699, 42.36238], [-82.92693, 42.36241], [-82.92687, 42.36244], [-82.92676, 42.36252], [-82.92654, 42.36268], [-82.92634, 42.36285], [-82.92618, 42.363], [-82.92615, 42.36303], [-82.92596, 42.36325], [-82.92584, 42.36342], [-82.9257, 42.36364], [-82.92559, 42.36384], [-82.9255, 42.36406], [-82.92546, 42.36422], [-82.92545, 42.36425], [-82.92541, 42.36444], [-82.92539, 42.36453], [-82.92533, 42.36493], [-82.9253, 42.36512], [-82.92528, 42.36523], [-82.92522, 42.36556], [-82.92514, 42.36599], [-82.92509, 42.36632], [-82.92506, 42.36645], [-82.92505, 42.36651], [-82.92501, 42.36673], [-82.92492, 42.36724], [-82.92486, 42.36758], [-82.9248, 42.36786], [-82.92477, 42.36795], [-82.92472, 42.36812], [-82.9247, 42.3682], [-82.92468, 42.36824], [-82.92463, 42.36839], [-82.92461, 42.36844], [-82.92459, 42.36849], [-82.92452, 42.36867], [-82.92445, 42.36882], [-82.9244, 42.36895], [-82.92435, 42.36906], [-82.92421, 42.36933], [-82.92419, 42.36937], [-82.92408, 42.36956], [-82.924, 42.36968], [-82.92398, 42.36971], [-82.92395, 42.36976], [-82.92367, 42.37018], [-82.92355, 42.37034], [-82.92343, 42.37047], [-82.92341, 42.3705], [-82.92336, 42.37055], [-82.92331, 42.37064], [-82.92326, 42.37074], [-82.92286, 42.37155], [-82.92267, 42.37193], [-82.92224, 42.37281]]}}, {"type": "Feature", "properties": {"name": "Avondale Avenue", "highway": "residential", "length_m": 882.8}, "geometry": {"type": "LineString", "coordinates": [[-82.93408, 42.36663], [-82.93351, 42.36684], [-82.93297, 42.36703], [-82.93184, 42.36744], [-82.93071, 42.36785], [-82.93, 42.36811], [-82.92929, 42.36837], [-82.92912, 42.36843], [-82.92762, 42.36897], [-82.92618, 42.3695], [-82.9258, 42.36963], [-82.92556, 42.3697], [-82.92538, 42.36974], [-82.92516, 42.36979], [-82.92493, 42.36982], [-82.92471, 42.36985], [-82.92435, 42.3699]]}}, {"type": "Feature", "properties": {"name": "Middlesex Road", "highway": "residential", "length_m": 20.3}, "geometry": {"type": "LineString", "coordinates": [[-82.92545, 42.36425], [-82.92562, 42.36427], [-82.92567, 42.36431]]}}, {"type": "Feature", "properties": {"name": "Middlesex Road", "highway": "residential", "length_m": 926.5}, "geometry": {"type": "LineString", "coordinates": [[-82.93126, 42.37148], [-82.93078, 42.37068], [-82.92929, 42.36837], [-82.92915, 42.36816], [-82.92889, 42.36779], [-82.92864, 42.36745], [-82.92851, 42.36728], [-82.9278, 42.36641], [-82.92772, 42.36632], [-82.92721, 42.36575], [-82.92681, 42.36534], [-82.92654, 42.36503], [-82.92589, 42.36441], [-82.92567, 42.36431]]}}, {"type": "Feature", "properties": {"name": "Balfour Street", "highway": "residential", "length_m": 1215.7}, "geometry": {"type": "LineString", "coordinates": [[-82.92468, 42.36824], [-82.92479, 42.36826], [-82.92489, 42.36828], [-82.92494, 42.36836], [-82.92518, 42.36852], [-82.92533, 42.36862], [-82.92551, 42.36877], [-82.92566, 42.36891], [-82.92584, 42.36908], [-82.92596, 42.36921], [-82.92607, 42.36935], [-82.92618, 42.3695], [-82.92681, 42.37047], [-82.928, 42.37228], [-82.92846, 42.37299], [-82.92854, 42.37313], [-82.93001, 42.37537], [-82.93007, 42.37547], [-82.93056, 42.37621], [-82.9315, 42.37768], [-82.93158, 42.3778]]}}, {"type": "Feature", "properties": {"name": "Trombley Road", "highway": "residential", "length_m": 980.0}, "geometry": {"type": "LineString", "coordinates": [[-82.92336, 42.37055], [-82.92349, 42.37075], [-82.92356, 42.37086], [-82.92447, 42.37226], [-82.92551, 42.37384], [-82.92598, 42.37457], [-82.92604, 42.37466], [-82.92718, 42.3764], [-82.92845, 42.37837], [-82.92853, 42.37849]]}}, {"type": "Feature", "properties": {"name": "Essex Avenue", "highway": "tertiary", "length_m": 591.9}, "geometry": {"type": "LineString", "coordinates": [[-82.93276, 42.37095], [-82.93261, 42.371], [-82.9318, 42.37129], [-82.93173, 42.37131], [-82.93164, 42.37135], [-82.93132, 42.37146], [-82.93126, 42.37148], [-82.93109, 42.37154], [-82.92964, 42.37206], [-82.92955, 42.3721], [-82.9294, 42.37216], [-82.92924, 42.37224], [-82.92915, 42.3723], [-82.92901, 42.3724], [-82.92893, 42.37247], [-82.92884, 42.37257], [-82.92875, 42.37268], [-82.9286, 42.37297], [-82.92854, 42.37313], [-82.92849, 42.37328], [-82.92841, 42.37346], [-82.92827, 42.37364], [-82.92812, 42.3738], [-82.92795, 42.37392], [-82.92771, 42.37405], [-82.92745, 42.37415]]}}, {"type": "Feature", "properties": {"name": "Lakeview Court", "highway": "residential", "length_m": 224.8}, "geometry": {"type": "LineString", "coordinates": [[-82.92295, 42.36997], [-82.92287, 42.37013], [-82.92267, 42.37053], [-82.92244, 42.37101], [-82.92233, 42.37123], [-82.92202, 42.37187]]}}, {"type": "Feature", "properties": {"name": "Lakeview Court", "highway": "residential", "length_m": 73.6}, "geometry": {"type": "LineString", "coordinates": [[-82.92295, 42.36997], [-82.92336, 42.37055]]}}, {"type": "Feature", "properties": {"name": "Lake Court", "highway": "residential", "length_m": 69.3}, "geometry": {"type": "LineString", "coordinates": [[-82.92244, 42.37101], [-82.92286, 42.37155]]}}, {"type": "Feature", "properties": {"name": "Harcourt Road", "highway": "residential", "length_m": 843.3}, "geometry": {"type": "LineString", "coordinates": [[-82.92267, 42.37193], [-82.92278, 42.37195], [-82.92286, 42.37202], [-82.92478, 42.37502], [-82.92483, 42.37509], [-82.92652, 42.37769], [-82.9271, 42.37858], [-82.92718, 42.37871]]}}, {"type": "Feature", "properties": {"name": "Barrington Road", "highway": "residential", "length_m": 1741.9}, "geometry": {"type": "LineString", "coordinates": [[-82.92893, 42.36126], [-82.92901, 42.36131], [-82.92908, 42.36139], [-82.9299, 42.36254], [-82.93095, 42.36404], [-82.93182, 42.36531], [-82.93297, 42.36703], [-82.93445, 42.36927], [-82.93685, 42.37289], [-82.93807, 42.37475], [-82.93816, 42.37489], [-82.93836, 42.3752], [-82.93841, 42.37526]]}}, {"type": "Feature", "properties": {"name": "Pemberton Road", "highway": "residential", "length_m": 1734.1}, "geometry": {"type": "LineString", "coordinates": [[-82.92785, 42.36197], [-82.92796, 42.36212], [-82.92861, 42.36294], [-82.92883, 42.36323], [-82.92925, 42.36377], [-82.9296, 42.36425], [-82.92963, 42.36429], [-82.92984, 42.36457], [-82.93003, 42.36484], [-82.93024, 42.36513], [-82.93063, 42.36567], [-82.93143, 42.36682], [-82.93184, 42.36744], [-82.9336, 42.37011], [-82.93493, 42.37212], [-82.93572, 42.37331], [-82.93726, 42.37564], [-82.9373, 42.37571], [-82.93741, 42.37586]]}}, {"type": "Feature", "properties": {"name": "Alter Road", "highway": "residential", "length_m": 563.5}, "geometry": {"type": "LineString", "coordinates": [[-82.92996, 42.36037], [-82.92997, 42.3604], [-82.92999, 42.36045], [-82.93001, 42.36049], [-82.93029, 42.36091], [-82.9307, 42.36152], [-82.93097, 42.36194], [-82.93295, 42.36492]]}}, {"type": "Feature", "properties": {"name": "Middlesex Road", "highway": "residential", "length_m": 923.0}, "geometry": {"type": "LineString", "coordinates": [[-82.92567, 42.36431], [-82.92578, 42.36451], [-82.92619, 42.36494], [-82.92651, 42.36527], [-82.92675, 42.36551], [-82.92715, 42.36594], [-82.92754, 42.36636], [-82.92764, 42.36648], [-82.92839, 42.36739], [-82.92872, 42.36784], [-82.92912, 42.36843], [-82.93109, 42.37154]]}}, {"type": "Feature", "properties": {"name": "Riverside Boulevard", "highway": "residential", "length_m": 40.0}, "geometry": {"type": "LineString", "coordinates": [[-82.93012, 42.36004], [-82.93007, 42.36008], [-82.93002, 42.36013], [-82.92999, 42.36019], [-82.92997, 42.36022], [-82.92996, 42.36028], [-82.92996, 42.36037]]}}, {"type": "Feature", "properties": {"name": "Essex Avenue", "highway": "tertiary", "length_m": 344.7}, "geometry": {"type": "LineString", "coordinates": [[-82.93554, 42.36885], [-82.93496, 42.36907], [-82.93455, 42.36923], [-82.93445, 42.36927], [-82.93426, 42.36935], [-82.93412, 42.36942], [-82.93399, 42.36951], [-82.93389, 42.3696], [-82.93379, 42.36971], [-82.93373, 42.3698], [-82.93368, 42.3699], [-82.9336, 42.37011], [-82.93347, 42.37043], [-82.9334, 42.37054], [-82.93333, 42.37063], [-82.93322, 42.37072], [-82.93307, 42.37081], [-82.93291, 42.37089], [-82.93276, 42.37095]]}}, {"type": "Feature", "properties": {"name": "Korte Avenue", "highway": "residential", "length_m": 52.3}, "geometry": {"type": "LineString", "coordinates": [[-82.93295, 42.36492], [-82.93286, 42.36495], [-82.93285, 42.36495], [-82.93237, 42.36512]]}}, {"type": "Feature", "properties": {"name": "Korte Avenue", "highway": "residential", "length_m": 635.9}, "geometry": {"type": "LineString", "coordinates": [[-82.93234, 42.36513], [-82.93182, 42.36531], [-82.93122, 42.3655], [-82.93063, 42.36567], [-82.92938, 42.36598], [-82.92904, 42.36606], [-82.92853, 42.36617], [-82.92797, 42.36628], [-82.92772, 42.36632], [-82.92754, 42.36636], [-82.92675, 42.36648], [-82.92609, 42.36657], [-82.92541, 42.36664], [-82.92535, 42.36659], [-82.92528, 42.3665], [-82.92518, 42.36646], [-82.92506, 42.36645]]}}, {"type": "Feature", "properties": {"name": "Windmill Pointe Drive", "highway": "residential", "length_m": 462.2}, "geometry": {"type": "LineString", "coordinates": [[-82.92567, 42.36431], [-82.92569, 42.36419], [-82.92578, 42.36396], [-82.92588, 42.36373], [-82.926, 42.36354], [-82.92611, 42.36338], [-82.92627, 42.36319], [-82.92655, 42.36292], [-82.92671, 42.36279], [-82.92693, 42.36263], [-82.9271, 42.36252], [-82.92725, 42.36244], [-82.92784, 42.36217], [-82.92796, 42.36212], [-82.92825, 42.36196], [-82.92853, 42.36179], [-82.92879, 42.36162], [-82.92908, 42.36139], [-82.92923, 42.36126]]}}, {"type": "Feature", "properties": {"name": "Windmill Pointe Drive", "highway": "residential", "length_m": 164.7}, "geometry": {"type": "LineString", "coordinates": [[-82.92923, 42.36126], [-82.9293, 42.36121], [-82.92935, 42.3611], [-82.92953, 42.36094], [-82.92957, 42.36091], [-82.92978, 42.36072], [-82.92974, 42.36066], [-82.92964, 42.36065], [-82.92946, 42.36081], [-82.92942, 42.36084], [-82.92906, 42.36115]]}}, {"type": "Feature", "properties": {"name": "Bedford Lane", "highway": "residential", "length_m": 138.9}, "geometry": {"type": "LineString", "coordinates": [[-82.92128, 42.37184], [-82.92174, 42.37253], [-82.92178, 42.37258], [-82.92182, 42.37262], [-82.92191, 42.37269], [-82.92199, 42.37273], [-82.92207, 42.37277], [-82.92224, 42.37281]]}}, {"type": "Feature", "properties": {"name": "Bedford Lane", "highway": "residential", "length_m": 53.5}, "geometry": {"type": "LineString", "coordinates": [[-82.92224, 42.37281], [-82.92221, 42.37301], [-82.9223, 42.37329]]}}, {"type": "Feature", "properties": {"name": "Bedford Road", "highway": "residential", "length_m": 569.2}, "geometry": {"type": "LineString", "coordinates": [[-82.9223, 42.37329], [-82.92236, 42.37339], [-82.92254, 42.37367], [-82.92364, 42.37543], [-82.92369, 42.37551], [-82.92372, 42.37555], [-82.92525, 42.37791]]}}, {"type": "Feature", "properties": {"name": "East Outer Drive", "highway": "tertiary", "length_m": 819.7}, "geometry": {"type": "LineString", "coordinates": [[-82.9335, 42.39878], [-82.93278, 42.39769], [-82.93206, 42.39659], [-82.93171, 42.39604], [-82.93135, 42.3955], [-82.93063, 42.39439], [-82.92996, 42.39336], [-82.92925, 42.39231], [-82.92924, 42.3923], [-82.92906, 42.39222]]}}, {"type": "Feature", "properties": {"name": "Nottingham Road", "highway": "residential", "length_m": 1846.1}, "geometry": {"type": "LineString", "coordinates": [[-82.94884, 42.3991], [-82.94857, 42.3987], [-82.94772, 42.39742], [-82.94664, 42.3958], [-82.94555, 42.39418], [-82.94447, 42.39255], [-82.94339, 42.39093], [-82.94231, 42.38931], [-82.94191, 42.38871], [-82.94166, 42.38834], [-82.94143, 42.388], [-82.94046, 42.38653], [-82.93893, 42.38421]]}}, {"type": "Feature", "properties": {"name": "East Jefferson Avenue", "highway": "secondary", "length_m": 18.6}, "geometry": {"type": "LineString", "coordinates": [[-82.93863, 42.37524], [-82.93841, 42.37526]]}}, {"type": "Feature", "properties": {"name": "Yorkshire Road", "highway": "residential", "length_m": 2000.1}, "geometry": {"type": "LineString", "coordinates": [[-82.92667, 42.39318], [-82.92676, 42.39332], [-82.92694, 42.39359], [-82.92807, 42.39531], [-82.92951, 42.3975], [-82.92998, 42.39822], [-82.93056, 42.3991], [-82.93095, 42.3997], [-82.933, 42.40282], [-82.93385, 42.4041], [-82.93404, 42.4044], [-82.93411, 42.4045], [-82.93418, 42.4046], [-82.93438, 42.40491], [-82.93522, 42.40619], [-82.93629, 42.40782], [-82.93704, 42.40897], [-82.93725, 42.40928], [-82.9373, 42.40935]]}}, {"type": "Feature", "properties": {"name": "Yorkshire Road", "highway": "residential", "length_m": 1599.4}, "geometry": {"type": "LineString", "coordinates": [[-82.91804, 42.38031], [-82.91997, 42.38325], [-82.92112, 42.38502], [-82.92149, 42.38558], [-82.92172, 42.38595], [-82.92283, 42.38766], [-82.92288, 42.38773], [-82.92293, 42.38781], [-82.92406, 42.38954], [-82.92558, 42.39187], [-82.92648, 42.39326]]}}, {"type": "Feature", "properties": {"name": "Beaconsfield Avenue", "highway": "residential", "length_m": 1370.7}, "geometry": {"type": "LineString", "coordinates": [[-82.93554, 42.37715], [-82.93583, 42.3776], [-82.93734, 42.37989], [-82.93847, 42.38162], [-82.93851, 42.38167], [-82.93869, 42.38197], [-82.93874, 42.38205], [-82.9388, 42.38213], [-82.93899, 42.38242], [-82.93993, 42.38385], [-82.94146, 42.38617], [-82.94254, 42.38781], [-82.94266, 42.3878], [-82.94291, 42.38813]]}}, {"type": "Feature", "properties": {"name": "Hampton Street", "highway": "residential", "length_m": 85.8}, "geometry": {"type": "LineString", "coordinates": [[-82.94043, 42.37624], [-82.94033, 42.37628], [-82.94029, 42.37629], [-82.93995, 42.37641], [-82.9396, 42.37653], [-82.93949, 42.37657]]}}, {"type": "Feature", "properties": {"name": "Grayton Street", "highway": "residential", "length_m": 1395.7}, "geometry": {"type": "LineString", "coordinates": [[-82.92462, 42.39398], [-82.92471, 42.39412], [-82.92475, 42.39417], [-82.92494, 42.39447], [-82.92599, 42.39606], [-82.92744, 42.39825], [-82.9275, 42.39836], [-82.92888, 42.40045], [-82.93094, 42.40358], [-82.93179, 42.40486], [-82.93205, 42.40526]]}}, {"type": "Feature", "properties": {"name": "Grayton Street", "highway": "residential", "length_m": 1078.0}, "geometry": {"type": "LineString", "coordinates": [[-82.91974, 42.38537], [-82.91914, 42.38559], [-82.9191, 42.38562], [-82.91907, 42.38564], [-82.91905, 42.38567], [-82.91903, 42.3857], [-82.91902, 42.38577], [-82.91904, 42.38584], [-82.91937, 42.38634], [-82.92073, 42.38841], [-82.92078, 42.38849], [-82.92083, 42.38857], [-82.92197, 42.3903], [-82.92349, 42.39262], [-82.9243, 42.39386]]}}, {"type": "Feature", "properties": {"name": "Goethe Street", "highway": "residential", "length_m": 42.4}, "geometry": {"type": "LineString", "coordinates": [[-82.94667, 42.3858], [-82.94655, 42.38584], [-82.94639, 42.3859], [-82.94621, 42.38596]]}}, {"type": "Feature", "properties": {"name": "Wayburn Street", "highway": "residential", "length_m": 51.3}, "geometry": {"type": "LineString", "coordinates": [[-82.93863, 42.37524], [-82.9387, 42.37539], [-82.93888, 42.37566]]}}, {"type": "Feature", "properties": {"name": "Lakepointe Street", "highway": "residential", "length_m": 1441.3}, "geometry": {"type": "LineString", "coordinates": [[-82.93634, 42.37629], [-82.93643, 42.37637], [-82.93689, 42.37707], [-82.93738, 42.37781], [-82.93783, 42.37849], [-82.93849, 42.37948], [-82.93953, 42.38107], [-82.93961, 42.3812], [-82.93965, 42.38125], [-82.9397, 42.38134], [-82.93976, 42.38144], [-82.93984, 42.38155], [-82.93989, 42.38163], [-82.93995, 42.38172], [-82.94014, 42.382], [-82.94107, 42.38344], [-82.94261, 42.38576], [-82.94348, 42.38708], [-82.94381, 42.38758], [-82.94404, 42.38792]]}}, {"type": "Feature", "properties": {"name": "Lakepointe Street", "highway": "residential", "length_m": 2093.7}, "geometry": {"type": "LineString", "coordinates": [[-82.94447, 42.38785], [-82.94471, 42.3882], [-82.94647, 42.39084], [-82.94814, 42.39334], [-82.94903, 42.39468], [-82.94975, 42.39576], [-82.95109, 42.39778], [-82.95117, 42.39791], [-82.95136, 42.39818], [-82.95163, 42.39858], [-82.95247, 42.39986], [-82.95302, 42.40068], [-82.95357, 42.4015], [-82.95456, 42.40295], [-82.9546, 42.40301], [-82.95472, 42.40319], [-82.95477, 42.40326], [-82.95575, 42.40472]]}}, {"type": "Feature", "properties": {"name": "Berkshire Road", "highway": "residential", "length_m": 1368.2}, "geometry": {"type": "LineString", "coordinates": [[-82.93039, 42.37811], [-82.93211, 42.38074], [-82.93266, 42.38158], [-82.93401, 42.38365], [-82.93406, 42.38373], [-82.93411, 42.38381], [-82.93525, 42.38553], [-82.93675, 42.38786], [-82.93764, 42.38918]]}}, {"type": "Feature", "properties": {"name": "Essex Drive", "highway": "tertiary", "length_m": 755.9}, "geometry": {"type": "LineString", "coordinates": [[-82.92745, 42.37415], [-82.92611, 42.37463], [-82.92604, 42.37466], [-82.92595, 42.37469], [-82.92483, 42.37509], [-82.92369, 42.37551], [-82.92296, 42.37577], [-82.92282, 42.37582], [-82.9226, 42.3759], [-82.92213, 42.37607], [-82.92057, 42.37663], [-82.92049, 42.37666], [-82.92039, 42.37669], [-82.91928, 42.37709], [-82.9192, 42.37712]]}}, {"type": "Feature", "properties": {"name": "Lakepointe Road", "highway": "residential", "length_m": 15.6}, "geometry": {"type": "LineString", "coordinates": [[-82.93622, 42.37618], [-82.93634, 42.37629]]}}, {"type": "Feature", "properties": {"name": "Buckingham Road", "highway": "residential", "length_m": 1378.1}, "geometry": {"type": "LineString", "coordinates": [[-82.9288, 42.37845], [-82.93017, 42.38053], [-82.9312, 42.3821], [-82.93255, 42.38418], [-82.9326, 42.38425], [-82.93265, 42.38433], [-82.93378, 42.38605], [-82.93433, 42.38688], [-82.935, 42.38792], [-82.93531, 42.38838], [-82.9361, 42.3896]]}}, {"type": "Feature", "properties": {"name": "Bishop Street", "highway": "residential", "length_m": 1397.8}, "geometry": {"type": "LineString", "coordinates": [[-82.92569, 42.39356], [-82.92578, 42.39371], [-82.9258, 42.39373], [-82.92596, 42.39397], [-82.92707, 42.39567], [-82.92851, 42.39786], [-82.92995, 42.40006], [-82.932, 42.40319], [-82.93284, 42.40448], [-82.93286, 42.40451], [-82.93303, 42.40477], [-82.9331, 42.40487]]}}, {"type": "Feature", "properties": {"name": "Maryland Street", "highway": "residential", "length_m": 18.8}, "geometry": {"type": "LineString", "coordinates": [[-82.93765, 42.37556], [-82.93775, 42.37571]]}}, {"type": "Feature", "properties": {"name": "Bishop Road", "highway": "residential", "length_m": 1337.2}, "geometry": {"type": "LineString", "coordinates": [[-82.91804, 42.383], [-82.91828, 42.38323], [-82.91866, 42.38372], [-82.91913, 42.38441], [-82.91921, 42.38455], [-82.91974, 42.38537], [-82.9198, 42.38538], [-82.91986, 42.3854], [-82.91991, 42.38544], [-82.91995, 42.38547], [-82.9203, 42.38601], [-82.92166, 42.38808], [-82.92171, 42.38816], [-82.92176, 42.38823], [-82.9229, 42.38996], [-82.92442, 42.39228], [-82.92527, 42.39357], [-82.92535, 42.3937]]}}, {"type": "Feature", "properties": {"name": "Vernor Highway", "highway": "residential", "length_m": 2244.3}, "geometry": {"type": "LineString", "coordinates": [[-82.94441, 42.38224], [-82.94391, 42.38242], [-82.9439, 42.38242], [-82.94345, 42.38258], [-82.94298, 42.38276], [-82.94251, 42.38293], [-82.94176, 42.38319], [-82.94107, 42.38344], [-82.94043, 42.38367], [-82.93993, 42.38385], [-82.93943, 42.38403], [-82.93893, 42.38421], [-82.93796, 42.38455], [-82.93672, 42.385], [-82.93525, 42.38553], [-82.93378, 42.38605], [-82.93234, 42.38657], [-82.93113, 42.38701], [-82.92963, 42.38755], [-82.928, 42.38813], [-82.9267, 42.3886], [-82.92539, 42.38906], [-82.92406, 42.38954], [-82.9229, 42.38996], [-82.92197, 42.3903], [-82.92099, 42.39065], [-82.9199, 42.39104]]}}, {"type": "Feature", "properties": {"name": "Courville Street", "highway": "residential", "length_m": 1370.4}, "geometry": {"type": "LineString", "coordinates": [[-82.93145, 42.39124], [-82.9317, 42.39163], [-82.93253, 42.3929], [-82.93296, 42.39356], [-82.9336, 42.39452], [-82.9344, 42.39575], [-82.93466, 42.39615], [-82.93573, 42.39778], [-82.93584, 42.39795], [-82.9368, 42.39941], [-82.93787, 42.40104], [-82.93868, 42.40234]]}}, {"type": "Feature", "properties": {"name": "Goethe Avenue", "highway": "residential", "length_m": 115.7}, "geometry": {"type": "LineString", "coordinates": [[-82.94481, 42.38647], [-82.94527, 42.3863], [-82.94574, 42.38612], [-82.94588, 42.38608], [-82.94607, 42.38601]]}}, {"type": "Feature", "properties": {"name": "Three Mile Drive", "highway": "residential", "length_m": 1852.4}, "geometry": {"type": "LineString", "coordinates": [[-82.92213, 42.37607], [-82.92216, 42.37612], [-82.92251, 42.37665], [-82.92264, 42.37685], [-82.92313, 42.3776], [-82.92322, 42.37775], [-82.92336, 42.37796], [-82.92411, 42.37911], [-82.92418, 42.37922], [-82.92493, 42.38036], [-82.92545, 42.38114], [-82.92565, 42.38145], [-82.92629, 42.38243], [-82.92639, 42.38258], [-82.92641, 42.38261], [-82.9265, 42.38275], [-82.92705, 42.38359], [-82.9284, 42.38567], [-82.92845, 42.38574], [-82.9285, 42.38582], [-82.92963, 42.38755], [-82.93091, 42.3895], [-82.93115, 42.38987], [-82.93193, 42.39106]]}}, {"type": "Feature", "properties": {"name": "Balfour Street", "highway": "residential", "length_m": 1375.3}, "geometry": {"type": "LineString", "coordinates": [[-82.93193, 42.37769], [-82.93414, 42.38105], [-82.93549, 42.38312], [-82.93554, 42.3832], [-82.93559, 42.38327], [-82.93672, 42.385], [-82.93822, 42.3873], [-82.93922, 42.38882]]}}, {"type": "Feature", "properties": {"name": "Balfour Road", "highway": "residential", "length_m": 2273.5}, "geometry": {"type": "LineString", "coordinates": [[-82.93942, 42.38877], [-82.9396, 42.38902], [-82.93965, 42.38911], [-82.94027, 42.39005], [-82.94134, 42.39168], [-82.94241, 42.39331], [-82.94348, 42.39494], [-82.94455, 42.39657], [-82.94562, 42.39819], [-82.94647, 42.39947], [-82.94673, 42.39988], [-82.94699, 42.40027], [-82.94783, 42.40156], [-82.94891, 42.40319], [-82.94987, 42.40465], [-82.94992, 42.40473], [-82.95004, 42.40491], [-82.9501, 42.40499], [-82.95105, 42.40644], [-82.95152, 42.40715]]}}, {"type": "Feature", "properties": {"name": "Somerset Avenue", "highway": "residential", "length_m": 1976.9}, "geometry": {"type": "LineString", "coordinates": [[-82.94057, 42.38854], [-82.94081, 42.3889], [-82.94132, 42.38967], [-82.9424, 42.39129], [-82.94348, 42.39292], [-82.94456, 42.39454], [-82.94563, 42.39617], [-82.94671, 42.39779], [-82.94756, 42.39907], [-82.94783, 42.39947], [-82.94809, 42.39987], [-82.94894, 42.40115], [-82.95002, 42.40278], [-82.95099, 42.40423], [-82.95104, 42.40431], [-82.9511, 42.40441], [-82.95116, 42.4045]]}}, {"type": "Feature", "properties": {"name": "Somerset Avenue", "highway": "residential", "length_m": 408.8}, "geometry": {"type": "LineString", "coordinates": [[-82.93314, 42.37732], [-82.93326, 42.37743], [-82.93522, 42.38038], [-82.93537, 42.3806]]}}, {"type": "Feature", "properties": {"name": "Devonshire Road", "highway": "residential", "length_m": 1418.2}, "geometry": {"type": "LineString", "coordinates": [[-82.93441, 42.39016], [-82.93463, 42.39051], [-82.93548, 42.39181], [-82.93655, 42.39344], [-82.93761, 42.39507], [-82.93868, 42.3967], [-82.93974, 42.39833], [-82.9408, 42.39996], [-82.94164, 42.40124], [-82.94191, 42.40164]]}}, {"type": "Feature", "properties": {"name": "Devonshire Road", "highway": "residential", "length_m": 1405.9}, "geometry": {"type": "LineString", "coordinates": [[-82.92718, 42.37871], [-82.92976, 42.38262], [-82.93031, 42.38347], [-82.9311, 42.38469], [-82.93115, 42.38477], [-82.9312, 42.38485], [-82.93234, 42.38657], [-82.93262, 42.387], [-82.93386, 42.3889], [-82.93428, 42.38954], [-82.93463, 42.39008]]}}, {"type": "Feature", "properties": {"name": "Buckingham Avenue", "highway": "residential", "length_m": 1411.2}, "geometry": {"type": "LineString", "coordinates": [[-82.93635, 42.38952], [-82.93658, 42.38987], [-82.93739, 42.39111], [-82.93846, 42.39274], [-82.93952, 42.39437], [-82.94059, 42.396], [-82.94165, 42.39763], [-82.94272, 42.39926], [-82.94357, 42.40055], [-82.94382, 42.40094]]}}, {"type": "Feature", "properties": {"name": "Chatsworth Street", "highway": "residential", "length_m": 576.2}, "geometry": {"type": "LineString", "coordinates": [[-82.93834, 42.38902], [-82.93857, 42.38937], [-82.93926, 42.39042], [-82.94033, 42.39205], [-82.94139, 42.39368]]}}, {"type": "Feature", "properties": {"name": "Haverhill Street", "highway": "residential", "length_m": 1416.7}, "geometry": {"type": "LineString", "coordinates": [[-82.94287, 42.40129], [-82.94261, 42.4009], [-82.94176, 42.39961], [-82.9407, 42.39798], [-82.93963, 42.39635], [-82.93857, 42.39472], [-82.9375, 42.39309], [-82.93644, 42.39146], [-82.9356, 42.39018], [-82.93552, 42.39006], [-82.93537, 42.38983]]}}, {"type": "Feature", "properties": {"name": "Charlevoix Street", "highway": "residential", "length_m": 120.6}, "geometry": {"type": "LineString", "coordinates": [[-82.92952, 42.39046], [-82.92935, 42.39052], [-82.92821, 42.39095]]}}, {"type": "Feature", "properties": {"name": "Audubon Road", "highway": "residential", "length_m": 1348.0}, "geometry": {"type": "LineString", "coordinates": [[-82.92238, 42.37955], [-82.92243, 42.3796], [-82.92542, 42.38417], [-82.92677, 42.38625], [-82.92682, 42.38633], [-82.92687, 42.38641], [-82.928, 42.38813], [-82.92952, 42.39046]]}}, {"type": "Feature", "properties": {"name": "Kensington Avenue", "highway": "residential", "length_m": 2003.6}, "geometry": {"type": "LineString", "coordinates": [[-82.9278, 42.39273], [-82.92789, 42.39287], [-82.92921, 42.3949], [-82.93065, 42.3971], [-82.93112, 42.39782], [-82.93159, 42.39855], [-82.93207, 42.3993], [-82.93411, 42.40241], [-82.93496, 42.4037], [-82.93515, 42.40398], [-82.93522, 42.4041], [-82.93529, 42.40419], [-82.9355, 42.40451], [-82.93635, 42.40577], [-82.93742, 42.4074], [-82.93837, 42.40887], [-82.93842, 42.40894]]}}, {"type": "Feature", "properties": {"name": "Saint Paul Street", "highway": "residential", "length_m": 3359.5}, "geometry": {"type": "LineString", "coordinates": [[-82.94127, 42.37849], [-82.94085, 42.37863], [-82.94036, 42.37881], [-82.93999, 42.37895], [-82.9399, 42.37898], [-82.93982, 42.37901], [-82.93915, 42.37924], [-82.93849, 42.37948], [-82.93782, 42.37972], [-82.93734, 42.37989], [-82.93684, 42.38007], [-82.93634, 42.38025], [-82.93537, 42.3806], [-82.93414, 42.38105], [-82.93266, 42.38158], [-82.9312, 42.3821], [-82.92976, 42.38262], [-82.92855, 42.38306], [-82.92705, 42.38359], [-82.92542, 42.38417], [-82.92412, 42.38463], [-82.92282, 42.38511], [-82.92149, 42.38558], [-82.9203, 42.38601], [-82.91937, 42.38634], [-82.91838, 42.3867], [-82.91729, 42.38709], [-82.91552, 42.38773], [-82.91424, 42.38818], [-82.91343, 42.38847], [-82.91246, 42.38882], [-82.91114, 42.38929], [-82.90991, 42.38974], [-82.90879, 42.39014], [-82.90715, 42.39073], [-82.90587, 42.39118], [-82.90506, 42.39147], [-82.90458, 42.39164]]}}, {"type": "Feature", "properties": {"name": "Harvard Road", "highway": "residential", "length_m": 3663.9}, "geometry": {"type": "LineString", "coordinates": [[-82.91469, 42.3811], [-82.9149, 42.38142], [-82.91685, 42.38437], [-82.91838, 42.3867], [-82.91974, 42.38877], [-82.91979, 42.38885], [-82.91984, 42.38892], [-82.92099, 42.39065], [-82.92251, 42.39297], [-82.92324, 42.39408], [-82.92346, 42.39443], [-82.92355, 42.39457], [-82.92374, 42.39485], [-82.92378, 42.39493], [-82.92482, 42.39649], [-82.92627, 42.39868], [-82.92771, 42.40088], [-82.92977, 42.40401], [-82.93062, 42.40529], [-82.9308, 42.40556], [-82.93088, 42.40569], [-82.93098, 42.40584], [-82.93115, 42.40609], [-82.93199, 42.40737], [-82.93306, 42.409], [-82.934, 42.41043], [-82.93402, 42.41046], [-82.93407, 42.41053], [-82.93419, 42.41072]]}}, {"type": "Feature", "properties": {"name": "Charlevoix Avenue", "highway": "residential", "length_m": 1094.0}, "geometry": {"type": "LineString", "coordinates": [[-82.94146, 42.38617], [-82.94097, 42.38635], [-82.94059, 42.38648], [-82.94046, 42.38653], [-82.94035, 42.38656], [-82.93948, 42.38684], [-82.93837, 42.38725], [-82.93822, 42.3873], [-82.93804, 42.38736], [-82.93675, 42.38786], [-82.93547, 42.38832], [-82.93531, 42.38838], [-82.93511, 42.38845], [-82.93386, 42.3889], [-82.93285, 42.38926], [-82.93282, 42.38927], [-82.93265, 42.38933], [-82.93252, 42.38938], [-82.93115, 42.38987], [-82.93006, 42.39026], [-82.92976, 42.39037], [-82.92966, 42.39041], [-82.92952, 42.39046]]}}, {"type": "Feature", "properties": {"name": "Charlevoix Avenue", "highway": "tertiary", "length_m": 1785.5}, "geometry": {"type": "LineString", "coordinates": [[-82.92821, 42.39095], [-82.92691, 42.39139], [-82.92573, 42.39182], [-82.92558, 42.39187], [-82.9254, 42.39193], [-82.92442, 42.39228], [-82.9236, 42.39258], [-82.92349, 42.39262], [-82.92338, 42.39266], [-82.92251, 42.39297], [-82.92155, 42.39332], [-82.92143, 42.39336], [-82.92135, 42.39339], [-82.92122, 42.39343], [-82.92059, 42.39366], [-82.92053, 42.39368], [-82.92047, 42.39371], [-82.91976, 42.39396], [-82.91972, 42.39397], [-82.91964, 42.394], [-82.91957, 42.39403], [-82.91952, 42.39405], [-82.91889, 42.39427], [-82.91848, 42.39442], [-82.91836, 42.39446], [-82.91726, 42.39486], [-82.91672, 42.39505], [-82.91659, 42.3951], [-82.91644, 42.39515], [-82.91526, 42.39557], [-82.91416, 42.39597], [-82.91403, 42.39601], [-82.91386, 42.39607], [-82.91291, 42.39641], [-82.91141, 42.39695], [-82.91127, 42.39701], [-82.91107, 42.39707], [-82.91, 42.39746], [-82.90879, 42.39789], [-82.9087, 42.39792]]}}, {"type": "Feature", "properties": {"name": "Barham Street", "highway": "residential", "length_m": 2244.1}, "geometry": {"type": "LineString", "coordinates": [[-82.94335, 42.38805], [-82.94359, 42.38841], [-82.94491, 42.39037], [-82.94547, 42.39121], [-82.94599, 42.39199], [-82.94708, 42.39362], [-82.94714, 42.39371], [-82.94816, 42.39524], [-82.94875, 42.39612], [-82.94925, 42.39686], [-82.95009, 42.39816], [-82.95035, 42.39855], [-82.95064, 42.39894], [-82.95149, 42.40022], [-82.95204, 42.40104], [-82.95256, 42.40185], [-82.95357, 42.40331], [-82.95361, 42.40337], [-82.95374, 42.40355], [-82.95379, 42.40363], [-82.95477, 42.40508], [-82.95547, 42.40612]]}}, {"type": "Feature", "properties": {"name": "East Jefferson Avenue", "highway": "secondary", "length_m": 228.1}, "geometry": {"type": "LineString", "coordinates": [[-82.93385, 42.37718], [-82.93387, 42.37718], [-82.93432, 42.37703], [-82.93457, 42.37695], [-82.93527, 42.37672], [-82.93533, 42.3767], [-82.93583, 42.37652], [-82.93634, 42.37629]]}}, {"type": "Feature", "properties": {"name": "East Jefferson Avenue", "highway": "secondary", "length_m": 1475.8}, "geometry": {"type": "LineString", "coordinates": [[-82.92418, 42.37922], [-82.92325, 42.37939], [-82.92238, 42.37955], [-82.92094, 42.3798], [-82.9202, 42.37993], [-82.91991, 42.37998], [-82.91952, 42.38005], [-82.91888, 42.38016], [-82.91851, 42.38022], [-82.91804, 42.38031], [-82.91771, 42.38036], [-82.91652, 42.38058], [-82.91624, 42.38062], [-82.91561, 42.38074], [-82.91554, 42.38076], [-82.91548, 42.38078], [-82.91543, 42.3808], [-82.91514, 42.38092], [-82.9151, 42.38094], [-82.91469, 42.3811], [-82.91432, 42.38126], [-82.91423, 42.38129], [-82.91363, 42.38154], [-82.91336, 42.38165], [-82.91298, 42.38181], [-82.9125, 42.38201], [-82.91231, 42.38209], [-82.9119, 42.38225], [-82.9114, 42.38245], [-82.91065, 42.38276], [-82.91054, 42.3828], [-82.90968, 42.38315], [-82.90952, 42.38321], [-82.90892, 42.38346], [-82.90874, 42.38354], [-82.90765, 42.38399]]}}, {"type": "Feature", "properties": {"name": "Mack Avenue", "highway": "secondary", "length_m": 45.8}, "geometry": {"type": "LineString", "coordinates": [[-82.94718, 42.38738], [-82.94709, 42.3874], [-82.94664, 42.38747]]}}, {"type": "Feature", "properties": {"name": "East Jefferson Avenue", "highway": "secondary", "length_m": 28.6}, "geometry": {"type": "LineString", "coordinates": [[-82.93843, 42.37542], [-82.93857, 42.37536], [-82.93863, 42.37524]]}}, {"type": "Feature", "properties": {"name": "Wayburn Street", "highway": "residential", "length_m": 255.0}, "geometry": {"type": "LineString", "coordinates": [[-82.93949, 42.37657], [-82.93955, 42.37667], [-82.94085, 42.37863]]}}, {"type": "Feature", "properties": {"name": "Maryland Street", "highway": "residential", "length_m": 510.5}, "geometry": {"type": "LineString", "coordinates": [[-82.94133, 42.38111], [-82.94137, 42.38118], [-82.94157, 42.38149], [-82.94245, 42.38282], [-82.94251, 42.38293], [-82.94326, 42.38403], [-82.94402, 42.38525]]}}, {"type": "Feature", "properties": {"name": "Kercheval Street", "highway": "tertiary", "length_m": 328.0}, "geometry": {"type": "LineString", "coordinates": [[-82.94133, 42.38111], [-82.94125, 42.38114], [-82.9406, 42.38138], [-82.93998, 42.3816], [-82.93989, 42.38163], [-82.93981, 42.38166], [-82.93883, 42.38202], [-82.93874, 42.38205], [-82.93866, 42.38208], [-82.93787, 42.38236], [-82.93781, 42.38238], [-82.93775, 42.3824]]}}, {"type": "Feature", "properties": {"name": "East Jefferson Avenue", "highway": "secondary", "length_m": 136.1}, "geometry": {"type": "LineString", "coordinates": [[-82.93765, 42.37556], [-82.93754, 42.37561], [-82.9373, 42.37571], [-82.93678, 42.37593], [-82.93622, 42.37618]]}}, {"type": "Feature", "properties": {"name": "East Jefferson Avenue", "highway": "secondary", "length_m": 52.0}, "geometry": {"type": "LineString", "coordinates": [[-82.93775, 42.37571], [-82.93783, 42.37568], [-82.93802, 42.3756], [-82.9383, 42.37548]]}}, {"type": "Feature", "properties": {"name": "Maryland Street", "highway": "residential", "length_m": 1556.5}, "geometry": {"type": "LineString", "coordinates": [[-82.94402, 42.38525], [-82.94423, 42.38556], [-82.94477, 42.38641], [-82.94481, 42.38647], [-82.94486, 42.38655], [-82.94537, 42.3873], [-82.9455, 42.38748], [-82.9456, 42.38765], [-82.94568, 42.38778], [-82.94584, 42.38801], [-82.94645, 42.3889], [-82.9475, 42.39047], [-82.94914, 42.39298], [-82.95074, 42.39539], [-82.95212, 42.39741], [-82.95239, 42.3978]]}}, {"type": "Feature", "properties": {"name": "Charlevoix Street", "highway": "residential", "length_m": 234.8}, "geometry": {"type": "LineString", "coordinates": [[-82.94402, 42.38525], [-82.94327, 42.38552], [-82.94278, 42.38569], [-82.94261, 42.38576], [-82.94244, 42.38582], [-82.94195, 42.38599], [-82.94146, 42.38617]]}}, {"type": "Feature", "properties": {"name": "East Jefferson Avenue", "highway": "secondary", "length_m": 223.8}, "geometry": {"type": "LineString", "coordinates": [[-82.93622, 42.37618], [-82.93578, 42.37635], [-82.93569, 42.37639], [-82.93524, 42.37656], [-82.93517, 42.37659], [-82.935, 42.37664], [-82.93471, 42.37674], [-82.93421, 42.3769], [-82.93377, 42.37704]]}}, {"type": "Feature", "properties": {"name": "East Jefferson Avenue", "highway": "secondary", "length_m": 133.2}, "geometry": {"type": "LineString", "coordinates": [[-82.93634, 42.37629], [-82.93708, 42.37599], [-82.93741, 42.37586], [-82.93775, 42.37571]]}}, {"type": "Feature", "properties": {"name": "Maryland Street", "highway": "residential", "length_m": 520.3}, "geometry": {"type": "LineString", "coordinates": [[-82.93854, 42.37691], [-82.93864, 42.37706], [-82.93981, 42.37883], [-82.93981, 42.37884], [-82.93986, 42.37892], [-82.9399, 42.37898], [-82.93994, 42.37904], [-82.94095, 42.38056], [-82.94108, 42.38075], [-82.94113, 42.38081], [-82.94129, 42.38105], [-82.94133, 42.38111]]}}, {"type": "Feature", "properties": {"name": "East Jefferson Avenue", "highway": "secondary", "length_m": 28.8}, "geometry": {"type": "LineString", "coordinates": [[-82.93894, 42.37512], [-82.93879, 42.37518], [-82.93863, 42.37524]]}}, {"type": "Feature", "properties": {"name": "Mack Avenue", "highway": "secondary", "length_m": 67.4}, "geometry": {"type": "LineString", "coordinates": [[-82.92313, 42.39456], [-82.92304, 42.39459], [-82.92291, 42.39464], [-82.92253, 42.39478], [-82.9224, 42.39483]]}}, {"type": "Feature", "properties": {"name": "Charlevoix Street", "highway": "residential", "length_m": 172.5}, "geometry": {"type": "LineString", "coordinates": [[-82.94591, 42.38457], [-82.94544, 42.38474], [-82.9452, 42.38482], [-82.94497, 42.38491], [-82.94451, 42.38507], [-82.94402, 42.38525]]}}, {"type": "Feature", "properties": {"name": "Nottingham Road", "highway": "residential", "length_m": 223.7}, "geometry": {"type": "LineString", "coordinates": [[-82.93893, 42.38421], [-82.93781, 42.38249], [-82.93775, 42.3824]]}}, {"type": "Feature", "properties": {"name": "Nottingham Road", "highway": "residential", "length_m": 580.3}, "geometry": {"type": "LineString", "coordinates": [[-82.93775, 42.3824], [-82.9377, 42.38233], [-82.93634, 42.38025], [-82.93476, 42.37785], [-82.93474, 42.37778], [-82.93474, 42.37769]]}}, {"type": "Feature", "properties": {"name": "3 Mile Drive", "highway": "residential", "length_m": 1419.9}, "geometry": {"type": "LineString", "coordinates": [[-82.93997, 42.40236], [-82.93971, 42.40197], [-82.93886, 42.40067], [-82.93779, 42.39904], [-82.93673, 42.39742], [-82.93566, 42.39579], [-82.93459, 42.39416], [-82.93353, 42.39253], [-82.93269, 42.39125], [-82.93244, 42.39087]]}}, {"type": "Feature", "properties": {"name": "Bedford Street", "highway": "residential", "length_m": 1420.3}, "geometry": {"type": "LineString", "coordinates": [[-82.93343, 42.3905], [-82.93366, 42.39086], [-82.93453, 42.39216], [-82.93559, 42.39379], [-82.93666, 42.39542], [-82.93772, 42.39705], [-82.93879, 42.39868], [-82.93985, 42.40031], [-82.9407, 42.4016], [-82.94096, 42.40199]]}}, {"type": "Feature", "properties": {"name": "East Outer Drive", "highway": "tertiary", "length_m": 1299.9}, "geometry": {"type": "LineString", "coordinates": [[-82.92906, 42.39222], [-82.929, 42.39241], [-82.92972, 42.39346], [-82.93038, 42.39448], [-82.93111, 42.39559], [-82.93182, 42.39668], [-82.93253, 42.39776], [-82.93325, 42.39887], [-82.93395, 42.39994], [-82.93469, 42.40107], [-82.93529, 42.40198], [-82.93579, 42.40274]]}}, {"type": "Feature", "properties": {"name": "Bedford Road", "highway": "residential", "length_m": 88.2}, "geometry": {"type": "LineString", "coordinates": [[-82.9259, 42.37891], [-82.92635, 42.37963]]}}, {"type": "Feature", "properties": {"name": "East Jefferson Avenue", "highway": "secondary", "length_m": 145.3}, "geometry": {"type": "LineString", "coordinates": [[-82.9259, 42.37891], [-82.92418, 42.37922]]}}, {"type": "Feature", "properties": {"name": "Bedford Road", "highway": "residential", "length_m": 122.8}, "geometry": {"type": "LineString", "coordinates": [[-82.92525, 42.37791], [-82.92582, 42.37879], [-82.9259, 42.37891]]}}, {"type": "Feature", "properties": {"name": "Bedford Road", "highway": "residential", "length_m": 1342.5}, "geometry": {"type": "LineString", "coordinates": [[-82.92635, 42.37963], [-82.92855, 42.38306], [-82.92989, 42.38513], [-82.92994, 42.3852], [-82.92999, 42.38528], [-82.93113, 42.38701], [-82.93265, 42.38933], [-82.93343, 42.3905]]}}, {"type": "Feature", "properties": {"name": "East Jefferson Avenue", "highway": "secondary", "length_m": 108.3}, "geometry": {"type": "LineString", "coordinates": [[-82.92718, 42.37871], [-82.9259, 42.37891]]}}, {"type": "Feature", "properties": {"name": "East Jefferson Avenue", "highway": "secondary", "length_m": 333.6}, "geometry": {"type": "LineString", "coordinates": [[-82.93109, 42.37794], [-82.93084, 42.37801], [-82.93039, 42.37811], [-82.93007, 42.37819], [-82.92962, 42.3783], [-82.9288, 42.37845], [-82.92853, 42.37849], [-82.92718, 42.37871]]}}, {"type": "Feature", "properties": {"name": "East Jefferson Avenue", "highway": "secondary", "length_m": 182.5}, "geometry": {"type": "LineString", "coordinates": [[-82.93314, 42.37732], [-82.93299, 42.37737], [-82.93193, 42.37769], [-82.93158, 42.3778], [-82.93109, 42.37794]]}}, {"type": "Feature", "properties": {"name": "Mack Avenue", "highway": "secondary", "length_m": 288.1}, "geometry": {"type": "LineString", "coordinates": [[-82.93343, 42.3905], [-82.93341, 42.39051], [-82.93244, 42.39087], [-82.93193, 42.39106], [-82.93185, 42.39109], [-82.93171, 42.39114], [-82.93145, 42.39124], [-82.93089, 42.39147], [-82.93054, 42.39161], [-82.93032, 42.39169]]}}, {"type": "Feature", "properties": {"name": "Mack Avenue", "highway": "secondary", "length_m": 553.5}, "geometry": {"type": "LineString", "coordinates": [[-82.92906, 42.39222], [-82.92841, 42.39248], [-82.9278, 42.39273], [-82.9276, 42.39281], [-82.92726, 42.39295], [-82.92696, 42.39307], [-82.92667, 42.39318], [-82.92648, 42.39326], [-82.92569, 42.39356], [-82.92535, 42.3937], [-82.9249, 42.39387], [-82.92462, 42.39398], [-82.92458, 42.394], [-82.92444, 42.39406], [-82.92371, 42.39434], [-82.92346, 42.39443], [-82.92324, 42.39452], [-82.92313, 42.39456]]}}, {"type": "Feature", "properties": {"name": "East Jefferson Avenue", "highway": "secondary", "length_m": 71.2}, "geometry": {"type": "LineString", "coordinates": [[-82.93841, 42.37526], [-82.93821, 42.37533], [-82.93795, 42.37544], [-82.93774, 42.37552], [-82.93765, 42.37556]]}}, {"type": "Feature", "properties": {"name": "East Jefferson Avenue", "highway": "secondary", "length_m": 61.7}, "geometry": {"type": "LineString", "coordinates": [[-82.93314, 42.37732], [-82.93334, 42.37732], [-82.93385, 42.37718]]}}, {"type": "Feature", "properties": {"name": "East Jefferson Avenue", "highway": "secondary", "length_m": 61.9}, "geometry": {"type": "LineString", "coordinates": [[-82.93377, 42.37704], [-82.93369, 42.37707], [-82.93328, 42.3772], [-82.93314, 42.37732]]}}, {"type": "Feature", "properties": {"name": "Wayburn Street", "highway": "residential", "length_m": 44.9}, "geometry": {"type": "LineString", "coordinates": [[-82.93888, 42.37566], [-82.93912, 42.37602]]}}, {"type": "Feature", "properties": {"name": "Maryland Street", "highway": "residential", "length_m": 102.3}, "geometry": {"type": "LineString", "coordinates": [[-82.93801, 42.37609], [-82.93847, 42.3768], [-82.93851, 42.37686], [-82.93854, 42.37691]]}}, {"type": "Feature", "properties": {"name": "Hampton Street", "highway": "residential", "length_m": 86.7}, "geometry": {"type": "LineString", "coordinates": [[-82.93949, 42.37657], [-82.93902, 42.37675], [-82.93862, 42.37689], [-82.93854, 42.37691]]}}, {"type": "Feature", "properties": {"name": "Mack Avenue", "highway": "secondary", "length_m": 119.9}, "geometry": {"type": "LineString", "coordinates": [[-82.93032, 42.39169], [-82.93019, 42.39174], [-82.9297, 42.39195], [-82.92967, 42.39196], [-82.92906, 42.39222]]}}, {"type": "Feature", "properties": {"name": "Audubon Road", "highway": "residential", "length_m": 1415.5}, "geometry": {"type": "LineString", "coordinates": [[-82.93032, 42.39169], [-82.93181, 42.39397], [-82.93325, 42.39616], [-82.93349, 42.39653], [-82.93469, 42.39836], [-82.93672, 42.40146], [-82.93756, 42.40274], [-82.93775, 42.40303], [-82.93783, 42.40314]]}}, {"type": "Feature", "properties": {"name": "Kercheval Street", "highway": "tertiary", "length_m": 1541.1}, "geometry": {"type": "LineString", "coordinates": [[-82.93554, 42.3832], [-82.93541, 42.38324], [-82.93425, 42.38366], [-82.93418, 42.38368], [-82.93406, 42.38373], [-82.93393, 42.38377], [-82.93389, 42.38379], [-82.93272, 42.38421], [-82.9326, 42.38425], [-82.93248, 42.3843], [-82.93136, 42.38469], [-82.93127, 42.38472], [-82.93115, 42.38477], [-82.93103, 42.38481], [-82.93099, 42.38483], [-82.93001, 42.38518], [-82.92994, 42.3852], [-82.92987, 42.38523], [-82.92864, 42.38567], [-82.92861, 42.38569], [-82.92845, 42.38574], [-82.9283, 42.3858], [-82.92829, 42.3858], [-82.9269, 42.3863], [-82.92682, 42.38633], [-82.92673, 42.38636], [-82.92569, 42.38673], [-82.92563, 42.38676], [-82.92551, 42.3868], [-82.92539, 42.38684], [-82.92429, 42.38723], [-82.92421, 42.38726], [-82.92414, 42.38728], [-82.92305, 42.38767], [-82.923, 42.38769], [-82.92288, 42.38773], [-82.92275, 42.38778], [-82.92269, 42.3878], [-82.92177, 42.38813], [-82.92171, 42.38816], [-82.92164, 42.38818], [-82.921, 42.38841], [-82.92084, 42.38847], [-82.92078, 42.38849], [-82.92071, 42.38851], [-82.92061, 42.38855], [-82.91986, 42.38882], [-82.91979, 42.38885], [-82.91972, 42.38887], [-82.91894, 42.38915], [-82.91878, 42.38921], [-82.91871, 42.38923]]}}, {"type": "Feature", "properties": {"name": "Whittier Road", "highway": "residential", "length_m": 864.4}, "geometry": {"type": "LineString", "coordinates": [[-82.92094, 42.3798], [-82.92412, 42.38463], [-82.92546, 42.38672], [-82.92551, 42.3868]]}}, {"type": "Feature", "properties": {"name": "Whittier Road", "highway": "residential", "length_m": 512.1}, "geometry": {"type": "LineString", "coordinates": [[-82.92551, 42.3868], [-82.92556, 42.38687], [-82.9267, 42.3886], [-82.92821, 42.39095]]}}, {"type": "Feature", "properties": {"name": "Whittier Road", "highway": "residential", "length_m": 157.2}, "geometry": {"type": "LineString", "coordinates": [[-82.92821, 42.39095], [-82.92833, 42.39113], [-82.92844, 42.39129], [-82.92871, 42.39169], [-82.92882, 42.39187], [-82.92906, 42.39222]]}}, {"type": "Feature", "properties": {"name": "Wayburn Street", "highway": "residential", "length_m": 582.9}, "geometry": {"type": "LineString", "coordinates": [[-82.94345, 42.38258], [-82.9447, 42.38447], [-82.94497, 42.38491], [-82.94536, 42.38553], [-82.94574, 42.38612], [-82.94641, 42.38712], [-82.94652, 42.38731]]}}, {"type": "Feature", "properties": {"name": "Kercheval Street", "highway": "tertiary", "length_m": 67.6}, "geometry": {"type": "LineString", "coordinates": [[-82.94207, 42.38085], [-82.94141, 42.38109], [-82.94133, 42.38111]]}}, {"type": "Feature", "properties": {"name": "Kercheval Street", "highway": "tertiary", "length_m": 202.8}, "geometry": {"type": "LineString", "coordinates": [[-82.93775, 42.3824], [-82.93767, 42.38243], [-82.93758, 42.38246], [-82.93723, 42.38259], [-82.93691, 42.3827], [-82.93681, 42.38274], [-82.9367, 42.38278], [-82.93632, 42.38291], [-82.93566, 42.38315], [-82.93554, 42.3832]]}}, {"type": "Feature", "properties": {"name": "East Jefferson Avenue", "highway": "secondary", "length_m": 11.7}, "geometry": {"type": "LineString", "coordinates": [[-82.9383, 42.37548], [-82.93843, 42.37542]]}}, {"type": "Feature", "properties": {"name": "Wayburn Street", "highway": "residential", "length_m": 1239.5}, "geometry": {"type": "LineString", "coordinates": [[-82.94664, 42.38747], [-82.94689, 42.38783], [-82.94845, 42.39012], [-82.95009, 42.39262], [-82.95172, 42.39504], [-82.95307, 42.39705], [-82.95334, 42.39744]]}}, {"type": "Feature", "properties": {"name": "Mack Avenue", "highway": "secondary", "length_m": 1142.9}, "geometry": {"type": "LineString", "coordinates": [[-82.94664, 42.38747], [-82.94647, 42.3875], [-82.9456, 42.38765], [-82.94447, 42.38785], [-82.94404, 42.38792], [-82.94381, 42.38797], [-82.94335, 42.38805], [-82.94325, 42.38807], [-82.94291, 42.38813], [-82.94278, 42.38815], [-82.94271, 42.38816], [-82.94261, 42.38818], [-82.94221, 42.38825], [-82.94196, 42.38829], [-82.94166, 42.38834], [-82.94087, 42.38848], [-82.94086, 42.38848], [-82.94067, 42.38852], [-82.94057, 42.38854], [-82.94035, 42.38859], [-82.9396, 42.38873], [-82.93942, 42.38877], [-82.93922, 42.38882], [-82.93904, 42.38886], [-82.93834, 42.38902], [-82.93764, 42.38918], [-82.93743, 42.38924], [-82.93735, 42.38925], [-82.93721, 42.38929], [-82.93635, 42.38952], [-82.9361, 42.3896], [-82.93597, 42.38964], [-82.93566, 42.38973], [-82.9355, 42.38978], [-82.93537, 42.38983], [-82.93463, 42.39008], [-82.93441, 42.39016], [-82.93432, 42.39019], [-82.93373, 42.3904], [-82.93343, 42.3905]]}}, {"type": "Feature", "properties": {"name": "Somerset Avenue", "highway": "residential", "length_m": 449.7}, "geometry": {"type": "LineString", "coordinates": [[-82.93796, 42.38455], [-82.93948, 42.38684], [-82.94035, 42.38819]]}}, {"type": "Feature", "properties": {"name": "Kercheval Street", "highway": "tertiary", "length_m": 46.5}, "geometry": {"type": "LineString", "coordinates": [[-82.94221, 42.3808], [-82.94223, 42.38081], [-82.94224, 42.38083], [-82.94225, 42.38083], [-82.94228, 42.38084], [-82.9423, 42.38084], [-82.94233, 42.38083], [-82.94235, 42.38082], [-82.94237, 42.38081], [-82.94238, 42.3808], [-82.94239, 42.38078], [-82.94238, 42.38075], [-82.94237, 42.38073], [-82.94235, 42.38072], [-82.94232, 42.38071], [-82.9423, 42.38071], [-82.94228, 42.38071], [-82.94225, 42.38071], [-82.94223, 42.38072], [-82.94222, 42.38074], [-82.94221, 42.38075], [-82.94221, 42.38076], [-82.94221, 42.38078], [-82.94221, 42.3808]]}}, {"type": "Feature", "properties": {"name": "Kercheval Street", "highway": "tertiary", "length_m": 15.4}, "geometry": {"type": "LineString", "coordinates": [[-82.94221, 42.38076], [-82.94219, 42.38078], [-82.94217, 42.38079], [-82.94215, 42.38079], [-82.94213, 42.3808], [-82.94209, 42.38083], [-82.94207, 42.38085]]}}, {"type": "Feature", "properties": {"name": "Kercheval Street", "highway": "tertiary", "length_m": 15.0}, "geometry": {"type": "LineString", "coordinates": [[-82.94207, 42.38085], [-82.94211, 42.38085], [-82.94215, 42.38084], [-82.94218, 42.38084], [-82.94219, 42.38084], [-82.94224, 42.38083]]}}, {"type": "Feature", "properties": {"name": "Wayburn Street", "highway": "residential", "length_m": 17.2}, "geometry": {"type": "LineString", "coordinates": [[-82.94214, 42.38061], [-82.94214, 42.38065], [-82.94216, 42.38069], [-82.94217, 42.3807], [-82.94218, 42.38072], [-82.9422, 42.38074], [-82.94221, 42.38075]]}}, {"type": "Feature", "properties": {"name": "Wayburn Street", "highway": "residential", "length_m": 17.6}, "geometry": {"type": "LineString", "coordinates": [[-82.94225, 42.38083], [-82.94228, 42.38085], [-82.9423, 42.38087], [-82.9423, 42.38088], [-82.94232, 42.38091], [-82.94235, 42.38094], [-82.94237, 42.38096]]}}, {"type": "Feature", "properties": {"name": "Wayburn Street", "highway": "residential", "length_m": 17.2}, "geometry": {"type": "LineString", "coordinates": [[-82.94237, 42.38096], [-82.94237, 42.38093], [-82.94236, 42.38089], [-82.94236, 42.38086], [-82.94236, 42.38085], [-82.94236, 42.38084], [-82.94237, 42.38081]]}}, {"type": "Feature", "properties": {"name": "Kercheval Street", "highway": "tertiary", "length_m": 14.9}, "geometry": {"type": "LineString", "coordinates": [[-82.94238, 42.3808], [-82.94239, 42.38078], [-82.94242, 42.38077], [-82.94245, 42.38075], [-82.94249, 42.38073], [-82.94251, 42.38071]]}}, {"type": "Feature", "properties": {"name": "Kercheval Street", "highway": "tertiary", "length_m": 13.8}, "geometry": {"type": "LineString", "coordinates": [[-82.94251, 42.38071], [-82.94243, 42.38072], [-82.94239, 42.38072], [-82.94235, 42.38072]]}}, {"type": "Feature", "properties": {"name": "Wayburn Street", "highway": "residential", "length_m": 17.6}, "geometry": {"type": "LineString", "coordinates": [[-82.9423, 42.38071], [-82.94227, 42.3807], [-82.94224, 42.38069], [-82.94222, 42.38067], [-82.94221, 42.38067], [-82.94219, 42.38065], [-82.94217, 42.38063], [-82.94214, 42.38061]]}}, {"type": "Feature", "properties": {"name": "Cadieux Road", "highway": "tertiary", "length_m": 69.3}, "geometry": {"type": "LineString", "coordinates": [[-82.9224, 42.39483], [-82.9225, 42.39499], [-82.92264, 42.3952], [-82.92277, 42.39539]]}}, {"type": "Feature", "properties": {"name": "Maryland Street", "highway": "residential", "length_m": 12.9}, "geometry": {"type": "LineString", "coordinates": [[-82.93794, 42.37598], [-82.93801, 42.37609]]}}, {"type": "Feature", "properties": {"name": "Maryland Street", "highway": "residential", "length_m": 33.8}, "geometry": {"type": "LineString", "coordinates": [[-82.93775, 42.37571], [-82.93779, 42.37577], [-82.93794, 42.37598]]}}, {"type": "Feature", "properties": {"name": "Kensington Avenue", "highway": "residential", "length_m": 1566.6}, "geometry": {"type": "LineString", "coordinates": [[-82.91952, 42.38005], [-82.91979, 42.38047], [-82.9213, 42.38277], [-82.92253, 42.38467], [-82.92282, 42.38511], [-82.92416, 42.38718], [-82.92421, 42.38726], [-82.92426, 42.38734], [-82.92539, 42.38906], [-82.92691, 42.39139], [-82.9278, 42.39273]]}}, {"type": "Feature", "properties": {"name": "Wayburn Street", "highway": "residential", "length_m": 243.9}, "geometry": {"type": "LineString", "coordinates": [[-82.94085, 42.37863], [-82.94201, 42.3804], [-82.94201, 42.38041], [-82.94206, 42.38048], [-82.94214, 42.38061]]}}, {"type": "Feature", "properties": {"name": "Wayburn Street", "highway": "residential", "length_m": 201.3}, "geometry": {"type": "LineString", "coordinates": [[-82.94237, 42.38096], [-82.94249, 42.38115], [-82.94345, 42.38258]]}}, {"type": "Feature", "properties": {"name": "Maumee Street", "highway": "residential", "length_m": 1669.8}, "geometry": {"type": "LineString", "coordinates": [[-82.9213, 42.38277], [-82.91997, 42.38325], [-82.91866, 42.38372], [-82.91685, 42.38437], [-82.91576, 42.38476], [-82.91399, 42.38541], [-82.91271, 42.38587], [-82.91194, 42.38615], [-82.91155, 42.38629], [-82.91094, 42.38651], [-82.90962, 42.38698], [-82.90839, 42.38742], [-82.90728, 42.38782], [-82.90645, 42.38812], [-82.90557, 42.38843], [-82.90436, 42.38887], [-82.90355, 42.38917], [-82.90309, 42.38935]]}}, {"type": "Feature", "properties": {"name": "Grand Marais Street", "highway": "residential", "length_m": 588.4}, "geometry": {"type": "LineString", "coordinates": [[-82.91926, 42.37479], [-82.91947, 42.37512], [-82.92044, 42.3766], [-82.92049, 42.37666], [-82.92052, 42.37671], [-82.92231, 42.37944], [-82.92233, 42.37948], [-82.92238, 42.37955]]}}, {"type": "Feature", "properties": {"name": "Whittier Road", "highway": "residential", "length_m": 389.1}, "geometry": {"type": "LineString", "coordinates": [[-82.91889, 42.37665], [-82.9192, 42.37712], [-82.92086, 42.37968], [-82.92094, 42.3798]]}}, {"type": "Feature", "properties": {"name": "Cadieux Road", "highway": "tertiary", "length_m": 952.0}, "geometry": {"type": "LineString", "coordinates": [[-82.91363, 42.38154], [-82.91503, 42.38366], [-82.91506, 42.3837], [-82.91527, 42.38401], [-82.91576, 42.38476], [-82.91598, 42.38509], [-82.91608, 42.38524], [-82.91627, 42.38554], [-82.91676, 42.38629], [-82.91729, 42.38709], [-82.91768, 42.3877], [-82.91792, 42.38806], [-82.91807, 42.38828], [-82.9183, 42.38862], [-82.9184, 42.38879], [-82.91861, 42.38909], [-82.91865, 42.38915], [-82.91871, 42.38923]]}}, {"type": "Feature", "properties": {"name": "Bishop Road", "highway": "residential", "length_m": 587.2}, "geometry": {"type": "LineString", "coordinates": [[-82.91505, 42.37828], [-82.91518, 42.37846], [-82.91565, 42.37917], [-82.91645, 42.38034], [-82.9165, 42.38045], [-82.91652, 42.3805], [-82.91652, 42.38058], [-82.91652, 42.3808], [-82.91662, 42.38117], [-82.91678, 42.38149], [-82.91693, 42.38176], [-82.91712, 42.38203], [-82.91732, 42.38228], [-82.91766, 42.38264], [-82.91804, 42.383]]}}, {"type": "Feature", "properties": {"name": "Bishop Road", "highway": "residential", "length_m": 38.8}, "geometry": {"type": "LineString", "coordinates": [[-82.91766, 42.38264], [-82.91768, 42.3827], [-82.91766, 42.38275], [-82.91759, 42.38289], [-82.91754, 42.38297]]}}, {"type": "Feature", "properties": {"name": "Bishop Road", "highway": "residential", "length_m": 43.8}, "geometry": {"type": "LineString", "coordinates": [[-82.91846, 42.38478], [-82.91859, 42.38473], [-82.91876, 42.38466], [-82.91891, 42.38458]]}}, {"type": "Feature", "properties": {"name": "Bishop Road", "highway": "residential", "length_m": 87.4}, "geometry": {"type": "LineString", "coordinates": [[-82.91565, 42.37917], [-82.9147, 42.37952]]}}, {"type": "Feature", "properties": {"name": "Bishop Road", "highway": "residential", "length_m": 61.6}, "geometry": {"type": "LineString", "coordinates": [[-82.91518, 42.37846], [-82.91452, 42.37872]]}}, {"type": "Feature", "properties": {"name": "Ellair Place", "highway": "residential", "length_m": 266.9}, "geometry": {"type": "LineString", "coordinates": [[-82.91629, 42.37821], [-82.91764, 42.38023], [-82.91765, 42.38025], [-82.91771, 42.38036]]}}, {"type": "Feature", "properties": {"name": "Waterloo Street", "highway": "residential", "length_m": 82.6}, "geometry": {"type": "LineString", "coordinates": [[-82.9199, 42.39104], [-82.91982, 42.39107], [-82.919, 42.39136]]}}, {"type": "Feature", "properties": {"name": "Cranford Lane", "highway": "residential", "length_m": 162.7}, "geometry": {"type": "LineString", "coordinates": [[-82.91627, 42.38554], [-82.9145, 42.38618]]}}, {"type": "Feature", "properties": {"name": "Bishop Lane", "highway": "residential", "length_m": 84.1}, "geometry": {"type": "LineString", "coordinates": [[-82.91517, 42.38006], [-82.91518, 42.38016], [-82.91522, 42.38023], [-82.91547, 42.38064], [-82.91554, 42.38076]]}}, {"type": "Feature", "properties": {"name": "Edgemont Park", "highway": "residential", "length_m": 346.2}, "geometry": {"type": "LineString", "coordinates": [[-82.91704, 42.37736], [-82.9188, 42.38005], [-82.91888, 42.38016]]}}, {"type": "Feature", "properties": {"name": "Park Lane", "highway": "residential", "length_m": 28.1}, "geometry": {"type": "LineString", "coordinates": [[-82.9181, 42.37698], [-82.91793, 42.37704], [-82.91779, 42.37709]]}}, {"type": "Feature", "properties": {"name": "Park Lane", "highway": "residential", "length_m": 365.8}, "geometry": {"type": "LineString", "coordinates": [[-82.91793, 42.37704], [-82.91815, 42.37738], [-82.91835, 42.3777], [-82.91846, 42.37789], [-82.9186, 42.37809], [-82.91879, 42.37834], [-82.9189, 42.37851], [-82.91904, 42.37872], [-82.91927, 42.37915], [-82.91943, 42.37939], [-82.91955, 42.37952], [-82.91967, 42.37966], [-82.91977, 42.37977], [-82.91985, 42.37986], [-82.91991, 42.37998]]}}, {"type": "Feature", "properties": {"name": "Village Lane", "highway": "residential", "length_m": 162.7}, "geometry": {"type": "LineString", "coordinates": [[-82.915, 42.38694], [-82.91676, 42.38629]]}}, {"type": "Feature", "properties": {"name": "Whittier Avenue", "highway": "residential", "length_m": 66.5}, "geometry": {"type": "LineString", "coordinates": [[-82.91926, 42.37652], [-82.91889, 42.37665], [-82.91888, 42.37665], [-82.91854, 42.37678]]}}, {"type": "Feature", "properties": {"name": "Jefferson Court", "highway": "residential", "length_m": 430.2}, "geometry": {"type": "LineString", "coordinates": [[-82.9151, 42.38094], [-82.91502, 42.38082], [-82.91499, 42.38077], [-82.91433, 42.37973], [-82.91424, 42.3796], [-82.91416, 42.3795], [-82.91412, 42.3795], [-82.91405, 42.37951], [-82.91364, 42.37962], [-82.91359, 42.37963], [-82.91355, 42.37965], [-82.9135, 42.3797], [-82.91344, 42.37976], [-82.91342, 42.3798], [-82.9134, 42.37984], [-82.91341, 42.37989], [-82.91369, 42.38029], [-82.91421, 42.38109], [-82.91424, 42.38114], [-82.91432, 42.38126]]}}, {"type": "Feature", "properties": {"name": "Mack Avenue", "highway": "secondary", "length_m": 33.1}, "geometry": {"type": "LineString", "coordinates": [[-82.9224, 42.39483], [-82.92209, 42.39502]]}}, {"type": "Feature", "properties": {"name": "Cadieux Road", "highway": "tertiary", "length_m": 692.7}, "geometry": {"type": "LineString", "coordinates": [[-82.91871, 42.38923], [-82.91876, 42.38932], [-82.91886, 42.38948], [-82.91895, 42.3896], [-82.9199, 42.39104], [-82.92143, 42.39336], [-82.92211, 42.39441], [-82.92217, 42.39449], [-82.92232, 42.39472], [-82.9224, 42.39483]]}}, {"type": "Feature", "properties": {"name": "Bishop Road", "highway": "residential", "length_m": 41.8}, "geometry": {"type": "LineString", "coordinates": [[-82.91754, 42.38297], [-82.91766, 42.38296], [-82.91783, 42.38297], [-82.91804, 42.383]]}}, {"type": "Feature", "properties": {"name": "Bishop Road", "highway": "residential", "length_m": 33.2}, "geometry": {"type": "LineString", "coordinates": [[-82.91719, 42.38311], [-82.91754, 42.38297]]}}, {"type": "Feature", "properties": {"name": "Bishop Road", "highway": "residential", "length_m": 25.2}, "geometry": {"type": "LineString", "coordinates": [[-82.91891, 42.38458], [-82.91921, 42.38455]]}}, {"type": "Feature", "properties": {"name": "Bishop Road", "highway": "residential", "length_m": 26.0}, "geometry": {"type": "LineString", "coordinates": [[-82.91913, 42.38441], [-82.91891, 42.38458]]}}, {"type": "Feature", "properties": {"name": "Kercheval Avenue", "highway": "tertiary", "length_m": 279.4}, "geometry": {"type": "LineString", "coordinates": [[-82.91871, 42.38923], [-82.91861, 42.38927], [-82.91852, 42.3893], [-82.91716, 42.38979], [-82.91706, 42.38982], [-82.91695, 42.38986], [-82.91668, 42.38996], [-82.91565, 42.39033]]}}, {"type": "Feature", "properties": {"name": "Kercheval Place", "highway": "residential", "length_m": 36.2}, "geometry": {"type": "LineString", "coordinates": [[-82.91801, 42.38893], [-82.91833, 42.38881], [-82.9184, 42.38879]]}}]}