{"type": "FeatureCollection", "features": [{"type": "Feature", "properties": {"name": "Shorecrest Circle", "highway": "residential", "length_m": 360.8}, "geometry": {"type": "LineString", "coordinates": [[-82.87636, 42.45182], [-82.87626, 42.45199], [-82.87623, 42.45202], [-82.87619, 42.45204], [-82.87612, 42.45206], [-82.87605, 42.45207], [-82.87597, 42.45206], [-82.87444, 42.45169], [-82.87429, 42.45163], [-82.87424, 42.4516], [-82.87422, 42.45155], [-82.87423, 42.45148], [-82.87438, 42.451], [-82.874, 42.45092], [-82.8739, 42.45091], [-82.87377, 42.4509], [-82.87354, 42.45085], [-82.87338, 42.45082], [-82.87328, 42.4508]]}}, {"type": "Feature", "properties": {"name": "Robert John Road", "highway": "residential", "length_m": 681.6}, "geometry": {"type": "LineString", "coordinates": [[-82.88512, 42.45249], [-82.88494, 42.45254], [-82.88472, 42.45253], [-82.8845, 42.45249], [-82.88281, 42.45209], [-82.88225, 42.45205], [-82.88016, 42.45156], [-82.8772, 42.45085]]}}, {"type": "Feature", "properties": {"name": "Lakeshore Drive", "highway": "secondary", "length_m": 85.9}, "geometry": {"type": "LineString", "coordinates": [[-82.87294, 42.4512], [-82.87289, 42.45135], [-82.87283, 42.45155], [-82.87271, 42.45188], [-82.87269, 42.45195]]}}, {"type": "Feature", "properties": {"name": "Lakeshore Drive", "highway": "secondary", "length_m": 403.8}, "geometry": {"type": "LineString", "coordinates": [[-82.87659, 42.45471], [-82.8763, 42.4546], [-82.87553, 42.4543], [-82.87519, 42.45419], [-82.875, 42.45415], [-82.87474, 42.45408], [-82.87446, 42.454], [-82.8738, 42.45382], [-82.87355, 42.45374], [-82.87328, 42.4536], [-82.87315, 42.45351], [-82.87301, 42.4534], [-82.87285, 42.45321], [-82.87275, 42.45301], [-82.87269, 42.4528]]}}, {"type": "Feature", "properties": {"name": "Shorecrest Circle South", "highway": "residential", "length_m": 212.7}, "geometry": {"type": "LineString", "coordinates": [[-82.87438, 42.451], [-82.87617, 42.45141], [-82.87633, 42.45146], [-82.87639, 42.45149], [-82.87641, 42.45153], [-82.87642, 42.45159], [-82.87641, 42.45167], [-82.8764, 42.45171], [-82.87638, 42.45175], [-82.87636, 42.45182]]}}, {"type": "Feature", "properties": {"name": "Oxford Road", "highway": "residential", "length_m": 15.3}, "geometry": {"type": "LineString", "coordinates": [[-82.87975, 42.42715], [-82.87957, 42.42712]]}}, {"type": "Feature", "properties": {"name": "Sunningdale Drive", "highway": "residential", "length_m": 617.5}, "geometry": {"type": "LineString", "coordinates": [[-82.88153, 42.43117], [-82.88148, 42.43128], [-82.88107, 42.43224], [-82.88107, 42.43227], [-82.88108, 42.43229], [-82.88148, 42.43238], [-82.88455, 42.43311], [-82.88487, 42.4332], [-82.88647, 42.43358], [-82.8867, 42.43364]]}}, {"type": "Feature", "properties": {"name": "Sunningdale Drive", "highway": "residential", "length_m": 122.3}, "geometry": {"type": "LineString", "coordinates": [[-82.88148, 42.43238], [-82.88194, 42.43133]]}}, {"type": "Feature", "properties": {"name": "South Deeplands Road", "highway": "residential", "length_m": 563.8}, "geometry": {"type": "LineString", "coordinates": [[-82.88188, 42.41943], [-82.88205, 42.41949], [-82.88265, 42.41961], [-82.88288, 42.41965], [-82.88311, 42.41967], [-82.88406, 42.41972], [-82.8842, 42.41972], [-82.88454, 42.41975], [-82.88474, 42.41978], [-82.885, 42.41983], [-82.8852, 42.41988], [-82.88535, 42.41993], [-82.88541, 42.41995], [-82.88549, 42.41998], [-82.88639, 42.42035], [-82.88703, 42.42061], [-82.88727, 42.4207], [-82.88751, 42.42078], [-82.88771, 42.42084], [-82.88792, 42.42089], [-82.8883, 42.42098]]}}, {"type": "Feature", "properties": {"name": "Blairmoor Court", "highway": "residential", "length_m": 304.0}, "geometry": {"type": "LineString", "coordinates": [[-82.87579, 42.44408], [-82.87589, 42.4441], [-82.87708, 42.4444], [-82.8793, 42.44492]]}}, {"type": "Feature", "properties": {"name": "Deeplands Court", "highway": "residential", "length_m": 64.2}, "geometry": {"type": "LineString", "coordinates": [[-82.88862, 42.42011], [-82.88817, 42.42003], [-82.88804, 42.42003], [-82.88786, 42.42005]]}}, {"type": "Feature", "properties": {"name": "Shoreham Road", "highway": "residential", "length_m": 520.4}, "geometry": {"type": "LineString", "coordinates": [[-82.88416, 42.427], [-82.88429, 42.42693], [-82.88433, 42.42688], [-82.88456, 42.42634], [-82.88458, 42.42631], [-82.8846, 42.42629], [-82.88463, 42.42628], [-82.88466, 42.42627], [-82.88469, 42.42627], [-82.88477, 42.42629], [-82.88688, 42.4268], [-82.88957, 42.42746]]}}, {"type": "Feature", "properties": {"name": "Cook Road", "highway": "tertiary", "length_m": 1145.5}, "geometry": {"type": "LineString", "coordinates": [[-82.88876, 42.41972], [-82.8894, 42.41998], [-82.88994, 42.42021], [-82.89159, 42.42088], [-82.89199, 42.42104], [-82.89325, 42.42156], [-82.89371, 42.42175], [-82.89462, 42.42212], [-82.89549, 42.42247], [-82.89584, 42.42262], [-82.89607, 42.42272], [-82.89691, 42.42306], [-82.89771, 42.42338], [-82.89774, 42.42339], [-82.89787, 42.42345], [-82.89839, 42.42366], [-82.89867, 42.42377], [-82.8993, 42.42403], [-82.89984, 42.42425], [-82.89988, 42.42427], [-82.90037, 42.42447], [-82.90093, 42.4247]]}}, {"type": "Feature", "properties": {"name": "Moorland Drive", "highway": "residential", "length_m": 304.9}, "geometry": {"type": "LineString", "coordinates": [[-82.87491, 42.44595], [-82.87507, 42.44603], [-82.87518, 42.44605], [-82.87634, 42.44632], [-82.87739, 42.44657], [-82.87826, 42.44678], [-82.87832, 42.4468], [-82.87836, 42.44684], [-82.87837, 42.44686]]}}, {"type": "Feature", "properties": {"name": "Moorland Drive", "highway": "residential", "length_m": 876.9}, "geometry": {"type": "LineString", "coordinates": [[-82.87818, 42.44746], [-82.87862, 42.44757], [-82.87918, 42.4477], [-82.88158, 42.44828], [-82.88468, 42.44903], [-82.8883, 42.4499]]}}, {"type": "Feature", "properties": {"name": "Moorland Drive", "highway": "residential", "length_m": 44.1}, "geometry": {"type": "LineString", "coordinates": [[-82.87739, 42.44657], [-82.87723, 42.44695]]}}, {"type": "Feature", "properties": {"name": "Moorland Drive", "highway": "residential", "length_m": 46.2}, "geometry": {"type": "LineString", "coordinates": [[-82.87616, 42.44671], [-82.87634, 42.44632]]}}, {"type": "Feature", "properties": {"name": "Stillmeadow Lane", "highway": "residential", "length_m": 272.0}, "geometry": {"type": "LineString", "coordinates": [[-82.87433, 42.44801], [-82.87442, 42.44803], [-82.87502, 42.44816], [-82.87516, 42.44819], [-82.87541, 42.44822], [-82.87581, 42.44826], [-82.87597, 42.44828], [-82.87616, 42.44832], [-82.87636, 42.44837], [-82.87655, 42.44843], [-82.87669, 42.44848], [-82.87711, 42.44865], [-82.87722, 42.44867], [-82.87733, 42.44867], [-82.87741, 42.44866], [-82.87747, 42.44864]]}}, {"type": "Feature", "properties": {"name": "North Deeplands Road", "highway": "residential", "length_m": 370.3}, "geometry": {"type": "LineString", "coordinates": [[-82.88386, 42.42058], [-82.88451, 42.42072], [-82.88491, 42.42083], [-82.88513, 42.42091], [-82.88533, 42.42099], [-82.88646, 42.42144], [-82.8868, 42.42157], [-82.88708, 42.42166], [-82.88729, 42.42172], [-82.88765, 42.42181], [-82.88798, 42.42188]]}}, {"type": "Feature", "properties": {"name": "Fairford Road", "highway": "residential", "length_m": 382.8}, "geometry": {"type": "LineString", "coordinates": [[-82.88307, 42.42244], [-82.88362, 42.42261], [-82.88413, 42.42283], [-82.88503, 42.42323], [-82.88533, 42.42335], [-82.88567, 42.42348], [-82.88605, 42.42361], [-82.88635, 42.4237], [-82.88679, 42.42381], [-82.88725, 42.42391]]}}, {"type": "Feature", "properties": {"name": "Fairford Road", "highway": "residential", "length_m": 225.0}, "geometry": {"type": "LineString", "coordinates": [[-82.88718, 42.4241], [-82.88781, 42.42422], [-82.88797, 42.42425], [-82.88812, 42.42429], [-82.88825, 42.42432], [-82.88838, 42.42437], [-82.88889, 42.42457], [-82.88955, 42.42484], [-82.88968, 42.42489]]}}, {"type": "Feature", "properties": {"name": "Shelden Road", "highway": "residential", "length_m": 619.7}, "geometry": {"type": "LineString", "coordinates": [[-82.88456, 42.41804], [-82.88448, 42.41817], [-82.88444, 42.41824], [-82.88441, 42.41832], [-82.88439, 42.4184], [-82.88437, 42.41853], [-82.88437, 42.41857], [-82.88433, 42.41905], [-82.8843, 42.41927], [-82.8842, 42.41972], [-82.8841, 42.41999], [-82.88386, 42.42058], [-82.88342, 42.42161], [-82.8832, 42.42212], [-82.88309, 42.42238], [-82.88307, 42.42244], [-82.88302, 42.42257], [-82.88292, 42.42287], [-82.88287, 42.42301], [-82.8828, 42.42315], [-82.88262, 42.42339]]}}, {"type": "Feature", "properties": {"name": "Shelden Road", "highway": "residential", "length_m": 326.6}, "geometry": {"type": "LineString", "coordinates": [[-82.87873, 42.4328], [-82.87866, 42.4328], [-82.87861, 42.43281], [-82.8785, 42.43283], [-82.87841, 42.43288], [-82.87836, 42.43291], [-82.87832, 42.43294], [-82.87827, 42.43301], [-82.87823, 42.43307], [-82.87818, 42.43319], [-82.87815, 42.43329], [-82.87807, 42.43367], [-82.87791, 42.43458], [-82.87782, 42.43502], [-82.87766, 42.43548]]}}, {"type": "Feature", "properties": {"name": "Michaux Court", "highway": "residential", "length_m": 144.0}, "geometry": {"type": "LineString", "coordinates": [[-82.87943, 42.43774], [-82.87998, 42.43786], [-82.88055, 42.43801], [-82.88106, 42.43819]]}}, {"type": "Feature", "properties": {"name": "Colonial Road", "highway": "residential", "length_m": 653.0}, "geometry": {"type": "LineString", "coordinates": [[-82.87863, 42.42951], [-82.87872, 42.42955], [-82.87879, 42.42959], [-82.87895, 42.42963], [-82.88614, 42.43136]]}}, {"type": "Feature", "properties": {"name": "Belle Meade", "highway": "residential", "length_m": 425.9}, "geometry": {"type": "LineString", "coordinates": [[-82.87873, 42.4328], [-82.87885, 42.43282], [-82.87948, 42.43297], [-82.87964, 42.43302], [-82.88012, 42.43319], [-82.88034, 42.43328], [-82.88051, 42.43333], [-82.88081, 42.43342], [-82.88124, 42.43352], [-82.88143, 42.43356], [-82.88162, 42.43359], [-82.88244, 42.43369], [-82.88269, 42.43373], [-82.88301, 42.4338], [-82.88332, 42.43388], [-82.88337, 42.4339], [-82.88342, 42.43392], [-82.88348, 42.43396], [-82.88352, 42.434], [-82.88356, 42.43404]]}}, {"type": "Feature", "properties": {"name": "Straton Court", "highway": "residential", "length_m": 39.9}, "geometry": {"type": "LineString", "coordinates": [[-82.87902, 42.4316], [-82.87886, 42.43194]]}}, {"type": "Feature", "properties": {"name": "Hollywood Avenue", "highway": "residential", "length_m": 2119.8}, "geometry": {"type": "LineString", "coordinates": [[-82.88164, 42.44086], [-82.88198, 42.44094], [-82.88452, 42.44156], [-82.88763, 42.44231], [-82.89457, 42.44395], [-82.89531, 42.44414], [-82.8954, 42.44416], [-82.89875, 42.44496], [-82.90201, 42.44574], [-82.90211, 42.44574], [-82.90221, 42.44574], [-82.90252, 42.44579], [-82.90602, 42.44661], [-82.90615, 42.44664]]}}, {"type": "Feature", "properties": {"name": "Woodland Shore Drive", "highway": "tertiary", "length_m": 650.9}, "geometry": {"type": "LineString", "coordinates": [[-82.88333, 42.41608], [-82.88518, 42.41682], [-82.88638, 42.41727], [-82.88663, 42.41737], [-82.88687, 42.41748], [-82.88779, 42.4179], [-82.88803, 42.41801], [-82.88815, 42.41805], [-82.88835, 42.41812], [-82.88857, 42.41819], [-82.88903, 42.41832], [-82.88908, 42.41835], [-82.88913, 42.41838], [-82.88917, 42.41841], [-82.88922, 42.41848], [-82.88924, 42.41851], [-82.88926, 42.41856], [-82.88926, 42.41861], [-82.88926, 42.41865], [-82.88923, 42.4188], [-82.88917, 42.41894], [-82.88909, 42.4191], [-82.88896, 42.41928]]}}, {"type": "Feature", "properties": {"name": "Duval Road", "highway": "residential", "length_m": 16.5}, "geometry": {"type": "LineString", "coordinates": [[-82.87373, 42.44906], [-82.87391, 42.44912]]}}, {"type": "Feature", "properties": {"name": "Fontana Lane", "highway": "residential", "length_m": 122.8}, "geometry": {"type": "LineString", "coordinates": [[-82.87673, 42.43296], [-82.87684, 42.43299], [-82.8771, 42.43305], [-82.87815, 42.43329]]}}, {"type": "Feature", "properties": {"name": "Fontana Lane", "highway": "residential", "length_m": 462.7}, "geometry": {"type": "LineString", "coordinates": [[-82.87807, 42.43367], [-82.88341, 42.43496]]}}, {"type": "Feature", "properties": {"name": "North Edgewood Drive", "highway": "residential", "length_m": 324.2}, "geometry": {"type": "LineString", "coordinates": [[-82.8759, 42.44328], [-82.87601, 42.44328], [-82.87606, 42.44328], [-82.87965, 42.44414]]}}, {"type": "Feature", "properties": {"name": "Pear Tree Lane", "highway": "residential", "length_m": 100.9}, "geometry": {"type": "LineString", "coordinates": [[-82.88816, 42.42136], [-82.88884, 42.4215], [-82.88935, 42.4216]]}}, {"type": "Feature", "properties": {"name": "Ballantyne Road", "highway": "residential", "length_m": 217.1}, "geometry": {"type": "LineString", "coordinates": [[-82.87837, 42.44686], [-82.87839, 42.44689], [-82.8784, 42.44692], [-82.8784, 42.44696], [-82.87818, 42.44746], [-82.87802, 42.44781], [-82.87784, 42.44823], [-82.87769, 42.44846], [-82.87764, 42.44853], [-82.87757, 42.44859], [-82.87751, 42.44863], [-82.87747, 42.44864]]}}, {"type": "Feature", "properties": {"name": "Ballantyne Road", "highway": "residential", "length_m": 297.4}, "geometry": {"type": "LineString", "coordinates": [[-82.88356, 42.43404], [-82.88361, 42.43412], [-82.88362, 42.43417], [-82.88363, 42.43423], [-82.88361, 42.43436], [-82.88358, 42.43449], [-82.88341, 42.43496], [-82.88312, 42.43571], [-82.88308, 42.43585], [-82.88298, 42.4362], [-82.88284, 42.43652], [-82.88279, 42.43657], [-82.88274, 42.4366]]}}, {"type": "Feature", "properties": {"name": "Ballantyne Road", "highway": "residential", "length_m": 259.9}, "geometry": {"type": "LineString", "coordinates": [[-82.8798, 42.44379], [-82.87965, 42.44414], [-82.8793, 42.44492], [-82.87889, 42.44587], [-82.87883, 42.44597], [-82.8788, 42.446]]}}, {"type": "Feature", "properties": {"name": "Ballantyne Road", "highway": "tertiary", "length_m": 747.0}, "geometry": {"type": "LineString", "coordinates": [[-82.88896, 42.41928], [-82.88885, 42.41947], [-82.88876, 42.41972], [-82.88862, 42.42011], [-82.8883, 42.42098], [-82.88816, 42.42136], [-82.88798, 42.42188], [-82.88761, 42.4229], [-82.88725, 42.42391], [-82.88718, 42.4241], [-82.88687, 42.42497], [-82.88662, 42.42564], [-82.88659, 42.42568], [-82.88656, 42.42572], [-82.88653, 42.42574]]}}, {"type": "Feature", "properties": {"name": "Lochmoor Boulevard", "highway": "residential", "length_m": 308.1}, "geometry": {"type": "LineString", "coordinates": [[-82.87804, 42.43021], [-82.87819, 42.43031], [-82.87832, 42.43035], [-82.87849, 42.43041], [-82.88139, 42.43113], [-82.88153, 42.43117]]}}, {"type": "Feature", "properties": {"name": "Lochmoor Boulevard", "highway": "residential", "length_m": 480.5}, "geometry": {"type": "LineString", "coordinates": [[-82.88194, 42.43133], [-82.88459, 42.43197], [-82.88494, 42.43205], [-82.88517, 42.4321], [-82.88702, 42.43253], [-82.88715, 42.43258], [-82.88733, 42.43263], [-82.88749, 42.43262]]}}, {"type": "Feature", "properties": {"name": "Stonehurst Road", "highway": "residential", "length_m": 375.8}, "geometry": {"type": "LineString", "coordinates": [[-82.88342, 42.42161], [-82.88425, 42.4218], [-82.88443, 42.42185], [-82.88466, 42.42191], [-82.88495, 42.42201], [-82.88513, 42.42208], [-82.88532, 42.42215], [-82.88566, 42.42231], [-82.88595, 42.42244], [-82.88613, 42.4225], [-82.88631, 42.42257], [-82.88671, 42.42269], [-82.88698, 42.42277], [-82.88761, 42.4229]]}}, {"type": "Feature", "properties": {"name": "Lake Shore Road", "highway": "secondary", "length_m": 2780.2}, "geometry": {"type": "LineString", "coordinates": [[-82.87619, 42.43542], [-82.87624, 42.43514], [-82.87635, 42.43463], [-82.87636, 42.43455], [-82.87646, 42.43404], [-82.87656, 42.43354], [-82.87658, 42.43348], [-82.87673, 42.43296], [-82.8768, 42.43273], [-82.87684, 42.43263], [-82.87689, 42.43251], [-82.8769, 42.43248], [-82.87714, 42.43191], [-82.87723, 42.4317], [-82.87734, 42.43149], [-82.87748, 42.43125], [-82.87774, 42.4308], [-82.87819, 42.43031], [-82.87833, 42.43015], [-82.87879, 42.42959], [-82.87885, 42.42952], [-82.8791, 42.42919], [-82.87927, 42.42889], [-82.87932, 42.42878], [-82.87936, 42.42868], [-82.87943, 42.42848], [-82.87947, 42.42832], [-82.87952, 42.42811], [-82.87953, 42.42809], [-82.8796, 42.42779], [-82.87969, 42.42741], [-82.87973, 42.42723], [-82.87975, 42.42715], [-82.87993, 42.42641], [-82.88004, 42.426], [-82.88023, 42.42523], [-82.88027, 42.4251], [-82.88034, 42.42482], [-82.88035, 42.42475], [-82.8805, 42.42414], [-82.88061, 42.42363], [-82.88071, 42.42322], [-82.88071, 42.4232], [-82.88074, 42.42307], [-82.88078, 42.42295], [-82.88096, 42.42236], [-82.88105, 42.42213], [-82.88109, 42.42202], [-82.88111, 42.42197], [-82.88121, 42.42173], [-82.88134, 42.42143], [-82.88138, 42.42132], [-82.88148, 42.42109], [-82.88151, 42.421], [-82.88161, 42.42078], [-82.88173, 42.42048], [-82.8818, 42.42033], [-82.88183, 42.42024], [-82.88186, 42.42016], [-82.8819, 42.42004], [-82.88203, 42.41959], [-82.88205, 42.41949], [-82.88212, 42.41908], [-82.88213, 42.41902], [-82.8822, 42.4186], [-82.88224, 42.41842], [-82.88226, 42.41835], [-82.88227, 42.41831], [-82.88236, 42.41803], [-82.88256, 42.41761], [-82.88268, 42.41739], [-82.88277, 42.4172], [-82.88294, 42.41685], [-82.88309, 42.41655], [-82.88333, 42.41608], [-82.88338, 42.41597], [-82.88344, 42.41586], [-82.88354, 42.41565], [-82.88389, 42.41496], [-82.88397, 42.4148], [-82.88437, 42.414], [-82.88447, 42.41379], [-82.88453, 42.41365], [-82.88458, 42.41351], [-82.88463, 42.41333], [-82.88485, 42.41259], [-82.88492, 42.41236], [-82.88517, 42.41149]]}}, {"type": "Feature", "properties": {"name": "Willow Tree Place", "highway": "residential", "length_m": 481.6}, "geometry": {"type": "LineString", "coordinates": [[-82.87561, 42.43936], [-82.8758, 42.43941], [-82.87589, 42.43944], [-82.88115, 42.44074]]}}, {"type": "Feature", "properties": {"name": "Hawthorne Road", "highway": "residential", "length_m": 1738.5}, "geometry": {"type": "LineString", "coordinates": [[-82.8756, 42.43848], [-82.8758, 42.43856], [-82.87588, 42.43858], [-82.88186, 42.44002], [-82.88219, 42.4401], [-82.88488, 42.44075], [-82.88797, 42.4415], [-82.89565, 42.44336]]}}, {"type": "Feature", "properties": {"name": "South Duval Road", "highway": "residential", "length_m": 64.1}, "geometry": {"type": "LineString", "coordinates": [[-82.87391, 42.44912], [-82.87401, 42.44914], [-82.87452, 42.44924], [-82.87467, 42.44925]]}}, {"type": "Feature", "properties": {"name": "South Duval Road", "highway": "residential", "length_m": 274.4}, "geometry": {"type": "LineString", "coordinates": [[-82.87715, 42.44976], [-82.87718, 42.44965], [-82.8772, 42.44953], [-82.87717, 42.44945], [-82.8771, 42.44939], [-82.87694, 42.44934], [-82.87515, 42.4489], [-82.87502, 42.4489], [-82.87492, 42.44893], [-82.87484, 42.44898], [-82.87478, 42.44906], [-82.87467, 42.44925]]}}, {"type": "Feature", "properties": {"name": "Crestwood Drive", "highway": "residential", "length_m": 329.8}, "geometry": {"type": "LineString", "coordinates": [[-82.8734, 42.44993], [-82.87359, 42.44997], [-82.87369, 42.45], [-82.87387, 42.45004], [-82.8772, 42.45085]]}}, {"type": "Feature", "properties": {"name": "Fordcroft Street", "highway": "residential", "length_m": 432.3}, "geometry": {"type": "LineString", "coordinates": [[-82.88896, 42.41928], [-82.88841, 42.41909], [-82.88803, 42.41894], [-82.88434, 42.41743]]}}, {"type": "Feature", "properties": {"name": "Oxford Road", "highway": "residential", "length_m": 138.8}, "geometry": {"type": "LineString", "coordinates": [[-82.88134, 42.42755], [-82.88129, 42.42752], [-82.8811, 42.42747], [-82.88098, 42.42744], [-82.88082, 42.4274], [-82.8803, 42.42727], [-82.88021, 42.42725], [-82.87991, 42.42718], [-82.87975, 42.42715]]}}, {"type": "Feature", "properties": {"name": "Straton Place", "highway": "residential", "length_m": 254.4}, "geometry": {"type": "LineString", "coordinates": [[-82.87748, 42.43125], [-82.87852, 42.4315], [-82.87877, 42.43153], [-82.87902, 42.4316], [-82.8798, 42.43178], [-82.87988, 42.43181], [-82.87994, 42.43185], [-82.87996, 42.43188], [-82.87996, 42.43191], [-82.87996, 42.43194], [-82.87987, 42.4322]]}}, {"type": "Feature", "properties": {"name": "Anita Avenue", "highway": "residential", "length_m": 2093.7}, "geometry": {"type": "LineString", "coordinates": [[-82.88233, 42.43919], [-82.88263, 42.43926], [-82.88302, 42.43936], [-82.88525, 42.4399], [-82.88675, 42.44026], [-82.88722, 42.44035], [-82.88787, 42.44046], [-82.88828, 42.44055], [-82.88856, 42.44061], [-82.89404, 42.44192], [-82.89605, 42.44241], [-82.89739, 42.44273], [-82.89868, 42.44304], [-82.89941, 42.44322], [-82.89951, 42.44324], [-82.90276, 42.44402], [-82.90278, 42.44402], [-82.90286, 42.44404], [-82.90292, 42.44406], [-82.90601, 42.44479], [-82.90614, 42.44483], [-82.90643, 42.44491], [-82.90654, 42.44494]]}}, {"type": "Feature", "properties": {"name": "Clairview Road", "highway": "residential", "length_m": 571.0}, "geometry": {"type": "LineString", "coordinates": [[-82.8806, 42.4229], [-82.88078, 42.42295], [-82.88111, 42.42301], [-82.88121, 42.42303], [-82.88132, 42.42303], [-82.88147, 42.42302], [-82.88156, 42.42302], [-82.88165, 42.42303], [-82.88177, 42.42305], [-82.88196, 42.42311], [-82.88262, 42.42339], [-82.88326, 42.42366], [-82.88444, 42.42418], [-82.88517, 42.42447], [-82.8855, 42.42459], [-82.88607, 42.42477], [-82.88645, 42.42487], [-82.88687, 42.42497]]}}, {"type": "Feature", "properties": {"name": "Edgewood Drive North", "highway": "residential", "length_m": 15.4}, "geometry": {"type": "LineString", "coordinates": [[-82.87571, 42.44325], [-82.8759, 42.44328]]}}, {"type": "Feature", "properties": {"name": "Willison Road", "highway": "residential", "length_m": 561.2}, "geometry": {"type": "LineString", "coordinates": [[-82.87624, 42.43514], [-82.87635, 42.43517], [-82.87717, 42.43536], [-82.87766, 42.43548], [-82.87927, 42.43583], [-82.88255, 42.43662], [-82.8826, 42.43663], [-82.88267, 42.43662], [-82.88274, 42.4366]]}}, {"type": "Feature", "properties": {"name": "Michaux Lane", "highway": "residential", "length_m": 160.1}, "geometry": {"type": "LineString", "coordinates": [[-82.87975, 42.43702], [-82.87943, 42.43774], [-82.87913, 42.43838]]}}, {"type": "Feature", "properties": {"name": "Roslyn Road", "highway": "residential", "length_m": 2590.4}, "geometry": {"type": "LineString", "coordinates": [[-82.87555, 42.44139], [-82.87573, 42.44143], [-82.87584, 42.44144], [-82.88373, 42.44335], [-82.88683, 42.4441], [-82.89306, 42.4456], [-82.89452, 42.44594], [-82.89802, 42.44677], [-82.90137, 42.44757], [-82.90494, 42.44843], [-82.90532, 42.44851], [-82.90534, 42.44852], [-82.90538, 42.44853], [-82.90544, 42.44859]]}}, {"type": "Feature", "properties": {"name": "South Edgewood Drive", "highway": "residential", "length_m": 400.9}, "geometry": {"type": "LineString", "coordinates": [[-82.87582, 42.44239], [-82.87593, 42.44241], [-82.87975, 42.44332], [-82.87981, 42.44333], [-82.87986, 42.44336], [-82.87989, 42.44339], [-82.87992, 42.44344], [-82.87992, 42.44347], [-82.87992, 42.4435], [-82.8799, 42.44357], [-82.8798, 42.44379]]}}, {"type": "Feature", "properties": {"name": "Greenbriar Street", "highway": "residential", "length_m": 448.8}, "geometry": {"type": "LineString", "coordinates": [[-82.87791, 42.43458], [-82.88308, 42.43585]]}}, {"type": "Feature", "properties": {"name": "Lake Shore Lane", "highway": "residential", "length_m": 806.3}, "geometry": {"type": "LineString", "coordinates": [[-82.87993, 42.42641], [-82.88324, 42.42718], [-82.88336, 42.42719], [-82.88347, 42.4272], [-82.88356, 42.42719], [-82.88371, 42.42715], [-82.88403, 42.42703], [-82.88416, 42.427], [-82.88659, 42.42759], [-82.88923, 42.42824]]}}, {"type": "Feature", "properties": {"name": "Renaud Road", "highway": "residential", "length_m": 853.9}, "geometry": {"type": "LineString", "coordinates": [[-82.87915, 42.42871], [-82.87932, 42.42878], [-82.88019, 42.42902], [-82.88076, 42.42917], [-82.88128, 42.42928], [-82.88229, 42.42946], [-82.88246, 42.42948], [-82.88257, 42.42951], [-82.88266, 42.42952], [-82.88297, 42.42958], [-82.8831, 42.42961], [-82.88371, 42.42974], [-82.88467, 42.42997], [-82.88562, 42.43024], [-82.88614, 42.4304], [-82.88678, 42.43061], [-82.88685, 42.43064], [-82.88704, 42.43071], [-82.88716, 42.43075], [-82.88742, 42.43085], [-82.8876, 42.43091], [-82.888, 42.43107], [-82.88849, 42.43127], [-82.88859, 42.43131], [-82.8887, 42.43138], [-82.88877, 42.43144]]}}, {"type": "Feature", "properties": {"name": "North Duval Road", "highway": "residential", "length_m": 240.5}, "geometry": {"type": "LineString", "coordinates": [[-82.87467, 42.44925], [-82.87465, 42.44929], [-82.87468, 42.44938], [-82.87475, 42.44944], [-82.87486, 42.44948], [-82.87672, 42.44993], [-82.87688, 42.44995], [-82.877, 42.44991], [-82.87708, 42.44985], [-82.87715, 42.44976]]}}, {"type": "Feature", "properties": {"name": "Regal Place", "highway": "residential", "length_m": 311.4}, "geometry": {"type": "LineString", "coordinates": [[-82.87913, 42.43838], [-82.87912, 42.43846], [-82.87913, 42.43849], [-82.87915, 42.43853], [-82.87919, 42.43856], [-82.87922, 42.43858], [-82.87927, 42.43859], [-82.87951, 42.43864], [-82.87975, 42.43868], [-82.88006, 42.43875], [-82.88034, 42.43884], [-82.88071, 42.43894], [-82.88088, 42.43898], [-82.88103, 42.439], [-82.88119, 42.43901], [-82.88137, 42.43902], [-82.88153, 42.43901], [-82.88155, 42.43904], [-82.88159, 42.43908], [-82.88162, 42.43912], [-82.88166, 42.43915], [-82.8817, 42.43917], [-82.88174, 42.43917], [-82.88179, 42.43917], [-82.88183, 42.43915], [-82.88184, 42.43912], [-82.88185, 42.43908], [-82.88185, 42.43901], [-82.88185, 42.43897], [-82.88183, 42.43893], [-82.8818, 42.43891], [-82.88177, 42.43891], [-82.88172, 42.43891], [-82.88166, 42.43892], [-82.88161, 42.43894], [-82.88156, 42.43898], [-82.88153, 42.43901]]}}, {"type": "Feature", "properties": {"name": "Briarcliff Place", "highway": "residential", "length_m": 287.3}, "geometry": {"type": "LineString", "coordinates": [[-82.8747, 42.44702], [-82.8748, 42.44704], [-82.87802, 42.44781]]}}, {"type": "Feature", "properties": {"name": "Webber Place", "highway": "tertiary", "length_m": 553.8}, "geometry": {"type": "LineString", "coordinates": [[-82.88032, 42.42409], [-82.8805, 42.42414], [-82.8809, 42.42421], [-82.88113, 42.42425], [-82.88173, 42.42442], [-82.88198, 42.42448], [-82.88257, 42.42458], [-82.88284, 42.42464], [-82.88356, 42.42482], [-82.8838, 42.42489], [-82.88405, 42.42499], [-82.88423, 42.42508], [-82.88457, 42.42525], [-82.88485, 42.42537], [-82.8861, 42.42579], [-82.88622, 42.42582], [-82.88632, 42.42582], [-82.88638, 42.42581], [-82.88644, 42.42579], [-82.88652, 42.42575], [-82.88653, 42.42574]]}}, {"type": "Feature", "properties": {"name": "Putnam Place", "highway": "residential", "length_m": 105.9}, "geometry": {"type": "LineString", "coordinates": [[-82.87773, 42.44578], [-82.87781, 42.44558], [-82.87788, 42.44555], [-82.87796, 42.44552], [-82.87801, 42.44548], [-82.87802, 42.44543], [-82.87801, 42.44538], [-82.87796, 42.44535], [-82.8779, 42.44533], [-82.87783, 42.44533], [-82.87776, 42.44535], [-82.87772, 42.44537], [-82.87771, 42.44541], [-82.87772, 42.44545], [-82.87776, 42.4455], [-82.87781, 42.44558]]}}, {"type": "Feature", "properties": {"name": "Putnam Place", "highway": "residential", "length_m": 310.7}, "geometry": {"type": "LineString", "coordinates": [[-82.87708, 42.4444], [-82.87671, 42.44535], [-82.87668, 42.44545], [-82.87668, 42.44548], [-82.8767, 42.4455], [-82.87673, 42.44553], [-82.87694, 42.44559], [-82.87773, 42.44578], [-82.87856, 42.44598], [-82.87873, 42.44601], [-82.87877, 42.44601], [-82.8788, 42.446]]}}, {"type": "Feature", "properties": {"name": "Hampton Road", "highway": "residential", "length_m": 2571.5}, "geometry": {"type": "LineString", "coordinates": [[-82.87558, 42.44031], [-82.87576, 42.44035], [-82.87587, 42.44038], [-82.87898, 42.44114], [-82.88116, 42.44167], [-82.88145, 42.44174], [-82.88416, 42.44239], [-82.88726, 42.44315], [-82.89298, 42.44452], [-82.89345, 42.44462], [-82.89359, 42.44463], [-82.89382, 42.44469], [-82.89494, 42.44496], [-82.89844, 42.4458], [-82.90179, 42.4466], [-82.90513, 42.44741], [-82.90528, 42.44744]]}}, {"type": "Feature", "properties": {"name": "Lake Shore Road", "highway": "secondary", "length_m": 3270.9}, "geometry": {"type": "LineString", "coordinates": [[-82.88643, 42.40719], [-82.88619, 42.40785], [-82.8858, 42.40897], [-82.88545, 42.41002], [-82.88526, 42.41055], [-82.88519, 42.41077], [-82.88499, 42.41145], [-82.88474, 42.4123], [-82.88452, 42.41307], [-82.88447, 42.41328], [-82.88439, 42.41349], [-82.8842, 42.41394], [-82.88417, 42.41401], [-82.88372, 42.41489], [-82.88338, 42.41557], [-82.88327, 42.41579], [-82.88257, 42.41718], [-82.88239, 42.41755], [-82.88235, 42.41763], [-82.88221, 42.41796], [-82.8821, 42.41827], [-82.88202, 42.41865], [-82.88196, 42.41899], [-82.88188, 42.41943], [-82.88187, 42.41949], [-82.88172, 42.42001], [-82.88169, 42.42011], [-82.88145, 42.4207], [-82.88116, 42.42138], [-82.88091, 42.42197], [-82.88066, 42.42271], [-82.8806, 42.4229], [-82.88053, 42.42316], [-82.88032, 42.42409], [-82.88018, 42.42472], [-82.88006, 42.42519], [-82.87986, 42.42595], [-82.87957, 42.42712], [-82.87935, 42.42806], [-82.87926, 42.42842], [-82.87919, 42.42861], [-82.87915, 42.42871], [-82.87911, 42.42881], [-82.87895, 42.42909], [-82.87873, 42.42939], [-82.87863, 42.42951], [-82.87804, 42.43021], [-82.87759, 42.43074], [-82.87733, 42.43111], [-82.87716, 42.43143], [-82.87706, 42.43166], [-82.87663, 42.43269], [-82.87638, 42.43349], [-82.87618, 42.43449], [-82.87601, 42.43541]]}}, {"type": "Feature", "properties": {"name": "Fairlake Lane", "highway": "residential", "length_m": 174.4}, "geometry": {"type": "LineString", "coordinates": [[-82.87269, 42.45195], [-82.87215, 42.45184], [-82.87198, 42.45179], [-82.87186, 42.45176], [-82.87173, 42.45172], [-82.87163, 42.45164], [-82.8715, 42.45155], [-82.87139, 42.45152], [-82.87076, 42.45137]]}}, {"type": "Feature", "properties": {"name": "Lakeshore Drive", "highway": "secondary", "length_m": 102.3}, "geometry": {"type": "LineString", "coordinates": [[-82.87269, 42.45195], [-82.87256, 42.45231], [-82.87252, 42.45252], [-82.87249, 42.45286]]}}, {"type": "Feature", "properties": {"name": "Lochmoor Boulevard", "highway": "residential", "length_m": 497.9}, "geometry": {"type": "LineString", "coordinates": [[-82.88727, 42.43247], [-82.88709, 42.43242], [-82.885, 42.43192], [-82.88466, 42.43184], [-82.882, 42.4312], [-82.88166, 42.43112], [-82.88153, 42.43117]]}}, {"type": "Feature", "properties": {"name": "Lakeshore Drive", "highway": "secondary", "length_m": 370.7}, "geometry": {"type": "LineString", "coordinates": [[-82.87263, 42.45324], [-82.87275, 42.45338], [-82.8729, 42.45354], [-82.87304, 42.45366], [-82.87327, 42.4538], [-82.87349, 42.45389], [-82.87369, 42.45395], [-82.87481, 42.45423], [-82.8751, 42.45431], [-82.87539, 42.4544], [-82.87587, 42.45457], [-82.87622, 42.45472], [-82.87648, 42.45482]]}}, {"type": "Feature", "properties": {"name": "Lake Shore Road", "highway": "secondary", "length_m": 84.6}, "geometry": {"type": "LineString", "coordinates": [[-82.87601, 42.43541], [-82.87593, 42.43581], [-82.87587, 42.43616]]}}, {"type": "Feature", "properties": {"name": "Lake Shore Road", "highway": "secondary", "length_m": 1705.9}, "geometry": {"type": "LineString", "coordinates": [[-82.87587, 42.43616], [-82.87584, 42.43628], [-82.87582, 42.43638], [-82.8758, 42.43644], [-82.87571, 42.43695], [-82.8757, 42.43698], [-82.87567, 42.43714], [-82.8756, 42.43755], [-82.87559, 42.43793], [-82.8756, 42.43848], [-82.87561, 42.4386], [-82.87561, 42.43868], [-82.87561, 42.43936], [-82.87561, 42.43942], [-82.87561, 42.43959], [-82.8756, 42.43983], [-82.87559, 42.44002], [-82.87559, 42.44025], [-82.87558, 42.44031], [-82.87557, 42.44062], [-82.87557, 42.44068], [-82.87556, 42.44087], [-82.87555, 42.44122], [-82.87555, 42.44131], [-82.87555, 42.44139], [-82.87556, 42.44154], [-82.87559, 42.44191], [-82.8756, 42.44199], [-82.87564, 42.44239], [-82.87567, 42.44275], [-82.8757, 42.44314], [-82.87571, 42.44325], [-82.87572, 42.44336], [-82.87573, 42.44345], [-82.87573, 42.44357], [-82.87573, 42.44361], [-82.87572, 42.44366], [-82.87568, 42.44384], [-82.87561, 42.44403], [-82.87561, 42.44405], [-82.87551, 42.44435], [-82.87538, 42.44469], [-82.87525, 42.44502], [-82.87522, 42.44511], [-82.87512, 42.44536], [-82.87501, 42.44566], [-82.87491, 42.44595], [-82.87466, 42.44661], [-82.87459, 42.44678], [-82.87437, 42.44736], [-82.87418, 42.44786], [-82.87399, 42.44836], [-82.87386, 42.44871], [-82.87373, 42.44906], [-82.87357, 42.44947], [-82.87348, 42.44971], [-82.8734, 42.44993], [-82.87336, 42.45004], [-82.8732, 42.45048], [-82.87319, 42.45051], [-82.87294, 42.4512]]}}, {"type": "Feature", "properties": {"name": "Vernier Road", "highway": "secondary", "length_m": 13.4}, "geometry": {"type": "LineString", "coordinates": [[-82.87603, 42.43617], [-82.87587, 42.43616]]}}, {"type": "Feature", "properties": {"name": "Lake Shore Road", "highway": "secondary", "length_m": 84.5}, "geometry": {"type": "LineString", "coordinates": [[-82.87603, 42.43617], [-82.8761, 42.43583], [-82.87619, 42.43542]]}}, {"type": "Feature", "properties": {"name": "Lake Shore Road", "highway": "secondary", "length_m": 1709.1}, "geometry": {"type": "LineString", "coordinates": [[-82.87312, 42.45125], [-82.87328, 42.4508], [-82.87338, 42.45053], [-82.87359, 42.44997], [-82.87391, 42.44912], [-82.87406, 42.44872], [-82.87433, 42.44801], [-82.87456, 42.4474], [-82.8747, 42.44702], [-82.87484, 42.44666], [-82.87507, 42.44603], [-82.87543, 42.44507], [-82.87567, 42.4444], [-82.87572, 42.44427], [-82.87579, 42.44408], [-82.87583, 42.44398], [-82.87589, 42.44375], [-82.87591, 42.44363], [-82.87591, 42.44339], [-82.8759, 42.44328], [-82.87582, 42.44239], [-82.87573, 42.44152], [-82.87573, 42.44143], [-82.87573, 42.44134], [-82.87576, 42.44035], [-82.8758, 42.43941], [-82.8758, 42.43856], [-82.87577, 42.43794], [-82.87578, 42.43761], [-82.87583, 42.4373], [-82.87585, 42.43716], [-82.87589, 42.43697], [-82.87598, 42.43647], [-82.87601, 42.43631], [-82.87603, 42.43617]]}}, {"type": "Feature", "properties": {"name": "Vernier Road", "highway": "secondary", "length_m": 655.6}, "geometry": {"type": "LineString", "coordinates": [[-82.88362, 42.43794], [-82.88352, 42.43792], [-82.88316, 42.43783], [-82.88283, 42.43774], [-82.87975, 42.43702], [-82.87894, 42.43682], [-82.87765, 42.43653], [-82.87741, 42.43648], [-82.87616, 42.43619], [-82.87603, 42.43617]]}}, {"type": "Feature", "properties": {"name": "Lakeshore Drive", "highway": "secondary", "length_m": 176.8}, "geometry": {"type": "LineString", "coordinates": [[-82.87269, 42.4528], [-82.87268, 42.45258], [-82.87274, 42.45238], [-82.8729, 42.45193], [-82.87312, 42.45125]]}}, {"type": "Feature", "properties": {"name": "", "highway": "residential", "length_m": 15.7}, "geometry": {"type": "LineString", "coordinates": [[-82.88466, 42.43184], [-82.88459, 42.43197]]}}, {"type": "Feature", "properties": {"name": "Oxford Road", "highway": "residential", "length_m": 644.7}, "geometry": {"type": "LineString", "coordinates": [[-82.88134, 42.42755], [-82.88166, 42.42766], [-82.88182, 42.4277], [-82.88242, 42.42784], [-82.88293, 42.42797], [-82.88373, 42.42816], [-82.884, 42.42826], [-82.8844, 42.42842], [-82.88446, 42.42843], [-82.8849, 42.42854], [-82.88613, 42.42883], [-82.88625, 42.42887], [-82.8865, 42.42893], [-82.88711, 42.4291], [-82.88724, 42.42912], [-82.8873, 42.42913], [-82.88736, 42.42914], [-82.88756, 42.42916], [-82.88763, 42.42917], [-82.88765, 42.42917], [-82.88773, 42.42918], [-82.88792, 42.42921], [-82.88801, 42.42923], [-82.88822, 42.42926], [-82.88835, 42.42931], [-82.88871, 42.42943]]}}, {"type": "Feature", "properties": {"name": "Oxford Road", "highway": "residential", "length_m": 138.8}, "geometry": {"type": "LineString", "coordinates": [[-82.87973, 42.42723], [-82.87989, 42.42726], [-82.88026, 42.42734], [-82.88027, 42.42734], [-82.88077, 42.42746], [-82.88079, 42.42747], [-82.88095, 42.4275], [-82.88107, 42.42753], [-82.88127, 42.42758], [-82.88134, 42.42755]]}}, {"type": "Feature", "properties": {"name": "", "highway": "residential", "length_m": 52.4}, "geometry": {"type": "LineString", "coordinates": [[-82.87861, 42.43281], [-82.87854, 42.43273], [-82.87848, 42.4327], [-82.87843, 42.43269], [-82.8784, 42.4327], [-82.87836, 42.43272], [-82.87833, 42.43276], [-82.87832, 42.4328], [-82.87832, 42.43294]]}}, {"type": "Feature", "properties": {"name": "", "highway": "residential", "length_m": 37.2}, "geometry": {"type": "LineString", "coordinates": [[-82.8798, 42.44379], [-82.88023, 42.44389]]}}, {"type": "Feature", "properties": {"name": "Lakeshore Drive", "highway": "secondary", "length_m": 43.5}, "geometry": {"type": "LineString", "coordinates": [[-82.87249, 42.45286], [-82.87255, 42.45307], [-82.87257, 42.45312], [-82.87263, 42.45324]]}}, {"type": "Feature", "properties": {"name": "", "highway": "residential", "length_m": 105.7}, "geometry": {"type": "LineString", "coordinates": [[-82.88541, 42.41995], [-82.88578, 42.41904]]}}, {"type": "Feature", "properties": {"name": "", "highway": "residential", "length_m": 54.5}, "geometry": {"type": "LineString", "coordinates": [[-82.88578, 42.41904], [-82.88588, 42.419], [-82.88592, 42.41894], [-82.88589, 42.41888], [-82.88582, 42.41887], [-82.88574, 42.4189], [-82.88573, 42.41896], [-82.88578, 42.41904]]}}, {"type": "Feature", "properties": {"name": "Sunningdale Drive", "highway": "residential", "length_m": 16.1}, "geometry": {"type": "LineString", "coordinates": [[-82.88194, 42.43133], [-82.882, 42.4312]]}}, {"type": "Feature", "properties": {"name": "Lochmoor Boulevard", "highway": "residential", "length_m": 39.8}, "geometry": {"type": "LineString", "coordinates": [[-82.88153, 42.43117], [-82.8816, 42.43125], [-82.88194, 42.43133]]}}]}