{"type": "FeatureCollection", "features": [{"type": "Feature", "properties": {"building": "yes", "source": "way"}, "geometry": {"type": "Point", "coordinates": [-82.88769132591946, 42.42364263413451]}}, {"type": "Feature", "properties": {"building": "yes", "source": "way"}, "geometry": {"type": "Point", "coordinates": [-82.88778667579463, 42.42337361992747]}}, {"type": "Feature", "properties": {"building": "yes", "source": "way"}, "geometry": {"type": "Point", "coordinates": [-82.88812002907144, 42.42250067469412]}}, {"type": "Feature", "properties": {"building": "house", "source": "way"}, "geometry": {"type": "Point", "coordinates": [-82.87462117969928, 42.44193169486507]}}, {"type": "Feature", "properties": {"building": "garage", "source": "way"}, "geometry": {"type": "Point", "coordinates": [-82.87490335000001, 42.441855200000006]}}, {"type": "Feature", "properties": {"building": "yes", "source": "way"}, "geometry": {"type": "Point", "coordinates": [-82.87479032230289, 42.436247551065726]}}, {"type": "Feature", "properties": {"building": "detached", "source": "way"}, "geometry": {"type": "Point", "coordinates": [-82.87140250850324, 42.45032499878811]}}, {"type": "Feature", "properties": {"building": "house", "source": "way"}, "geometry": {"type": "Point", "coordinates": [-82.87230859415301, 42.450064527780064]}}, {"type": "Feature", "properties": {"building": "yes", "source": "way"}, "geometry": {"type": "Point", "coordinates": [-82.86903430334542, 42.454129716332794]}}, {"type": "Feature", "properties": {"building": "yes", "source": "way"}, "geometry": {"type": "Point", "coordinates": [-82.87674513208756, 42.43677089347261]}}, {"type": "Feature", "properties": {"building": "warehouse", "source": "way"}, "geometry": {"type": "Point", "coordinates": [-82.8773829522874, 42.437081583322616]}}, {"type": "Feature", "properties": {"building": "yes", "source": "way"}, "geometry": {"type": "Point", "coordinates": [-82.87705632898593, 42.43713204790085]}}, {"type": "Feature", "properties": {"building": "detached", "source": "way"}, "geometry": {"type": "Point", "coordinates": [-82.88152254463097, 42.425965562895215]}}, {"type": "Feature", "properties": {"building": "yes", "source": "way"}, "geometry": {"type": "Point", "coordinates": [-82.8833393198911, 42.42646240291215]}}, {"type": "Feature", "properties": {"building": "yes", "source": "way"}, "geometry": {"type": "Point", "coordinates": [-82.88282828157368, 42.425880638545145]}}, {"type": "Feature", "properties": {"building": "detached", "source": "way"}, "geometry": {"type": "Point", "coordinates": [-82.88763759745291, 42.42391340300329]}}, {"type": "Feature", "properties": {"building": "detached", "source": "way"}, "geometry": {"type": "Point", "coordinates": [-82.8878961648363, 42.423105570738784]}}, {"type": "Feature", "properties": {"building": "detached", "source": "way"}, "geometry": {"type": "Point", "coordinates": [-82.88797949057916, 42.42283282195121]}}, {"type": "Feature", "properties": {"building": "yes", "source": "way"}, "geometry": {"type": "Point", "coordinates": [-82.87032478322348, 42.453106997200955]}}, {"type": "Feature", "properties": {"building": "house", "source": "way"}, "geometry": {"type": "Point", "coordinates": [-82.86980484331373, 42.45270514085946]}}, {"type": "Feature", "properties": {"building": "service", "source": "way"}, "geometry": {"type": "Point", "coordinates": [-82.86928501602277, 42.45488336931509]}}, {"type": "Feature", "properties": {"building": "yes", "source": "way"}, "geometry": {"type": "Point", "coordinates": [-82.8742069696043, 42.45687464999298]}}, {"type": "Feature", "properties": {"building": "yes", "source": "way"}, "geometry": {"type": "Point", "coordinates": [-82.87403980427368, 42.457605848155]}}, {"type": "Feature", "properties": {"building": "garage", "source": "way"}, "geometry": {"type": "Point", "coordinates": [-82.88177438452493, 42.425426898036946]}}, {"type": "Feature", "properties": {"building": "house", "source": "way"}, "geometry": {"type": "Point", "coordinates": [-82.88123590702924, 42.425185803091864]}}, {"type": "Feature", "properties": {"building": "detached", "source": "way"}, "geometry": {"type": "Point", "coordinates": [-82.87001531993748, 42.452469765055405]}}, {"type": "Feature", "properties": {"building": "yes", "source": "way"}, "geometry": {"type": "Point", "coordinates": [-82.87070349999999, 42.45304735]}}, {"type": "Feature", "properties": {"building": "detached", "source": "way"}, "geometry": {"type": "Point", "coordinates": [-82.87116347810661, 42.45270953741655]}}, {"type": "Feature", "properties": {"building": "detached", "source": "way"}, "geometry": {"type": "Point", "coordinates": [-82.87015621052117, 42.45224734376774]}}, {"type": "Feature", "properties": {"building": "yes", "source": "way"}, "geometry": {"type": "Point", "coordinates": [-82.88474905294395, 42.42655607325445]}}, {"type": "Feature", "properties": {"building": "yes", "source": "way"}, "geometry": {"type": "Point", "coordinates": [-82.8850559852579, 42.426597457914326]}}, {"type": "Feature", "properties": {"building": "yes", "source": "way"}, "geometry": {"type": "Point", "coordinates": [-82.88553313587109, 42.426710896394525]}}, {"type": "Feature", "properties": {"building": "yes", "source": "way"}, "geometry": {"type": "Point", "coordinates": [-82.8859025710946, 42.426819835399904]}}, {"type": "Feature", "properties": {"building": "yes", "source": "way"}, "geometry": {"type": "Point", "coordinates": [-82.88625639598412, 42.42690115304724]}}, {"type": "Feature", "properties": {"building": "yes", "source": "way"}, "geometry": {"type": "Point", "coordinates": [-82.88663796952859, 42.42697355150516]}}, {"type": "Feature", "properties": {"building": "yes", "source": "way"}, "geometry": {"type": "Point", "coordinates": [-82.8846412865736, 42.4268524974777]}}, {"type": "Feature", "properties": {"building": "yes", "source": "way"}, "geometry": {"type": "Point", "coordinates": [-82.88503034140996, 42.42699570034896]}}, {"type": "Feature", "properties": {"building": "yes", "source": "way"}, "geometry": {"type": "Point", "coordinates": [-82.88537879464096, 42.42708452257717]}}, {"type": "Feature", "properties": {"building": "yes", "source": "way"}, "geometry": {"type": "Point", "coordinates": [-82.88582096932213, 42.42718117353222]}}, {"type": "Feature", "properties": {"building": "yes", "source": "way"}, "geometry": {"type": "Point", "coordinates": [-82.88618485, 42.42727375]}}, {"type": "Feature", "properties": {"building": "yes", "source": "way"}, "geometry": {"type": "Point", "coordinates": [-82.88652934872488, 42.42734498452572]}}, {"type": "Feature", "properties": {"building": "yes", "source": "way"}, "geometry": {"type": "Point", "coordinates": [-82.88632199437524, 42.427790356321786]}}, {"type": "Feature", "properties": {"building": "yes", "source": "way"}, "geometry": {"type": "Point", "coordinates": [-82.88593020055987, 42.42769447285606]}}, {"type": "Feature", "properties": {"building": "yes", "source": "way"}, "geometry": {"type": "Point", "coordinates": [-82.88555316142798, 42.427597864165584]}}, {"type": "Feature", "properties": {"building": "yes", "source": "way"}, "geometry": {"type": "Point", "coordinates": [-82.88522386008428, 42.42752270447304]}}, {"type": "Feature", "properties": {"building": "yes", "source": "way"}, "geometry": {"type": "Point", "coordinates": [-82.88490627732789, 42.42743747486906]}}, {"type": "Feature", "properties": {"building": "yes", "source": "way"}, "geometry": {"type": "Point", "coordinates": [-82.88455387535352, 42.42733376938987]}}, {"type": "Feature", "properties": {"building": "yes", "source": "way"}, "geometry": {"type": "Point", "coordinates": [-82.88410625627444, 42.42729628787783]}}, {"type": "Feature", "properties": {"building": "yes", "source": "way"}, "geometry": {"type": "Point", "coordinates": [-82.88477749288697, 42.426060908267125]}}, {"type": "Feature", "properties": {"building": "yes", "source": "way"}, "geometry": {"type": "Point", "coordinates": [-82.88523353481462, 42.426133758573776]}}, {"type": "Feature", "properties": {"building": "yes", "source": "way"}, "geometry": {"type": "Point", "coordinates": [-82.88557505, 42.426238999999995]}}, {"type": "Feature", "properties": {"building": "yes", "source": "way"}, "geometry": {"type": "Point", "coordinates": [-82.88597290308473, 42.42636057077157]}}, {"type": "Feature", "properties": {"building": "yes", "source": "way"}, "geometry": {"type": "Point", "coordinates": [-82.88635521950174, 42.42644798249119]}}, {"type": "Feature", "properties": {"building": "yes", "source": "way"}, "geometry": {"type": "Point", "coordinates": [-82.88675452014704, 42.42653553040328]}}, {"type": "Feature", "properties": {"building": "detached", "source": "relation"}, "geometry": {"type": "Point", "coordinates": [-82.87040373225805, 42.452004825806455]}}]}