{"type": "FeatureCollection", "features": [{"type": "Feature", "properties": {"name": "Nottingham Road", "highway": "residential"}, "geometry": {"type": "LineString", "coordinates": [[-82.931801, 42.373201], [-82.932609, 42.374433], [-82.933961, 42.3764891], [-82.9341718, 42.3768314], [-82.9342139, 42.3768989]]}}, {"type": "Feature", "properties": {"name": "Westchester Road", "highway": "residential"}, "geometry": {"type": "LineString", "coordinates": [[-82.925409, 42.366643], [-82.925722, 42.366889], [-82.926064, 42.367184], [-82.92634, 42.36744], [-82.926675, 42.367778], [-82.926921, 42.368049], [-82.927153, 42.368325], [-82.927403, 42.368653], [-82.927624, 42.368973], [-82.929642, 42.372064], [-82.929696, 42.3721466], [-82.93146, 42.374846], [-82.931688, 42.37516], [-82.9329875, 42.3772154], [-82.9330215, 42.3772497], [-82.9331384, 42.3773233]]}}, {"type": "Feature", "properties": {"name": "Beaconsfield Avenue", "highway": "residential"}, "geometry": {"type": "LineString", "coordinates": [[-82.931729, 42.371314], [-82.9317851, 42.3714], [-82.9321025, 42.3718864], [-82.932741, 42.372865], [-82.933545, 42.37409], [-82.9348891, 42.376158], [-82.9350774, 42.3764464], [-82.9351276, 42.376525], [-82.9351688, 42.3765869], [-82.9352672, 42.3767191]]}}, {"type": "Feature", "properties": {"name": "Fairfax Avenue", "highway": "residential"}, "geometry": {"type": "LineString", "coordinates": [[-82.937952, 42.372494], [-82.937402, 42.372693], [-82.936847, 42.372895], [-82.935716, 42.373305], [-82.934586, 42.373714], [-82.9340037, 42.3739243], [-82.933545, 42.37409], [-82.9330715, 42.3742635], [-82.932609, 42.374433], [-82.932137, 42.374604], [-82.93146, 42.374846], [-82.93001, 42.375371], [-82.928582, 42.375889], [-82.9272454, 42.3763754], [-82.927175, 42.376401]]}}, {"type": "Feature", "properties": {"name": "Hally Place", "highway": "residential"}, "geometry": {"type": "LineString", "coordinates": [[-82.932741, 42.372865], [-82.9322732, 42.3730322], [-82.9321105, 42.3730904], [-82.931801, 42.373201], [-82.9313171, 42.3733768]]}}, {"type": "Feature", "properties": {"name": "Lakepointe Street", "highway": "residential"}, "geometry": {"type": "LineString", "coordinates": [[-82.926542, 42.362678], [-82.926624, 42.362734], [-82.926705, 42.362791], [-82.927351, 42.363562], [-82.928113, 42.364429], [-82.928578, 42.364982], [-82.929376, 42.365985], [-82.930093, 42.366956], [-82.93071, 42.367854], [-82.932757, 42.370947], [-82.9331345, 42.3715181], [-82.934586, 42.373714], [-82.9361676, 42.3761233], [-82.9362221, 42.3761813]]}}, {"type": "Feature", "properties": {"name": "Berkshire Road", "highway": "residential"}, "geometry": {"type": "LineString", "coordinates": [[-82.923982, 42.369711], [-82.92408, 42.369748], [-82.924177, 42.369786], [-82.924352, 42.369896], [-82.92458, 42.370041], [-82.924687, 42.370121], [-82.924787, 42.370206], [-82.924881, 42.370294], [-82.924968, 42.370387], [-82.925096, 42.370548], [-82.9273911, 42.3740644], [-82.927447, 42.37415], [-82.928582, 42.375889], [-82.9299906, 42.3780667], [-82.930071, 42.3781909]]}}, {"type": "Feature", "properties": {"name": "Windmill Pointe Drive", "highway": "residential"}, "geometry": {"type": "LineString", "coordinates": [[-82.922302, 42.373286], [-82.922385, 42.372986], [-82.922862, 42.372018], [-82.923008, 42.371722], [-82.9234412, 42.3708412], [-82.923488, 42.370746], [-82.9235243, 42.3706838], [-82.923557, 42.370628], [-82.923729, 42.370428], [-82.923884, 42.370229], [-82.9239151, 42.3701819], [-82.924177, 42.369786], [-82.924279, 42.369624], [-82.924397, 42.369417], [-82.924576, 42.369067], [-82.924743, 42.368689], [-82.924833, 42.368457], [-82.924894, 42.36828], [-82.92504, 42.367793], [-82.925126, 42.36738], [-82.925277, 42.366505], [-82.925605, 42.364621], [-82.92567, 42.364307]]}}, {"type": "Feature", "properties": {"name": "Windmill Pointe Drive", "highway": "residential"}, "geometry": {"type": "LineString", "coordinates": [[-82.9290619, 42.3611506], [-82.9289331, 42.3612634], [-82.928662, 42.36148], [-82.92838, 42.361675], [-82.928083, 42.361854], [-82.927847, 42.361971], [-82.9277422, 42.3620199], [-82.927207, 42.3622717], [-82.927108, 42.362316], [-82.926986, 42.362378], [-82.9269313, 42.3624089], [-82.926869, 42.362444], [-82.926757, 42.362516], [-82.926542, 42.362678], [-82.926336, 42.36285], [-82.9261768, 42.3630049], [-82.926149, 42.363032], [-82.925961, 42.36325], [-82.925835, 42.363419], [-82.925696, 42.363638], [-82.925592, 42.363836], [-82.925503, 42.364065], [-82.9254575, 42.364219], [-82.925448, 42.364251], [-82.925408, 42.364438], [-82.9253944, 42.3645263], [-82.9253281, 42.3649298], [-82.925298, 42.365115], [-82.9252784, 42.3652266], [-82.9252198, 42.365561], [-82.9251427, 42.3659883], [-82.9250861, 42.3663216], [-82.925064, 42.36645], [-82.9250525, 42.3665149], [-82.9250087, 42.3667337], [-82.9249237, 42.3672439], [-82.924864, 42.367582], [-82.9247957, 42.3678627], [-82.924775, 42.367948], [-82.9247204, 42.3681183], [-82.9246956, 42.3681954], [-82.924681, 42.368241], [-82.9246287, 42.3683903], [-82.924612, 42.368438], [-82.9245921, 42.3684892], [-82.92452, 42.368674], [-82.9244542, 42.3688235], [-82.9244008, 42.3689451], [-82.924352, 42.369056], [-82.9242091, 42.3693321], [-82.924188, 42.369373], [-82.924079, 42.36956], [-82.9239993, 42.369684], [-82.923982, 42.369711], [-82.9239506, 42.3697585], [-82.923673, 42.370178], [-82.923549, 42.370336], [-82.923427, 42.37047], [-82.9234065, 42.3704956], [-82.923362, 42.370551], [-82.9233123, 42.37064], [-82.923256, 42.370741], [-82.922856, 42.371551], [-82.922675, 42.371928], [-82.922239, 42.372814]]}}, {"type": "Feature", "properties": {"name": "Avondale Avenue", "highway": "residential"}, "geometry": {"type": "LineString", "coordinates": [[-82.934077, 42.366634], [-82.933512, 42.3668406], [-82.932972, 42.367034], [-82.931841, 42.367445], [-82.93071, 42.367854], [-82.929999, 42.368112], [-82.929287, 42.368369], [-82.929121, 42.36843], [-82.927624, 42.368973], [-82.926177, 42.369497], [-82.925805, 42.369627], [-82.925558, 42.369698], [-82.925378, 42.369742], [-82.925156, 42.369786], [-82.924932, 42.369823], [-82.924707, 42.369854], [-82.924352, 42.369896]]}}, {"type": "Feature", "properties": {"name": "Middlesex Road", "highway": "residential"}, "geometry": {"type": "LineString", "coordinates": [[-82.925448, 42.364251], [-82.925624, 42.36427], [-82.92567, 42.364307]]}}, {"type": "Feature", "properties": {"name": "Middlesex Road", "highway": "residential"}, "geometry": {"type": "LineString", "coordinates": [[-82.931259, 42.371482], [-82.930777, 42.370685], [-82.929287, 42.368369], [-82.929145, 42.368156], [-82.928891, 42.367792], [-82.928638, 42.36745], [-82.928507, 42.367281], [-82.927799, 42.366412], [-82.927721, 42.366323], [-82.927211, 42.36575], [-82.926813, 42.36534], [-82.926541, 42.365033], [-82.925886, 42.364413], [-82.92567, 42.364307]]}}, {"type": "Feature", "properties": {"name": "Balfour Street", "highway": "residential"}, "geometry": {"type": "LineString", "coordinates": [[-82.924681, 42.368241], [-82.924788, 42.36826], [-82.924894, 42.36828], [-82.924944, 42.368357], [-82.925185, 42.368518], [-82.92533, 42.368625], [-82.925513, 42.368773], [-82.925662, 42.368907], [-82.925835, 42.369078], [-82.925956, 42.369211], [-82.926067, 42.369347], [-82.926177, 42.369497], [-82.926812, 42.3704702], [-82.9279956, 42.3722841], [-82.928458, 42.3729927], [-82.928545, 42.373126], [-82.93001, 42.375371], [-82.930068, 42.375468], [-82.930558, 42.376209], [-82.9314994, 42.3776751], [-82.931577, 42.3777959]]}}, {"type": "Feature", "properties": {"name": "Trombley Road", "highway": "residential"}, "geometry": {"type": "LineString", "coordinates": [[-82.923362, 42.370551], [-82.923488, 42.370746], [-82.923557, 42.37086], [-82.924471, 42.372263], [-82.925507, 42.37384], [-82.9259821, 42.3745736], [-82.926038, 42.37466], [-82.927175, 42.376401], [-82.9284513, 42.3783744], [-82.928526, 42.3784899]]}}, {"type": "Feature", "properties": {"name": "Essex Avenue", "highway": "tertiary"}, "geometry": {"type": "LineString", "coordinates": [[-82.932757, 42.370947], [-82.932615, 42.370995], [-82.9318001, 42.3712884], [-82.931729, 42.371314], [-82.931639, 42.3713462], [-82.9313238, 42.3714588], [-82.931259, 42.371482], [-82.931086, 42.371544], [-82.929642, 42.372064], [-82.929546, 42.372099], [-82.929399, 42.372161], [-82.929237, 42.372242], [-82.929146, 42.372297], [-82.929008, 42.372396], [-82.928927, 42.37247], [-82.928838, 42.372568], [-82.928755, 42.372684], [-82.928603, 42.372972], [-82.928545, 42.373126], [-82.928487, 42.37328], [-82.928407, 42.373458], [-82.928274, 42.373641], [-82.928121, 42.373796], [-82.927946, 42.373924], [-82.927714, 42.37405], [-82.927447, 42.37415]]}}, {"type": "Feature", "properties": {"name": "Lakeview Court", "highway": "residential"}, "geometry": {"type": "LineString", "coordinates": [[-82.9229468, 42.3699655], [-82.9228671, 42.3701292], [-82.9226706, 42.3705326], [-82.922438, 42.37101], [-82.9223299, 42.3712298], [-82.922017, 42.371866]]}}, {"type": "Feature", "properties": {"name": "Lakeview Court", "highway": "residential"}, "geometry": {"type": "LineString", "coordinates": [[-82.9229468, 42.3699655], [-82.923362, 42.370551]]}}, {"type": "Feature", "properties": {"name": "Lake Court", "highway": "residential"}, "geometry": {"type": "LineString", "coordinates": [[-82.922438, 42.37101], [-82.922856, 42.371551]]}}, {"type": "Feature", "properties": {"name": "Harcourt Road", "highway": "residential"}, "geometry": {"type": "LineString", "coordinates": [[-82.922675, 42.371928], [-82.922775, 42.371955], [-82.922862, 42.372018], [-82.924782, 42.3750181], [-82.92483, 42.375093], [-82.9265198, 42.3776909], [-82.9271004, 42.3785835], [-82.92718, 42.3787059]]}}, {"type": "Feature", "properties": {"name": "Barrington Road", "highway": "residential"}, "geometry": {"type": "LineString", "coordinates": [[-82.9289331, 42.3612634], [-82.929014, 42.3613131], [-82.929084, 42.361387], [-82.929901, 42.362537], [-82.930952, 42.36404], [-82.931817, 42.36531], [-82.932972, 42.367034], [-82.934452, 42.36927], [-82.936847, 42.372895], [-82.938074, 42.374754], [-82.9381645, 42.3748891], [-82.9383643, 42.3752037], [-82.938405, 42.3752574]]}}, {"type": "Feature", "properties": {"name": "Pemberton Road", "highway": "residential"}, "geometry": {"type": "LineString", "coordinates": [[-82.927847, 42.361971], [-82.92796, 42.362115], [-82.928606, 42.362941], [-82.9288303, 42.3632329], [-82.929246, 42.363774], [-82.9295968, 42.3642479], [-82.9296254, 42.3642865], [-82.929836, 42.364571], [-82.930029, 42.3648358], [-82.930242, 42.365128], [-82.930626, 42.365667], [-82.931426, 42.366823], [-82.931841, 42.367445], [-82.933603, 42.370109], [-82.934935, 42.3721237], [-82.935716, 42.373305], [-82.9372629, 42.3756414], [-82.937305, 42.375705], [-82.937411, 42.3758559]]}}, {"type": "Feature", "properties": {"name": "Alter Road", "highway": "residential"}, "geometry": {"type": "LineString", "coordinates": [[-82.929962, 42.360365], [-82.929968, 42.360398], [-82.929985, 42.360446], [-82.930011, 42.360492], [-82.930293, 42.360914], [-82.930697, 42.361525], [-82.9309685, 42.3619416], [-82.932946, 42.364921]]}}, {"type": "Feature", "properties": {"name": "Middlesex Road", "highway": "residential"}, "geometry": {"type": "LineString", "coordinates": [[-82.92567, 42.364307], [-82.925782, 42.364509], [-82.92619, 42.364938], [-82.926508, 42.365271], [-82.92675, 42.365514], [-82.92715, 42.365937], [-82.927536, 42.366359], [-82.927643, 42.366482], [-82.928387, 42.367393], [-82.928718, 42.367838], [-82.929121, 42.36843], [-82.931086, 42.371544]]}}, {"type": "Feature", "properties": {"name": "Riverside Boulevard", "highway": "residential"}, "geometry": {"type": "LineString", "coordinates": [[-82.930115, 42.360037], [-82.93007, 42.360075], [-82.930019, 42.360132], [-82.929986, 42.360185], [-82.929971, 42.36022], [-82.929958, 42.360284], [-82.929962, 42.360365]]}}, {"type": "Feature", "properties": {"name": "Essex Avenue", "highway": "tertiary"}, "geometry": {"type": "LineString", "coordinates": [[-82.935541, 42.368847], [-82.934964, 42.36907], [-82.934546, 42.36923], [-82.934452, 42.36927], [-82.934265, 42.369348], [-82.934122, 42.369421], [-82.933993, 42.369509], [-82.933888, 42.3696], [-82.933793, 42.36971], [-82.933731, 42.369804], [-82.933684, 42.369901], [-82.933603, 42.370109], [-82.933472, 42.37043], [-82.9334, 42.370542], [-82.933327, 42.370626], [-82.933219, 42.370717], [-82.933072, 42.370813], [-82.932912, 42.370891], [-82.932757, 42.370947]]}}, {"type": "Feature", "properties": {"name": "Korte Avenue", "highway": "residential"}, "geometry": {"type": "LineString", "coordinates": [[-82.932946, 42.364921], [-82.9328638, 42.3649495], [-82.9328543, 42.3649528], [-82.932372, 42.3651202]]}}, {"type": "Feature", "properties": {"name": "Klenk Street", "highway": "residential"}, "geometry": {"type": "LineString", "coordinates": [[-82.9303483, 42.3608955], [-82.930293, 42.360914]]}}, {"type": "Feature", "properties": {"name": "Korte Avenue", "highway": "residential"}, "geometry": {"type": "LineString", "coordinates": [[-82.9323408, 42.3651321], [-82.931817, 42.36531], [-82.931219, 42.365497], [-82.930626, 42.365667], [-82.929376, 42.365985], [-82.929038, 42.366062], [-82.928527, 42.366169], [-82.927969, 42.366278], [-82.927721, 42.366323], [-82.927536, 42.366359], [-82.926752, 42.366477], [-82.926094, 42.366566], [-82.925409, 42.366643], [-82.925346, 42.366593], [-82.925277, 42.366505], [-82.925182, 42.366462], [-82.925064, 42.36645]]}}, {"type": "Feature", "properties": {"name": "Windmill Pointe Drive", "highway": "residential"}, "geometry": {"type": "LineString", "coordinates": [[-82.92567, 42.364307], [-82.925689, 42.364192], [-82.925775, 42.363959], [-82.925883, 42.363732], [-82.926001, 42.363536], [-82.926113, 42.363379], [-82.926273, 42.363191], [-82.926547, 42.362922], [-82.926705, 42.362791], [-82.926929, 42.362627], [-82.927103, 42.362519], [-82.927254, 42.362443], [-82.927842, 42.362173], [-82.92796, 42.362115], [-82.928254, 42.361961], [-82.928532, 42.361794], [-82.928786, 42.361621], [-82.929084, 42.361387], [-82.9292339, 42.3612626]]}}, {"type": "Feature", "properties": {"name": "Windmill Pointe Drive", "highway": "residential"}, "geometry": {"type": "LineString", "coordinates": [[-82.9292339, 42.3612626], [-82.929302, 42.361206], [-82.9293537, 42.3610968], [-82.9295319, 42.3609402], [-82.9295671, 42.3609095], [-82.9297798, 42.3607244], [-82.9297383, 42.3606607], [-82.9296372, 42.3606537], [-82.9294564, 42.3608062], [-82.9294202, 42.3608368], [-82.9290619, 42.3611506]]}}, {"type": "Feature", "properties": {"name": "Bedford Lane", "highway": "residential"}, "geometry": {"type": "LineString", "coordinates": [[-82.9212826, 42.3718386], [-82.921742, 42.372528], [-82.921778, 42.372576], [-82.921821, 42.372621], [-82.921907, 42.372687], [-82.921986, 42.372731], [-82.922073, 42.372766], [-82.922239, 42.372814]]}}, {"type": "Feature", "properties": {"name": "Bedford Lane", "highway": "residential"}, "geometry": {"type": "LineString", "coordinates": [[-82.922239, 42.372814], [-82.92221, 42.373011], [-82.922302, 42.373286]]}}, {"type": "Feature", "properties": {"name": "Bedford Road", "highway": "residential"}, "geometry": {"type": "LineString", "coordinates": [[-82.922302, 42.373286], [-82.922359, 42.373394], [-82.922539, 42.373675], [-82.9236394, 42.3754332], [-82.923685, 42.375506], [-82.9237154, 42.3755528], [-82.9252498, 42.377915]]}}, {"type": "Feature", "properties": {"name": "East Outer Drive", "highway": "tertiary"}, "geometry": {"type": "LineString", "coordinates": [[-82.9335, 42.398783], [-82.932783, 42.397685], [-82.932065, 42.396588], [-82.931708, 42.396044], [-82.931352, 42.395499], [-82.93063, 42.394392], [-82.929956, 42.393365], [-82.9292503, 42.392313], [-82.9292446, 42.3923044], [-82.929055, 42.392215]]}}, {"type": "Feature", "properties": {"name": "Nottingham Road", "highway": "residential"}, "geometry": {"type": "LineString", "coordinates": [[-82.948842, 42.399101], [-82.9485716, 42.3986958], [-82.947723, 42.397424], [-82.94664, 42.395799], [-82.945555, 42.394176], [-82.944472, 42.392552], [-82.943389, 42.390927], [-82.942308, 42.389305], [-82.9419061, 42.3887072], [-82.941662, 42.388344], [-82.941428, 42.387996], [-82.94046, 42.386528], [-82.9389333, 42.384211]]}}, {"type": "Feature", "properties": {"name": "East Jefferson Avenue", "highway": "secondary"}, "geometry": {"type": "LineString", "coordinates": [[-82.9386289, 42.3752363], [-82.938405, 42.3752574]]}}, {"type": "Feature", "properties": {"name": "Yorkshire Road", "highway": "residential"}, "geometry": {"type": "LineString", "coordinates": [[-82.926671, 42.393182], [-82.9267618, 42.3933203], [-82.926936, 42.3935857], [-82.928065, 42.395306], [-82.929509, 42.397502], [-82.9299807, 42.3982205], [-82.9305585, 42.3991006], [-82.93095, 42.399697], [-82.933005, 42.402822], [-82.9338487, 42.404104], [-82.9340416, 42.404397], [-82.934112, 42.404504], [-82.9341759, 42.4046014], [-82.9343814, 42.4049145], [-82.935217, 42.406188], [-82.936288, 42.407817], [-82.9370424, 42.4089681], [-82.9372457, 42.4092783], [-82.937296, 42.409355]]}}, {"type": "Feature", "properties": {"name": "Yorkshire Road", "highway": "residential"}, "geometry": {"type": "LineString", "coordinates": [[-82.918037, 42.3803059], [-82.919969, 42.383253], [-82.9211176, 42.3850198], [-82.921485, 42.385585], [-82.9217223, 42.3859491], [-82.9228311, 42.3876606], [-82.922879, 42.3877345], [-82.9229314, 42.3878145], [-82.924062, 42.389541], [-82.92558, 42.39187], [-82.926482, 42.393256]]}}, {"type": "Feature", "properties": {"name": "Beaconsfield Avenue", "highway": "residential"}, "geometry": {"type": "LineString", "coordinates": [[-82.935535, 42.377149], [-82.9358328, 42.3776029], [-82.937337, 42.379895], [-82.9384748, 42.3816246], [-82.9385064, 42.3816726], [-82.9386914, 42.3819735], [-82.9387426, 42.3820484], [-82.9387992, 42.3821334], [-82.93899, 42.382415], [-82.9399261, 42.3838496], [-82.941461, 42.386169], [-82.9425399, 42.3878116], [-82.9426627, 42.3877975], [-82.9429071, 42.3881261]]}}, {"type": "Feature", "properties": {"name": "Hampton Street", "highway": "residential"}, "geometry": {"type": "LineString", "coordinates": [[-82.9404288, 42.376241], [-82.9403305, 42.3762773], [-82.9402948, 42.3762905], [-82.9399523, 42.3764111], [-82.9396036, 42.3765347], [-82.93949, 42.376575]]}}, {"type": "Feature", "properties": {"name": "Grayton Street", "highway": "residential"}, "geometry": {"type": "LineString", "coordinates": [[-82.92462, 42.393982], [-82.9247131, 42.3941236], [-82.9247456, 42.394173], [-82.9249411, 42.3944709], [-82.925987, 42.396061], [-82.927437, 42.398254], [-82.9275, 42.398357], [-82.928879, 42.400447], [-82.930943, 42.403577], [-82.9317903, 42.4048648], [-82.932051, 42.405261]]}}, {"type": "Feature", "properties": {"name": "Grayton Street", "highway": "residential"}, "geometry": {"type": "LineString", "coordinates": [[-82.919744, 42.385374], [-82.919136, 42.385591], [-82.919101, 42.385615], [-82.919072, 42.385642], [-82.919049, 42.385672], [-82.919033, 42.385704], [-82.919023, 42.385773], [-82.919043, 42.38584], [-82.919372, 42.386342], [-82.9207276, 42.3884145], [-82.9207766, 42.3884895], [-82.920827, 42.388566], [-82.921967, 42.390296], [-82.923491, 42.392617], [-82.9243034, 42.3938608]]}}, {"type": "Feature", "properties": {"name": "Goethe Street", "highway": "residential"}, "geometry": {"type": "LineString", "coordinates": [[-82.9466727, 42.3858], [-82.9465506, 42.3858403], [-82.946389, 42.385897], [-82.946206, 42.385961]]}}, {"type": "Feature", "properties": {"name": "Wayburn Street", "highway": "residential"}, "geometry": {"type": "LineString", "coordinates": [[-82.9386289, 42.3752363], [-82.9386996, 42.3753879], [-82.9388765, 42.3756583]]}}, {"type": "Feature", "properties": {"name": "Lakepointe Street", "highway": "residential"}, "geometry": {"type": "LineString", "coordinates": [[-82.9363424, 42.3762899], [-82.9364326, 42.3763704], [-82.9368889, 42.3770668], [-82.9373832, 42.3778125], [-82.9378295, 42.3784857], [-82.93849, 42.379482], [-82.9395274, 42.3810656], [-82.9396127, 42.3811959], [-82.9396477, 42.3812494], [-82.939704, 42.3813436], [-82.9397628, 42.3814417], [-82.9398403, 42.381551], [-82.9398929, 42.3816326], [-82.9399511, 42.3817189], [-82.940141, 42.3819993], [-82.9410726, 42.3834375], [-82.942611, 42.385756], [-82.943485, 42.387082], [-82.943813, 42.3875812], [-82.944039, 42.387925]]}}, {"type": "Feature", "properties": {"name": "Lakepointe Street", "highway": "residential"}, "geometry": {"type": "LineString", "coordinates": [[-82.944473, 42.387847], [-82.9447103, 42.3882027], [-82.946473, 42.390845], [-82.948139, 42.393341], [-82.949033, 42.394679], [-82.949746, 42.395757], [-82.951095, 42.3977842], [-82.9511703, 42.3979052], [-82.951357, 42.398178], [-82.9516308, 42.3985839], [-82.9524743, 42.3998577], [-82.953017, 42.4006757], [-82.9535653, 42.4014967], [-82.9545593, 42.4029495], [-82.9546, 42.403009], [-82.954722, 42.403191], [-82.9547656, 42.4032557], [-82.955753, 42.404719]]}}, {"type": "Feature", "properties": {"name": "Berkshire Road", "highway": "residential"}, "geometry": {"type": "LineString", "coordinates": [[-82.930387, 42.3781149], [-82.9321128, 42.3807436], [-82.93266, 42.381577], [-82.9340091, 42.3836509], [-82.9340586, 42.383727], [-82.9341102, 42.3838051], [-82.935247, 42.385529], [-82.9367518, 42.3878564], [-82.937643, 42.389182]]}}, {"type": "Feature", "properties": {"name": "Essex Drive", "highway": "tertiary"}, "geometry": {"type": "LineString", "coordinates": [[-82.927447, 42.37415], [-82.9261086, 42.3746344], [-82.926038, 42.37466], [-82.9259544, 42.3746899], [-82.92483, 42.375093], [-82.923685, 42.375506], [-82.9229638, 42.3757664], [-82.922821, 42.375818], [-82.9225961, 42.3758997], [-82.922133, 42.376068], [-82.9205683, 42.3766295], [-82.920486, 42.376659], [-82.9203934, 42.3766924], [-82.9192839, 42.3770934], [-82.919202, 42.377123]]}}, {"type": "Feature", "properties": {"name": "Lakepointe Road", "highway": "residential"}, "geometry": {"type": "LineString", "coordinates": [[-82.9362221, 42.3761813], [-82.9363424, 42.3762899]]}}, {"type": "Feature", "properties": {"name": "Buckingham Road", "highway": "residential"}, "geometry": {"type": "LineString", "coordinates": [[-82.928799, 42.3784459], [-82.9301687, 42.3805324], [-82.931199, 42.382102], [-82.9325467, 42.3841752], [-82.9325966, 42.384252], [-82.9326472, 42.3843291], [-82.9337786, 42.386054], [-82.9343262, 42.386884], [-82.9350042, 42.3879199], [-82.935306, 42.388381], [-82.9361, 42.389596]]}}, {"type": "Feature", "properties": {"name": "Bishop Street", "highway": "residential"}, "geometry": {"type": "LineString", "coordinates": [[-82.925692, 42.393564], [-82.9257848, 42.3937054], [-82.9258025, 42.3937324], [-82.9259565, 42.3939674], [-82.927071, 42.395667], [-82.928509, 42.397862], [-82.929945, 42.400059], [-82.931995, 42.403192], [-82.9328372, 42.4044764], [-82.9328579, 42.404506], [-82.9330306, 42.4047707], [-82.933098, 42.404874]]}}, {"type": "Feature", "properties": {"name": "Maryland Street", "highway": "residential"}, "geometry": {"type": "LineString", "coordinates": [[-82.937645, 42.375561], [-82.937755, 42.3757089]]}}, {"type": "Feature", "properties": {"name": "Bishop Road", "highway": "residential"}, "geometry": {"type": "LineString", "coordinates": [[-82.9180433, 42.3830025], [-82.918282, 42.383233], [-82.918663, 42.383721], [-82.919128, 42.384413], [-82.9192139, 42.384547], [-82.919744, 42.385374], [-82.919798, 42.385383], [-82.919858, 42.385404], [-82.919911, 42.385435], [-82.919952, 42.385474], [-82.920304, 42.386008], [-82.9216579, 42.3880798], [-82.9217083, 42.388157], [-82.9217587, 42.3882333], [-82.922899, 42.38996], [-82.924425, 42.392283], [-82.9252684, 42.3935673], [-82.925353, 42.393696]]}}, {"type": "Feature", "properties": {"name": "Vernor Highway", "highway": "residential"}, "geometry": {"type": "LineString", "coordinates": [[-82.944406, 42.382242], [-82.943911, 42.382418], [-82.9439022, 42.3824212], [-82.9434545, 42.3825845], [-82.942983, 42.3827566], [-82.9425142, 42.3829264], [-82.9417607, 42.3831916], [-82.9410726, 42.3834375], [-82.9404256, 42.3836715], [-82.9399261, 42.3838496], [-82.9394321, 42.3840328], [-82.9389333, 42.384211], [-82.937962, 42.384553], [-82.936722, 42.384998], [-82.935247, 42.385529], [-82.9337786, 42.386054], [-82.93234, 42.386572], [-82.931126, 42.387009], [-82.929633, 42.387548], [-82.928001, 42.388131], [-82.9267017, 42.3885992], [-82.925395, 42.389064], [-82.924062, 42.389541], [-82.922899, 42.38996], [-82.921967, 42.390296], [-82.920987, 42.390649], [-82.9199022, 42.3910418]]}}, {"type": "Feature", "properties": {"name": "Courville Street", "highway": "residential"}, "geometry": {"type": "LineString", "coordinates": [[-82.931448, 42.391243], [-82.9317007, 42.391628], [-82.932533, 42.392896], [-82.932965, 42.393558], [-82.933598, 42.394524], [-82.934404, 42.395752], [-82.934665, 42.396152], [-82.935733, 42.39778], [-82.935844, 42.39795], [-82.936801, 42.39941], [-82.937865, 42.401039], [-82.9386813, 42.4023404]]}}, {"type": "Feature", "properties": {"name": "Goethe Avenue", "highway": "residential"}, "geometry": {"type": "LineString", "coordinates": [[-82.944809, 42.38647], [-82.9452652, 42.3863013], [-82.945742, 42.386125], [-82.94588, 42.386076], [-82.9460665, 42.3860087]]}}, {"type": "Feature", "properties": {"name": "Three Mile Drive", "highway": "residential"}, "geometry": {"type": "LineString", "coordinates": [[-82.922133, 42.376068], [-82.9221645, 42.3761165], [-82.9225073, 42.376645], [-82.9226389, 42.3768479], [-82.9231276, 42.3776011], [-82.9232226, 42.3777468], [-82.9233638, 42.3779632], [-82.9241099, 42.379107], [-82.924184, 42.3792209], [-82.9249297, 42.3803566], [-82.9254474, 42.381145], [-82.9256485, 42.3814511], [-82.9262907, 42.3824291], [-82.9263878, 42.382577], [-82.9264086, 42.3826087], [-82.9265042, 42.3827543], [-82.927053, 42.38359], [-82.9284019, 42.3856654], [-82.9284516, 42.385742], [-82.9285018, 42.3858187], [-82.929633, 42.387548], [-82.9309101, 42.3895036], [-82.93115, 42.389871], [-82.931931, 42.391061]]}}, {"type": "Feature", "properties": {"name": "Balfour Street", "highway": "residential"}, "geometry": {"type": "LineString", "coordinates": [[-82.931934, 42.3776879], [-82.93414, 42.381046], [-82.9354852, 42.3831211], [-82.9355356, 42.3831989], [-82.9355886, 42.383275], [-82.936722, 42.384998], [-82.9382226, 42.3872991], [-82.939219, 42.388815]]}}, {"type": "Feature", "properties": {"name": "Balfour Road", "highway": "residential"}, "geometry": {"type": "LineString", "coordinates": [[-82.939416, 42.388771], [-82.939596, 42.389023], [-82.9396523, 42.3891095], [-82.940267, 42.390054], [-82.941338, 42.391681], [-82.942408, 42.393309], [-82.94348, 42.394938], [-82.944552, 42.396566], [-82.945622, 42.398193], [-82.946465, 42.3994739], [-82.946729, 42.399875], [-82.9469863, 42.4002671], [-82.947835, 42.40156], [-82.948906, 42.403188], [-82.9498699, 42.404649], [-82.94992, 42.404725], [-82.95004, 42.404908], [-82.9500951, 42.4049919], [-82.951048, 42.406442], [-82.951515, 42.407147]]}}, {"type": "Feature", "properties": {"name": "Somerset Avenue", "highway": "residential"}, "geometry": {"type": "LineString", "coordinates": [[-82.940571, 42.388543], [-82.9408095, 42.3889004], [-82.941321, 42.389667], [-82.942398, 42.391289], [-82.943476, 42.392916], [-82.944556, 42.394542], [-82.945635, 42.396169], [-82.94671, 42.397793], [-82.9475566, 42.399066], [-82.947828, 42.399474], [-82.9480897, 42.3998687], [-82.948942, 42.401154], [-82.950022, 42.402778], [-82.9509852, 42.4042328], [-82.951039, 42.404314], [-82.9511, 42.404405], [-82.95116, 42.404497]]}}, {"type": "Feature", "properties": {"name": "Somerset Avenue", "highway": "residential"}, "geometry": {"type": "LineString", "coordinates": [[-82.9331384, 42.3773233], [-82.933262, 42.377429], [-82.935223, 42.380379], [-82.935365, 42.380603]]}}, {"type": "Feature", "properties": {"name": "Devonshire Road", "highway": "residential"}, "geometry": {"type": "LineString", "coordinates": [[-82.9344115, 42.3901618], [-82.934627, 42.3905061], [-82.935481, 42.391812], [-82.936546, 42.393441], [-82.937612, 42.39507], [-82.938677, 42.3967], [-82.939741, 42.398329], [-82.940805, 42.399959], [-82.941645, 42.4012414], [-82.941908, 42.401643]]}}, {"type": "Feature", "properties": {"name": "Devonshire Road", "highway": "residential"}, "geometry": {"type": "LineString", "coordinates": [[-82.92718, 42.3787059], [-82.929755, 42.382621], [-82.9303123, 42.3834715], [-82.9311037, 42.3846945], [-82.931152, 42.384769], [-82.931204, 42.384848], [-82.93234, 42.386572], [-82.9326205, 42.3870014], [-82.93386, 42.388899], [-82.9342806, 42.3895402], [-82.934634, 42.390079]]}}, {"type": "Feature", "properties": {"name": "Buckingham Avenue", "highway": "residential"}, "geometry": {"type": "LineString", "coordinates": [[-82.936352, 42.389522], [-82.936581, 42.389866], [-82.937392, 42.391111], [-82.938456, 42.392741], [-82.939521, 42.394372], [-82.940588, 42.395998], [-82.941653, 42.397628], [-82.94272, 42.399258], [-82.9435657, 42.4005504], [-82.943822, 42.400942]]}}, {"type": "Feature", "properties": {"name": "Chatsworth Street", "highway": "residential"}, "geometry": {"type": "LineString", "coordinates": [[-82.938343, 42.389016], [-82.9385743, 42.3893707], [-82.93926, 42.390422], [-82.940328, 42.392052], [-82.941391, 42.39368]]}}, {"type": "Feature", "properties": {"name": "Haverhill Street", "highway": "residential"}, "geometry": {"type": "LineString", "coordinates": [[-82.942866, 42.401293], [-82.9426058, 42.400899], [-82.941764, 42.399609], [-82.940699, 42.397979], [-82.939634, 42.396347], [-82.938568, 42.39472], [-82.937504, 42.39309], [-82.936436, 42.391462], [-82.9355982, 42.390177], [-82.9355203, 42.3900576], [-82.93537, 42.389827]]}}, {"type": "Feature", "properties": {"name": "Charlevoix Street", "highway": "residential"}, "geometry": {"type": "LineString", "coordinates": [[-82.929518, 42.390458], [-82.9293548, 42.390519], [-82.9282117, 42.3909467]]}}, {"type": "Feature", "properties": {"name": "Audubon Road", "highway": "residential"}, "geometry": {"type": "LineString", "coordinates": [[-82.922379, 42.3795529], [-82.922428, 42.379597], [-82.925418, 42.384175], [-82.9267653, 42.3862509], [-82.926815, 42.3863274], [-82.9268666, 42.386406], [-82.928001, 42.388131], [-82.929518, 42.390458]]}}, {"type": "Feature", "properties": {"name": "Kensington Avenue", "highway": "residential"}, "geometry": {"type": "LineString", "coordinates": [[-82.927795, 42.392733], [-82.9278862, 42.3928724], [-82.929213, 42.3949], [-82.930651, 42.3971], [-82.9311172, 42.3978246], [-82.9315871, 42.3985547], [-82.9320672, 42.3993009], [-82.9341132, 42.402413], [-82.9349622, 42.4037047], [-82.9351485, 42.4039843], [-82.9352236, 42.404097], [-82.935287, 42.4041919], [-82.9354973, 42.4045063], [-82.936345, 42.405774], [-82.937416, 42.407405], [-82.9383746, 42.4088662], [-82.938423, 42.40894]]}}, {"type": "Feature", "properties": {"name": "Saint Paul Street", "highway": "residential"}, "geometry": {"type": "LineString", "coordinates": [[-82.9412732, 42.3784908], [-82.94085, 42.378635], [-82.9403567, 42.3788098], [-82.9399856, 42.3789458], [-82.939902, 42.3789764], [-82.9398211, 42.3790051], [-82.9391523, 42.3792423], [-82.93849, 42.379482], [-82.937821, 42.3797216], [-82.937337, 42.379895], [-82.9368393, 42.3800717], [-82.936337, 42.38025], [-82.935365, 42.380603], [-82.93414, 42.381046], [-82.93266, 42.381577], [-82.931199, 42.382102], [-82.929755, 42.382621], [-82.928546, 42.383057], [-82.927053, 42.38359], [-82.925418, 42.384175], [-82.9241187, 42.384629], [-82.922819, 42.385106], [-82.921485, 42.385585], [-82.920304, 42.386008], [-82.919372, 42.386342], [-82.918378, 42.386698], [-82.917294, 42.38709], [-82.915518, 42.387726], [-82.91424, 42.388184], [-82.913434, 42.388473], [-82.912459, 42.388822], [-82.911138, 42.389295], [-82.909912, 42.389735], [-82.908795, 42.390135], [-82.907148, 42.390725], [-82.905873, 42.391182], [-82.9050596, 42.3914733], [-82.904583, 42.391644]]}}, {"type": "Feature", "properties": {"name": "Harvard Road", "highway": "residential"}, "geometry": {"type": "LineString", "coordinates": [[-82.91469, 42.3811039], [-82.9148974, 42.3814177], [-82.916852, 42.384375], [-82.918378, 42.386698], [-82.9197382, 42.3887716], [-82.9197863, 42.388845], [-82.9198381, 42.3889228], [-82.920987, 42.390649], [-82.922512, 42.392966], [-82.923243, 42.394082], [-82.923465, 42.394432], [-82.9235535, 42.3945691], [-82.923736, 42.394852], [-82.9237849, 42.3949262], [-82.924816, 42.396489], [-82.926265, 42.398683], [-82.927711, 42.400876], [-82.929772, 42.404006], [-82.9306174, 42.4052879], [-82.9308001, 42.4055649], [-82.930882, 42.405689], [-82.9309805, 42.4058373], [-82.9311489, 42.4060907], [-82.931989, 42.407371], [-82.933063, 42.408997], [-82.9340037, 42.41043], [-82.9340205, 42.4104555], [-82.934072, 42.410534], [-82.934192, 42.410716]]}}, {"type": "Feature", "properties": {"name": "Charlevoix Avenue", "highway": "residential"}, "geometry": {"type": "LineString", "coordinates": [[-82.941461, 42.386169], [-82.940967, 42.386348], [-82.9405863, 42.3864832], [-82.94046, 42.386528], [-82.9403485, 42.3865632], [-82.9394843, 42.3868363], [-82.938367, 42.3872461], [-82.9382226, 42.3872991], [-82.9380396, 42.3873647], [-82.9367518, 42.3878564], [-82.9354672, 42.3883192], [-82.935306, 42.388381], [-82.9351067, 42.3884524], [-82.93386, 42.388899], [-82.9328523, 42.3892568], [-82.932815, 42.38927], [-82.932649, 42.389333], [-82.9325165, 42.3893806], [-82.93115, 42.389871], [-82.9300627, 42.3902621], [-82.9297614, 42.3903704], [-82.9296605, 42.3904067], [-82.929518, 42.390458]]}}, {"type": "Feature", "properties": {"name": "Charlevoix Avenue", "highway": "tertiary"}, "geometry": {"type": "LineString", "coordinates": [[-82.9282117, 42.3909467], [-82.926914, 42.391392], [-82.9257255, 42.3918179], [-82.92558, 42.39187], [-82.9254038, 42.391933], [-82.924425, 42.392283], [-82.9235963, 42.3925793], [-82.923491, 42.392617], [-82.9233824, 42.3926557], [-82.922512, 42.392966], [-82.9215476, 42.3933171], [-82.921427, 42.393361], [-82.92135, 42.3933888], [-82.9212246, 42.3934341], [-82.9205915, 42.3936623], [-82.9205286, 42.393685], [-82.9204654, 42.3937077], [-82.9197644, 42.3939594], [-82.919724, 42.3939737], [-82.9196446, 42.3940017], [-82.919565, 42.3940307], [-82.9195183, 42.3940476], [-82.9188949, 42.3942698], [-82.9184829, 42.3944167], [-82.9183643, 42.394459], [-82.917262, 42.394856], [-82.9167164, 42.3950514], [-82.916589, 42.395097], [-82.9164399, 42.3951502], [-82.915258, 42.395572], [-82.9141594, 42.3959653], [-82.914029, 42.396012], [-82.9138639, 42.3960717], [-82.912915, 42.396415], [-82.9114113, 42.3969537], [-82.911268, 42.397005], [-82.9110748, 42.3970744], [-82.909996, 42.397462], [-82.9087941, 42.3978895], [-82.9087, 42.397923]]}}, {"type": "Feature", "properties": {"name": "Barham Street", "highway": "residential"}, "geometry": {"type": "LineString", "coordinates": [[-82.943353, 42.388047], [-82.9435927, 42.3884053], [-82.944908, 42.390371], [-82.945469, 42.391213], [-82.945991, 42.391994], [-82.947079, 42.39362], [-82.94714, 42.393711], [-82.948163, 42.395241], [-82.948748, 42.396116], [-82.949247, 42.396862], [-82.9500942, 42.3981572], [-82.9503509, 42.3985496], [-82.9506389, 42.3989371], [-82.951492, 42.400219], [-82.952039, 42.401036], [-82.9525641, 42.401849], [-82.9535665, 42.4033077], [-82.95361, 42.403371], [-82.953736, 42.403554], [-82.9537903, 42.403634], [-82.954771, 42.40508], [-82.955471, 42.40612]]}}, {"type": "Feature", "properties": {"name": "East Jefferson Avenue", "highway": "secondary"}, "geometry": {"type": "LineString", "coordinates": [[-82.933855, 42.3771829], [-82.9338706, 42.3771779], [-82.934319, 42.3770339], [-82.9345659, 42.3769519], [-82.9352672, 42.3767191], [-82.9353313, 42.3766959], [-82.9358286, 42.3765158], [-82.9363424, 42.3762899]]}}, {"type": "Feature", "properties": {"name": "East Jefferson Avenue", "highway": "secondary"}, "geometry": {"type": "LineString", "coordinates": [[-82.924184, 42.3792209], [-82.923249, 42.3793929], [-82.922379, 42.3795529], [-82.92094, 42.3798029], [-82.9201976, 42.3799293], [-82.919906, 42.3799789], [-82.919517, 42.3800499], [-82.918876, 42.3801609], [-82.918513, 42.3802229], [-82.918037, 42.3803059], [-82.917706, 42.3803639], [-82.916522, 42.3805759], [-82.916235, 42.3806249], [-82.915609, 42.3807449], [-82.915542, 42.3807639], [-82.915477, 42.3807819], [-82.9154258, 42.3808029], [-82.9151355, 42.3809218], [-82.915101, 42.3809359], [-82.91469, 42.3811039], [-82.9143184, 42.3812574], [-82.9142332, 42.3812929], [-82.913632, 42.3815419], [-82.913364, 42.3816499], [-82.912982, 42.3818129], [-82.9125035, 42.382007], [-82.912309, 42.3820859], [-82.911901, 42.3822489], [-82.911402, 42.3824518], [-82.910648, 42.3827588], [-82.910538, 42.3828038], [-82.9096783, 42.383145], [-82.9095179, 42.383213], [-82.908925, 42.3834638], [-82.908745, 42.3835378], [-82.907649, 42.3839868]]}}, {"type": "Feature", "properties": {"name": "Mack Avenue", "highway": "secondary"}, "geometry": {"type": "LineString", "coordinates": [[-82.9471796, 42.3873832], [-82.9470914, 42.3873966], [-82.9466352, 42.3874658]]}}, {"type": "Feature", "properties": {"name": "East Jefferson Avenue", "highway": "secondary"}, "geometry": {"type": "LineString", "coordinates": [[-82.9384259, 42.3754238], [-82.938574, 42.3753609], [-82.9386289, 42.3752363]]}}, {"type": "Feature", "properties": {"name": "Wayburn Street", "highway": "residential"}, "geometry": {"type": "LineString", "coordinates": [[-82.93949, 42.376575], [-82.939548, 42.376666], [-82.94085, 42.378635]]}}, {"type": "Feature", "properties": {"name": "Maryland Street", "highway": "residential"}, "geometry": {"type": "LineString", "coordinates": [[-82.9413278, 42.3811138], [-82.9413716, 42.3811801], [-82.9415669, 42.3814913], [-82.9424482, 42.3828206], [-82.9425142, 42.3829264], [-82.943257, 42.384028], [-82.944024, 42.385247]]}}, {"type": "Feature", "properties": {"name": "Kercheval Street", "highway": "tertiary"}, "geometry": {"type": "LineString", "coordinates": [[-82.9413278, 42.3811138], [-82.9412539, 42.3811405], [-82.9406022, 42.3813757], [-82.939981, 42.3816007], [-82.9398929, 42.3816326], [-82.9398083, 42.3816632], [-82.9388274, 42.3820178], [-82.9387426, 42.3820484], [-82.9386575, 42.3820786], [-82.9378687, 42.3823577], [-82.9378088, 42.3823792], [-82.937748, 42.382401]]}}, {"type": "Feature", "properties": {"name": "East Jefferson Avenue", "highway": "secondary"}, "geometry": {"type": "LineString", "coordinates": [[-82.937645, 42.375561], [-82.9375412, 42.375605], [-82.937305, 42.375705], [-82.9367815, 42.3759309], [-82.9362221, 42.3761813]]}}, {"type": "Feature", "properties": {"name": "East Jefferson Avenue", "highway": "secondary"}, "geometry": {"type": "LineString", "coordinates": [[-82.937755, 42.3757089], [-82.9378306, 42.3756768], [-82.9380206, 42.3755961], [-82.9383024, 42.3754763]]}}, {"type": "Feature", "properties": {"name": "Maryland Street", "highway": "residential"}, "geometry": {"type": "LineString", "coordinates": [[-82.944024, 42.385247], [-82.9442265, 42.3855625], [-82.9447732, 42.3864142], [-82.944809, 42.38647], [-82.944865, 42.386552], [-82.9453736, 42.3872965], [-82.945501, 42.387483], [-82.945602, 42.387648], [-82.945684, 42.387781], [-82.9458388, 42.3880077], [-82.946448, 42.3889], [-82.947496, 42.390468], [-82.9491358, 42.3929804], [-82.950739, 42.3953898], [-82.9521231, 42.397405], [-82.952385, 42.397798]]}}, {"type": "Feature", "properties": {"name": "Charlevoix Street", "highway": "residential"}, "geometry": {"type": "LineString", "coordinates": [[-82.944024, 42.385247], [-82.9432669, 42.3855198], [-82.9427849, 42.3856934], [-82.942611, 42.385756], [-82.9424355, 42.385819], [-82.9419522, 42.3859926], [-82.941461, 42.386169]]}}, {"type": "Feature", "properties": {"name": "East Jefferson Avenue", "highway": "secondary"}, "geometry": {"type": "LineString", "coordinates": [[-82.9362221, 42.3761813], [-82.9357838, 42.3763546], [-82.9356855, 42.3763935], [-82.9352446, 42.3765585], [-82.9351688, 42.3765869], [-82.9350032, 42.376641], [-82.934712, 42.3767362], [-82.9342139, 42.3768989], [-82.9337702, 42.3770429]]}}, {"type": "Feature", "properties": {"name": "East Jefferson Avenue", "highway": "secondary"}, "geometry": {"type": "LineString", "coordinates": [[-82.9363424, 42.3762899], [-82.9370788, 42.3759908], [-82.937411, 42.3758559], [-82.937755, 42.3757089]]}}, {"type": "Feature", "properties": {"name": "Maryland Street", "highway": "residential"}, "geometry": {"type": "LineString", "coordinates": [[-82.9385432, 42.3769145], [-82.9386364, 42.377063], [-82.9398073, 42.3788293], [-82.9398127, 42.3788373], [-82.9398635, 42.3789165], [-82.939902, 42.3789764], [-82.9399443, 42.3790403], [-82.9409504, 42.3805597], [-82.94108, 42.3807537], [-82.9411312, 42.3808135], [-82.9412863, 42.3810464], [-82.9413278, 42.3811138]]}}, {"type": "Feature", "properties": {"name": "East Jefferson Avenue", "highway": "secondary"}, "geometry": {"type": "LineString", "coordinates": [[-82.9389393, 42.3751166], [-82.9387881, 42.3751754], [-82.9386289, 42.3752363]]}}, {"type": "Feature", "properties": {"name": "Mack Avenue", "highway": "secondary"}, "geometry": {"type": "LineString", "coordinates": [[-82.92313, 42.3945567], [-82.9230431, 42.3945891], [-82.9229093, 42.3946389], [-82.9225265, 42.3947815], [-82.922399, 42.394829]]}}, {"type": "Feature", "properties": {"name": "Charlevoix Street", "highway": "residential"}, "geometry": {"type": "LineString", "coordinates": [[-82.9459081, 42.3845713], [-82.945441, 42.384737], [-82.945198, 42.384824], [-82.944966, 42.384909], [-82.9445061, 42.385074], [-82.944024, 42.385247]]}}, {"type": "Feature", "properties": {"name": "Nottingham Road", "highway": "residential"}, "geometry": {"type": "LineString", "coordinates": [[-82.9389333, 42.384211], [-82.937809, 42.3824942], [-82.937748, 42.382401]]}}, {"type": "Feature", "properties": {"name": "Nottingham Road", "highway": "residential"}, "geometry": {"type": "LineString", "coordinates": [[-82.937748, 42.382401], [-82.9376994, 42.3823269], [-82.936337, 42.38025], [-82.934763, 42.37785], [-82.934739, 42.377783], [-82.9347428, 42.3776941]]}}, {"type": "Feature", "properties": {"name": "3 Mile Drive", "highway": "residential"}, "geometry": {"type": "LineString", "coordinates": [[-82.939965, 42.402357], [-82.9397097, 42.4019678], [-82.938861, 42.400674], [-82.937795, 42.399044], [-82.936728, 42.397417], [-82.935661, 42.395788], [-82.934593, 42.394158], [-82.933527, 42.39253], [-82.9326899, 42.3912509], [-82.93244, 42.390869]]}}, {"type": "Feature", "properties": {"name": "Bedford Street", "highway": "residential"}, "geometry": {"type": "LineString", "coordinates": [[-82.933431, 42.390501], [-82.933663, 42.3908557], [-82.934526, 42.392163], [-82.935591, 42.393792], [-82.936657, 42.395421], [-82.937721, 42.39705], [-82.938786, 42.398679], [-82.939851, 42.400309], [-82.9407012, 42.4016027], [-82.940957, 42.401992]]}}, {"type": "Feature", "properties": {"name": "East Outer Drive", "highway": "tertiary"}, "geometry": {"type": "LineString", "coordinates": [[-82.929055, 42.392215], [-82.9289993, 42.3924143], [-82.929717, 42.393462], [-82.930383, 42.39448], [-82.93111, 42.395594], [-82.93182, 42.396677], [-82.932532, 42.397764], [-82.933254, 42.39887], [-82.933955, 42.399939], [-82.934694, 42.401069], [-82.935294, 42.401982], [-82.935791, 42.40274]]}}, {"type": "Feature", "properties": {"name": "Bedford Road", "highway": "residential"}, "geometry": {"type": "LineString", "coordinates": [[-82.925896, 42.3789099], [-82.9263538, 42.3796264]]}}, {"type": "Feature", "properties": {"name": "East Jefferson Avenue", "highway": "secondary"}, "geometry": {"type": "LineString", "coordinates": [[-82.925896, 42.3789099], [-82.924184, 42.3792209]]}}, {"type": "Feature", "properties": {"name": "Bedford Road", "highway": "residential"}, "geometry": {"type": "LineString", "coordinates": [[-82.9252498, 42.377915], [-82.9258166, 42.3787876], [-82.925896, 42.3789099]]}}, {"type": "Feature", "properties": {"name": "Bedford Road", "highway": "residential"}, "geometry": {"type": "LineString", "coordinates": [[-82.9263538, 42.3796264], [-82.928546, 42.383057], [-82.9298898, 42.3851277], [-82.929939, 42.3852035], [-82.9299868, 42.385281], [-82.931126, 42.387009], [-82.932649, 42.389333], [-82.933431, 42.390501]]}}, {"type": "Feature", "properties": {"name": "East Jefferson Avenue", "highway": "secondary"}, "geometry": {"type": "LineString", "coordinates": [[-82.92718, 42.3787059], [-82.925896, 42.3789099]]}}, {"type": "Feature", "properties": {"name": "East Jefferson Avenue", "highway": "secondary"}, "geometry": {"type": "LineString", "coordinates": [[-82.931088, 42.3779409], [-82.930838, 42.3780059], [-82.930387, 42.3781149], [-82.930071, 42.3781909], [-82.929621, 42.3782989], [-82.928799, 42.3784459], [-82.928526, 42.3784899], [-82.92718, 42.3787059]]}}, {"type": "Feature", "properties": {"name": "East Jefferson Avenue", "highway": "secondary"}, "geometry": {"type": "LineString", "coordinates": [[-82.9331384, 42.3773233], [-82.9329877, 42.3773689], [-82.931934, 42.3776879], [-82.931577, 42.3777959], [-82.931088, 42.3779409]]}}, {"type": "Feature", "properties": {"name": "Mack Avenue", "highway": "secondary"}, "geometry": {"type": "LineString", "coordinates": [[-82.933431, 42.390501], [-82.9334079, 42.3905096], [-82.93244, 42.390869], [-82.931931, 42.391061], [-82.9318485, 42.3910921], [-82.9317095, 42.3911445], [-82.931448, 42.391243], [-82.9308888, 42.3914651], [-82.9305359, 42.3916052], [-82.930325, 42.391689]]}}, {"type": "Feature", "properties": {"name": "Mack Avenue", "highway": "secondary"}, "geometry": {"type": "LineString", "coordinates": [[-82.929055, 42.392215], [-82.9284118, 42.3924794], [-82.927795, 42.392733], [-82.9275963, 42.3928141], [-82.927261, 42.392951], [-82.926961, 42.3930685], [-82.926671, 42.393182], [-82.926482, 42.393256], [-82.925692, 42.393564], [-82.925353, 42.393696], [-82.9248997, 42.3938729], [-82.92462, 42.393982], [-82.924583, 42.3939972], [-82.924442, 42.394055], [-82.9237102, 42.3943374], [-82.923465, 42.394432], [-82.9232384, 42.3945164], [-82.92313, 42.3945567]]}}, {"type": "Feature", "properties": {"name": "East Jefferson Avenue", "highway": "secondary"}, "geometry": {"type": "LineString", "coordinates": [[-82.938405, 42.3752574], [-82.9382106, 42.3753309], [-82.9379488, 42.3754374], [-82.9377382, 42.3755231], [-82.937645, 42.375561]]}}, {"type": "Feature", "properties": {"name": "East Jefferson Avenue", "highway": "secondary"}, "geometry": {"type": "LineString", "coordinates": [[-82.9331384, 42.3773233], [-82.9333402, 42.3773203], [-82.933855, 42.3771829]]}}, {"type": "Feature", "properties": {"name": "East Jefferson Avenue", "highway": "secondary"}, "geometry": {"type": "LineString", "coordinates": [[-82.9337702, 42.3770429], [-82.9336898, 42.3770693], [-82.9332811, 42.3772038], [-82.9331384, 42.3773233]]}}, {"type": "Feature", "properties": {"name": "Wayburn Street", "highway": "residential"}, "geometry": {"type": "LineString", "coordinates": [[-82.9388765, 42.3756583], [-82.9391163, 42.3760213]]}}, {"type": "Feature", "properties": {"name": "Maryland Street", "highway": "residential"}, "geometry": {"type": "LineString", "coordinates": [[-82.938006, 42.3760856], [-82.9384658, 42.376795], [-82.9385069, 42.3768584], [-82.9385432, 42.3769145]]}}, {"type": "Feature", "properties": {"name": "Hampton Street", "highway": "residential"}, "geometry": {"type": "LineString", "coordinates": [[-82.93949, 42.376575], [-82.9390168, 42.3767454], [-82.9386222, 42.3768876], [-82.9385432, 42.3769145]]}}, {"type": "Feature", "properties": {"name": "Mack Avenue", "highway": "secondary"}, "geometry": {"type": "LineString", "coordinates": [[-82.930325, 42.391689], [-82.9301938, 42.3917434], [-82.9297029, 42.3919467], [-82.9296672, 42.3919615], [-82.929055, 42.392215]]}}, {"type": "Feature", "properties": {"name": "Audubon Road", "highway": "residential"}, "geometry": {"type": "LineString", "coordinates": [[-82.930325, 42.391689], [-82.93181, 42.393967], [-82.933249, 42.396163], [-82.9334877, 42.3965271], [-82.934688, 42.398358], [-82.93672, 42.40146], [-82.9375637, 42.4027442], [-82.9377536, 42.4030334], [-82.937825, 42.403142]]}}, {"type": "Feature", "properties": {"name": "Kercheval Street", "highway": "tertiary"}, "geometry": {"type": "LineString", "coordinates": [[-82.9355356, 42.3831989], [-82.9354138, 42.3832424], [-82.9342546, 42.3836555], [-82.9341846, 42.383681], [-82.9340586, 42.383727], [-82.9339344, 42.3837709], [-82.9338944, 42.383785], [-82.9327208, 42.3842073], [-82.9325966, 42.384252], [-82.9324756, 42.3842952], [-82.9313647, 42.3846919], [-82.9312743, 42.3847247], [-82.931152, 42.384769], [-82.9310285, 42.3848124], [-82.9309868, 42.3848271], [-82.9300068, 42.3851791], [-82.929939, 42.3852035], [-82.9298737, 42.385227], [-82.9286366, 42.385674], [-82.9286053, 42.3856855], [-82.9284516, 42.385742], [-82.9282955, 42.385797], [-82.9282851, 42.3858007], [-82.926903, 42.3862959], [-82.926815, 42.3863274], [-82.9267307, 42.3863579], [-82.9256905, 42.3867345], [-82.9256316, 42.3867557], [-82.9255087, 42.3867999], [-82.9253933, 42.3868406], [-82.9242853, 42.3872315], [-82.9242116, 42.3872575], [-82.9241359, 42.3872846], [-82.9230489, 42.3876741], [-82.9230022, 42.3876907], [-82.922879, 42.3877345], [-82.9227519, 42.3877805], [-82.9226864, 42.3878043], [-82.921775, 42.3881329], [-82.9217083, 42.388157], [-82.9216413, 42.3881809], [-82.9210033, 42.3884085], [-82.9208424, 42.388466], [-82.9207766, 42.3884895], [-82.9207081, 42.3885143], [-82.9206127, 42.3885488], [-82.9198578, 42.3888194], [-82.9197863, 42.388845], [-82.9197165, 42.3888701], [-82.9189446, 42.3891472], [-82.9187785, 42.3892066], [-82.918705, 42.389233]]}}, {"type": "Feature", "properties": {"name": "Whittier Road", "highway": "residential"}, "geometry": {"type": "LineString", "coordinates": [[-82.92094, 42.3798029], [-82.9241187, 42.384629], [-82.9254576, 42.3867201], [-82.9255087, 42.3867999]]}}, {"type": "Feature", "properties": {"name": "Whittier Road", "highway": "residential"}, "geometry": {"type": "LineString", "coordinates": [[-82.9255087, 42.3867999], [-82.9255574, 42.3868734], [-82.9267017, 42.3885992], [-82.9282117, 42.3909467]]}}, {"type": "Feature", "properties": {"name": "Whittier Road", "highway": "residential"}, "geometry": {"type": "LineString", "coordinates": [[-82.9282117, 42.3909467], [-82.9283312, 42.3911264], [-82.9284373, 42.391286], [-82.9287086, 42.3916941], [-82.9288249, 42.391869], [-82.929055, 42.392215]]}}, {"type": "Feature", "properties": {"name": "Wayburn Street", "highway": "residential"}, "geometry": {"type": "LineString", "coordinates": [[-82.9434545, 42.3825845], [-82.9447029, 42.3844749], [-82.944966, 42.384909], [-82.9453613, 42.3855285], [-82.945742, 42.386125], [-82.9464106, 42.3871212], [-82.9465244, 42.3873063]]}}, {"type": "Feature", "properties": {"name": "Kercheval Street", "highway": "tertiary"}, "geometry": {"type": "LineString", "coordinates": [[-82.9420656, 42.3808493], [-82.9414075, 42.3810852], [-82.9413278, 42.3811138]]}}, {"type": "Feature", "properties": {"name": "Kercheval Street", "highway": "tertiary"}, "geometry": {"type": "LineString", "coordinates": [[-82.937748, 42.382401], [-82.9376739, 42.3824276], [-82.9375839, 42.3824599], [-82.9372262, 42.3825882], [-82.9369148, 42.3826999], [-82.9368103, 42.3827374], [-82.936704, 42.3827756], [-82.9363228, 42.3829124], [-82.9356624, 42.3831528], [-82.9355356, 42.3831989]]}}, {"type": "Feature", "properties": {"name": "East Jefferson Avenue", "highway": "secondary"}, "geometry": {"type": "LineString", "coordinates": [[-82.9383024, 42.3754763], [-82.9384259, 42.3754238]]}}, {"type": "Feature", "properties": {"name": "Wayburn Street", "highway": "residential"}, "geometry": {"type": "LineString", "coordinates": [[-82.9466352, 42.3874658], [-82.946891, 42.3878311], [-82.948452, 42.39012], [-82.9500947, 42.3926242], [-82.9517183, 42.3950362], [-82.953073, 42.3970485], [-82.953337, 42.397445]]}}, {"type": "Feature", "properties": {"name": "Mack Avenue", "highway": "secondary"}, "geometry": {"type": "LineString", "coordinates": [[-82.9466352, 42.3874658], [-82.94647, 42.387495], [-82.945602, 42.387648], [-82.944473, 42.387847], [-82.944039, 42.387925], [-82.943812, 42.3879654], [-82.943353, 42.388047], [-82.9432517, 42.388065], [-82.9429071, 42.3881261], [-82.9427837, 42.388148], [-82.9427109, 42.3881599], [-82.9426082, 42.3881789], [-82.94221, 42.388247], [-82.9419634, 42.3882906], [-82.941662, 42.388344], [-82.9408727, 42.3884817], [-82.9408563, 42.3884849], [-82.9406664, 42.3885216], [-82.940571, 42.388543], [-82.9403494, 42.3885853], [-82.939603, 42.388728], [-82.939416, 42.388771], [-82.939219, 42.388815], [-82.9390371, 42.3888567], [-82.938343, 42.389016], [-82.937643, 42.389182], [-82.9374252, 42.3892353], [-82.9373473, 42.3892543], [-82.937205, 42.389288], [-82.936352, 42.389522], [-82.9361, 42.389596], [-82.9359671, 42.3896374], [-82.9356605, 42.3897329], [-82.935503, 42.389782], [-82.93537, 42.389827], [-82.934634, 42.390079], [-82.9344115, 42.3901618], [-82.9343172, 42.3901944], [-82.933735, 42.3903958], [-82.933431, 42.390501]]}}, {"type": "Feature", "properties": {"name": "Somerset Avenue", "highway": "residential"}, "geometry": {"type": "LineString", "coordinates": [[-82.937962, 42.384553], [-82.9394843, 42.3868363], [-82.940352, 42.388189]]}}, {"type": "Feature", "properties": {"name": "Kercheval Street", "highway": "tertiary"}, "geometry": {"type": "LineString", "coordinates": [[-82.9422124, 42.3807977], [-82.9422253, 42.3808139], [-82.9422439, 42.3808268], [-82.9422536, 42.3808312], [-82.9422785, 42.3808377], [-82.9423049, 42.3808386], [-82.9423305, 42.3808339], [-82.9423531, 42.3808239], [-82.9423709, 42.3808094], [-82.9423784, 42.3807993], [-82.942386, 42.3807768], [-82.9423827, 42.3807538], [-82.9423689, 42.3807331], [-82.9423464, 42.380717], [-82.9423246, 42.380709], [-82.9423007, 42.3807057], [-82.9422766, 42.3807071], [-82.9422538, 42.3807132], [-82.9422341, 42.3807236], [-82.9422188, 42.3807374], [-82.9422091, 42.3807538], [-82.9422069, 42.3807606], [-82.9422061, 42.3807794], [-82.9422124, 42.3807977]]}}, {"type": "Feature", "properties": {"name": "Kercheval Street", "highway": "tertiary"}, "geometry": {"type": "LineString", "coordinates": [[-82.9422069, 42.3807606], [-82.942188, 42.380776], [-82.9421719, 42.3807863], [-82.9421536, 42.3807943], [-82.9421334, 42.3808033], [-82.9420864, 42.3808312], [-82.9420656, 42.3808493]]}}, {"type": "Feature", "properties": {"name": "Kercheval Street", "highway": "tertiary"}, "geometry": {"type": "LineString", "coordinates": [[-82.9420656, 42.3808493], [-82.9421087, 42.3808454], [-82.9421495, 42.3808449], [-82.9421822, 42.3808385], [-82.942195, 42.3808358], [-82.9422439, 42.3808268]]}}, {"type": "Feature", "properties": {"name": "Wayburn Street", "highway": "residential"}, "geometry": {"type": "LineString", "coordinates": [[-82.9421357, 42.3806104], [-82.9421441, 42.3806457], [-82.9421626, 42.3806901], [-82.9421669, 42.3806973], [-82.9421815, 42.3807166], [-82.9422001, 42.38074], [-82.9422091, 42.3807538]]}}, {"type": "Feature", "properties": {"name": "Wayburn Street", "highway": "residential"}, "geometry": {"type": "LineString", "coordinates": [[-82.9422536, 42.3808312], [-82.942282, 42.3808528], [-82.9422962, 42.3808698], [-82.942302, 42.3808767], [-82.9423205, 42.3809052], [-82.9423521, 42.3809444], [-82.9423726, 42.3809612]]}}, {"type": "Feature", "properties": {"name": "Wayburn Street", "highway": "residential"}, "geometry": {"type": "LineString", "coordinates": [[-82.9423726, 42.3809612], [-82.942366, 42.3809308], [-82.9423644, 42.3808927], [-82.9423567, 42.3808625], [-82.9423563, 42.3808471], [-82.942356, 42.3808369], [-82.9423709, 42.3808094]]}}, {"type": "Feature", "properties": {"name": "Kercheval Street", "highway": "tertiary"}, "geometry": {"type": "LineString", "coordinates": [[-82.9423784, 42.3807993], [-82.9423948, 42.3807813], [-82.9424162, 42.3807684], [-82.9424504, 42.3807496], [-82.9424886, 42.3807303], [-82.9425127, 42.3807114]]}}, {"type": "Feature", "properties": {"name": "Kercheval Street", "highway": "tertiary"}, "geometry": {"type": "LineString", "coordinates": [[-82.9425127, 42.3807114], [-82.9424305, 42.3807178], [-82.9423866, 42.3807217], [-82.9423464, 42.380717]]}}, {"type": "Feature", "properties": {"name": "Wayburn Street", "highway": "residential"}, "geometry": {"type": "LineString", "coordinates": [[-82.9423007, 42.3807057], [-82.9422733, 42.3807006], [-82.9422377, 42.3806863], [-82.942221, 42.3806749], [-82.9422129, 42.3806694], [-82.9421915, 42.3806496], [-82.9421653, 42.3806268], [-82.9421357, 42.3806104]]}}, {"type": "Feature", "properties": {"name": "Cadieux Road", "highway": "tertiary"}, "geometry": {"type": "LineString", "coordinates": [[-82.922399, 42.394829], [-82.9225037, 42.3949884], [-82.9226414, 42.395198], [-82.922767, 42.3953891]]}}, {"type": "Feature", "properties": {"name": "Maryland Street", "highway": "residential"}, "geometry": {"type": "LineString", "coordinates": [[-82.9379366, 42.3759818], [-82.938006, 42.3760856]]}}, {"type": "Feature", "properties": {"name": "Maryland Street", "highway": "residential"}, "geometry": {"type": "LineString", "coordinates": [[-82.937755, 42.3757089], [-82.9377943, 42.3757669], [-82.9379366, 42.3759818]]}}, {"type": "Feature", "properties": {"name": "Kensington Avenue", "highway": "residential"}, "geometry": {"type": "LineString", "coordinates": [[-82.919517, 42.3800499], [-82.9197903, 42.3804675], [-82.9213, 42.382774], [-82.9225324, 42.3846661], [-82.922819, 42.385106], [-82.9241646, 42.3871847], [-82.9242116, 42.3872575], [-82.9242636, 42.3873368], [-82.925395, 42.389064], [-82.926914, 42.391392], [-82.927795, 42.392733]]}}, {"type": "Feature", "properties": {"name": "Wayburn Street", "highway": "residential"}, "geometry": {"type": "LineString", "coordinates": [[-82.94085, 42.378635], [-82.9420106, 42.380404], [-82.9420141, 42.3804096], [-82.9420576, 42.3804799], [-82.9421357, 42.3806104]]}}, {"type": "Feature", "properties": {"name": "Wayburn Street", "highway": "residential"}, "geometry": {"type": "LineString", "coordinates": [[-82.9423726, 42.3809612], [-82.9424926, 42.3811483], [-82.9434545, 42.3825845]]}}, {"type": "Feature", "properties": {"name": "Maumee Street", "highway": "residential"}, "geometry": {"type": "LineString", "coordinates": [[-82.9213, 42.382774], [-82.919969, 42.383253], [-82.918663, 42.383721], [-82.916852, 42.384375], [-82.915763, 42.384765], [-82.91399, 42.385408], [-82.912714, 42.385871], [-82.9119355, 42.3861502], [-82.9115474, 42.3862894], [-82.910938, 42.386508], [-82.909616, 42.386983], [-82.908394, 42.38742], [-82.907276, 42.387821], [-82.906448, 42.38812], [-82.905566, 42.388435], [-82.904356, 42.388871], [-82.9035459, 42.3891674], [-82.9030867, 42.3893476]]}}, {"type": "Feature", "properties": {"name": "Grand Marais Street", "highway": "residential"}, "geometry": {"type": "LineString", "coordinates": [[-82.9192592, 42.3747932], [-82.9194728, 42.375118], [-82.9204444, 42.3765957], [-82.920486, 42.376659], [-82.9205194, 42.37671], [-82.9223064, 42.3794434], [-82.922331, 42.379481], [-82.922379, 42.3795529]]}}, {"type": "Feature", "properties": {"name": "Whittier Road", "highway": "residential"}, "geometry": {"type": "LineString", "coordinates": [[-82.918894, 42.376649], [-82.919202, 42.377123], [-82.9208604, 42.3796802], [-82.92094, 42.3798029]]}}, {"type": "Feature", "properties": {"name": "Cadieux Road", "highway": "tertiary"}, "geometry": {"type": "LineString", "coordinates": [[-82.913632, 42.3815419], [-82.9150344, 42.3836579], [-82.915065, 42.383704], [-82.9152674, 42.3840117], [-82.915763, 42.384765], [-82.9159786, 42.3850921], [-82.9160793, 42.3852447], [-82.916272, 42.385537], [-82.916765, 42.386285], [-82.917294, 42.38709], [-82.9176849, 42.387696], [-82.917919, 42.388059], [-82.9180701, 42.3882774], [-82.9182967, 42.3886241], [-82.9184018, 42.3887882], [-82.9186099, 42.3890886], [-82.9186534, 42.3891547], [-82.918705, 42.389233]]}}, {"type": "Feature", "properties": {"name": "Bishop Road", "highway": "residential"}, "geometry": {"type": "LineString", "coordinates": [[-82.9150536, 42.3782782], [-82.915182, 42.378465], [-82.915651, 42.379174], [-82.916449, 42.380336], [-82.9164953, 42.3804482], [-82.916515, 42.380496], [-82.916522, 42.3805759], [-82.9165161, 42.380804], [-82.9166234, 42.3811746], [-82.91678, 42.3814911], [-82.9169344, 42.3817581], [-82.9171198, 42.3820327], [-82.917315, 42.3822769], [-82.9176612, 42.3826356], [-82.9180433, 42.3830025]]}}, {"type": "Feature", "properties": {"name": "Bishop Road", "highway": "residential"}, "geometry": {"type": "LineString", "coordinates": [[-82.9176612, 42.3826356], [-82.917676, 42.382701], [-82.917663, 42.382749], [-82.917589, 42.382893], [-82.917542, 42.382965]]}}, {"type": "Feature", "properties": {"name": "Bishop Road", "highway": "residential"}, "geometry": {"type": "LineString", "coordinates": [[-82.9184551, 42.384783], [-82.918586, 42.384729], [-82.918761, 42.384661], [-82.918912, 42.384583]]}}, {"type": "Feature", "properties": {"name": "Bishop Road", "highway": "residential"}, "geometry": {"type": "LineString", "coordinates": [[-82.915651, 42.379174], [-82.914699, 42.379519]]}}, {"type": "Feature", "properties": {"name": "Bishop Road", "highway": "residential"}, "geometry": {"type": "LineString", "coordinates": [[-82.915182, 42.378465], [-82.9145181, 42.3787184]]}}, {"type": "Feature", "properties": {"name": "Ellair Place", "highway": "residential"}, "geometry": {"type": "LineString", "coordinates": [[-82.9162911, 42.3782055], [-82.917638, 42.380228], [-82.9176484, 42.3802487], [-82.917706, 42.3803639]]}}, {"type": "Feature", "properties": {"name": "Waterloo Street", "highway": "residential"}, "geometry": {"type": "LineString", "coordinates": [[-82.9199022, 42.3910418], [-82.9198228, 42.3910702], [-82.9189994, 42.3913649]]}}, {"type": "Feature", "properties": {"name": "Cranford Lane", "highway": "residential"}, "geometry": {"type": "LineString", "coordinates": [[-82.916272, 42.385537], [-82.914498, 42.386178]]}}, {"type": "Feature", "properties": {"name": "Bishop Lane", "highway": "residential"}, "geometry": {"type": "LineString", "coordinates": [[-82.9151746, 42.3800642], [-82.915183, 42.380165], [-82.915217, 42.380227], [-82.9154695, 42.3806442], [-82.915542, 42.3807639]]}}, {"type": "Feature", "properties": {"name": "Edgemont Park", "highway": "residential"}, "geometry": {"type": "LineString", "coordinates": [[-82.917038, 42.377361], [-82.9188015, 42.3800474], [-82.918876, 42.3801609]]}}, {"type": "Feature", "properties": {"name": "Park Lane", "highway": "residential"}, "geometry": {"type": "LineString", "coordinates": [[-82.9180966, 42.3769844], [-82.9179288, 42.3770416], [-82.917787, 42.3770898]]}}, {"type": "Feature", "properties": {"name": "Park Lane", "highway": "residential"}, "geometry": {"type": "LineString", "coordinates": [[-82.9179288, 42.3770416], [-82.9181499, 42.377376], [-82.9183453, 42.377697], [-82.9184559, 42.3778899], [-82.918604, 42.3780937], [-82.9187924, 42.3783408], [-82.918901, 42.3785129], [-82.9190364, 42.3787246], [-82.9192731, 42.3791502], [-82.9194346, 42.3793889], [-82.9195544, 42.3795227], [-82.9196717, 42.379658], [-82.9197724, 42.3797665], [-82.9198453, 42.3798614], [-82.919906, 42.3799789]]}}, {"type": "Feature", "properties": {"name": "Village Lane", "highway": "residential"}, "geometry": {"type": "LineString", "coordinates": [[-82.914998, 42.386937], [-82.916765, 42.386285]]}}, {"type": "Feature", "properties": {"name": "Whittier Avenue", "highway": "residential"}, "geometry": {"type": "LineString", "coordinates": [[-82.919264, 42.376516], [-82.918894, 42.376649], [-82.9188825, 42.3766532], [-82.918539, 42.376778]]}}, {"type": "Feature", "properties": {"name": "Jefferson Court", "highway": "residential"}, "geometry": {"type": "LineString", "coordinates": [[-82.915101, 42.3809359], [-82.9150231, 42.380818], [-82.914992, 42.380771], [-82.914326, 42.379734], [-82.914238, 42.379596], [-82.914156, 42.379501], [-82.914117, 42.3795], [-82.914048, 42.379509], [-82.913642, 42.379617], [-82.913592, 42.379633], [-82.913553, 42.379652], [-82.9135012, 42.379702], [-82.913439, 42.379762], [-82.913416, 42.3798], [-82.913405, 42.379838], [-82.913413, 42.379894], [-82.913686, 42.380286], [-82.9142058, 42.3810944], [-82.9142378, 42.3811441], [-82.9143184, 42.3812574]]}}, {"type": "Feature", "properties": {"name": "Mack Avenue", "highway": "secondary"}, "geometry": {"type": "LineString", "coordinates": [[-82.922399, 42.394829], [-82.9220865, 42.3950154]]}}, {"type": "Feature", "properties": {"name": "Cadieux Road", "highway": "tertiary"}, "geometry": {"type": "LineString", "coordinates": [[-82.918705, 42.389233], [-82.9187586, 42.3893166], [-82.9188643, 42.3894815], [-82.9189455, 42.3896007], [-82.9199022, 42.3910418], [-82.921427, 42.393361], [-82.9221148, 42.3944074], [-82.9221699, 42.3944912], [-82.9223222, 42.394715], [-82.922399, 42.394829]]}}, {"type": "Feature", "properties": {"name": "Bishop Road", "highway": "residential"}, "geometry": {"type": "LineString", "coordinates": [[-82.917542, 42.382965], [-82.917659, 42.3829617], [-82.9178284, 42.3829666], [-82.9180433, 42.3830025]]}}, {"type": "Feature", "properties": {"name": "Bishop Road", "highway": "residential"}, "geometry": {"type": "LineString", "coordinates": [[-82.9171921, 42.3831121], [-82.917542, 42.382965]]}}, {"type": "Feature", "properties": {"name": "Bishop Road", "highway": "residential"}, "geometry": {"type": "LineString", "coordinates": [[-82.918912, 42.384583], [-82.9192139, 42.384547]]}}, {"type": "Feature", "properties": {"name": "Bishop Road", "highway": "residential"}, "geometry": {"type": "LineString", "coordinates": [[-82.919128, 42.384413], [-82.918912, 42.384583]]}}, {"type": "Feature", "properties": {"name": "Kercheval Avenue", "highway": "tertiary"}, "geometry": {"type": "LineString", "coordinates": [[-82.918705, 42.389233], [-82.9186085, 42.3892677], [-82.9185152, 42.3893013], [-82.9171625, 42.3897873], [-82.9170643, 42.3898226], [-82.916949, 42.389864], [-82.916677, 42.3899617], [-82.915654, 42.390329]]}}, {"type": "Feature", "properties": {"name": "Kercheval Place", "highway": "residential"}, "geometry": {"type": "LineString", "coordinates": [[-82.9180083, 42.3889318], [-82.9183299, 42.3888144], [-82.9184018, 42.3887882]]}}]}