{"type": "FeatureCollection", "features": [{"type": "Feature", "properties": {"name": "Elmsleigh Lane", "highway": "residential"}, "geometry": {"type": "LineString", "coordinates": [[-82.910038, 42.3805156], [-82.910108, 42.3805441], [-82.910257, 42.380644], [-82.9113282, 42.3823354], [-82.911402, 42.3824518]]}}, {"type": "Feature", "properties": {"name": "Lakeside Court", "highway": "residential"}, "geometry": {"type": "LineString", "coordinates": [[-82.912309, 42.3820859], [-82.9122328, 42.3819698], [-82.911245, 42.380464], [-82.9111652, 42.3804094], [-82.9111127, 42.3803718], [-82.9110826, 42.380349], [-82.91103, 42.3803272]]}}, {"type": "Feature", "properties": {"name": "Lakeside Court", "highway": "residential"}, "geometry": {"type": "LineString", "coordinates": [[-82.9112609, 42.3802162], [-82.911324, 42.380321], [-82.911331, 42.380355], [-82.911323, 42.380388], [-82.911307, 42.38041], [-82.911245, 42.380464]]}}, {"type": "Feature", "properties": {"name": "Notre Dame Street", "highway": "residential"}, "geometry": {"type": "LineString", "coordinates": [[-82.911901, 42.3822489], [-82.913284, 42.384335], [-82.91399, 42.385408], [-82.9142711, 42.385834], [-82.914498, 42.386178], [-82.914998, 42.386937], [-82.915518, 42.387726], [-82.9159215, 42.3883354], [-82.916263, 42.388851], [-82.9163152, 42.3889255], [-82.9163531, 42.3889797], [-82.9165595, 42.3892843], [-82.91661, 42.3893579], [-82.916666, 42.389435], [-82.916949, 42.389864], [-82.9172063, 42.3902575], [-82.9172788, 42.3903694], [-82.917558, 42.3908004], [-82.9176381, 42.3909243], [-82.9177374, 42.3910773], [-82.9180848, 42.3916126], [-82.9181118, 42.3916827]]}}, {"type": "Feature", "properties": {"name": "Cadieux Road", "highway": "tertiary"}, "geometry": {"type": "LineString", "coordinates": [[-82.913632, 42.3815419], [-82.9150344, 42.3836579], [-82.915065, 42.383704], [-82.9152674, 42.3840117], [-82.915763, 42.384765], [-82.9159786, 42.3850921], [-82.9160793, 42.3852447], [-82.916272, 42.385537], [-82.916765, 42.386285], [-82.917294, 42.38709], [-82.9176849, 42.387696], [-82.917919, 42.388059], [-82.9180701, 42.3882774], [-82.9182967, 42.3886241], [-82.9184018, 42.3887882], [-82.9186099, 42.3890886], [-82.9186534, 42.3891547], [-82.918705, 42.389233]]}}, {"type": "Feature", "properties": {"name": "Woodland Place", "highway": "residential"}, "geometry": {"type": "LineString", "coordinates": [[-82.908745, 42.3835378], [-82.9086692, 42.383422], [-82.907719, 42.381972], [-82.9076621, 42.3818921], [-82.90763, 42.381847]]}}, {"type": "Feature", "properties": {"name": "Martin Place", "highway": "residential"}, "geometry": {"type": "LineString", "coordinates": [[-82.904734, 42.382982], [-82.904747, 42.382916], [-82.90477, 42.382856], [-82.904771, 42.382757], [-82.90474, 42.382678], [-82.904511, 42.382299], [-82.904453, 42.382213]]}}, {"type": "Feature", "properties": {"name": "Donovan Place", "highway": "residential"}, "geometry": {"type": "LineString", "coordinates": [[-82.908599, 42.381753], [-82.9094523, 42.3830999], [-82.9095179, 42.383213]]}}, {"type": "Feature", "properties": {"name": "Wellington Place", "highway": "residential"}, "geometry": {"type": "LineString", "coordinates": [[-82.908232, 42.380957], [-82.9096199, 42.383031], [-82.9096783, 42.383145]]}}, {"type": "Feature", "properties": {"name": "Lake Court", "highway": "residential"}, "geometry": {"type": "LineString", "coordinates": [[-82.91223, 42.379679], [-82.912183, 42.379695], [-82.912167, 42.379713], [-82.912145, 42.379754], [-82.912145, 42.37978], [-82.91217, 42.37983], [-82.912467, 42.380266], [-82.912553, 42.38043], [-82.9126357, 42.3805649], [-82.912818, 42.380862], [-82.9128877, 42.3809357], [-82.912905, 42.380954], [-82.9132904, 42.3815383], [-82.913364, 42.3816499]]}}, {"type": "Feature", "properties": {"name": "Stratford Place", "highway": "residential"}, "geometry": {"type": "LineString", "coordinates": [[-82.9091737, 42.3806729], [-82.909244, 42.380823], [-82.9104626, 42.3826883], [-82.910538, 42.3828038]]}}, {"type": "Feature", "properties": {"name": "Sycamore Lane", "highway": "residential"}, "geometry": {"type": "LineString", "coordinates": [[-82.912982, 42.3818129], [-82.9129069, 42.3816869], [-82.912808, 42.381521], [-82.91231, 42.38076], [-82.912262, 42.380649], [-82.912233, 42.380535], [-82.912133, 42.380342], [-82.911735, 42.379737], [-82.911554, 42.37947]]}}, {"type": "Feature", "properties": {"name": "Lakeland Street", "highway": "residential"}, "geometry": {"type": "LineString", "coordinates": [[-82.9061058, 42.3816296], [-82.9064211, 42.3820803], [-82.9075732, 42.3838692], [-82.907649, 42.3839868], [-82.9078223, 42.3842508], [-82.9079836, 42.3844964], [-82.909616, 42.386983], [-82.911138, 42.389295], [-82.912545, 42.391447], [-82.9137347, 42.3932495], [-82.914464, 42.394373], [-82.915258, 42.395572], [-82.917424, 42.398887], [-82.917436, 42.398944]]}}, {"type": "Feature", "properties": {"name": "East Jefferson Avenue", "highway": "secondary"}, "geometry": {"type": "LineString", "coordinates": [[-82.924184, 42.3792209], [-82.923249, 42.3793929], [-82.922379, 42.3795529], [-82.92094, 42.3798029], [-82.9201976, 42.3799293], [-82.919906, 42.3799789], [-82.919517, 42.3800499], [-82.918876, 42.3801609], [-82.918513, 42.3802229], [-82.918037, 42.3803059], [-82.917706, 42.3803639], [-82.916522, 42.3805759], [-82.916235, 42.3806249], [-82.915609, 42.3807449], [-82.915542, 42.3807639], [-82.915477, 42.3807819], [-82.9154258, 42.3808029], [-82.9151355, 42.3809218], [-82.915101, 42.3809359], [-82.91469, 42.3811039], [-82.9143184, 42.3812574], [-82.9142332, 42.3812929], [-82.913632, 42.3815419], [-82.913364, 42.3816499], [-82.912982, 42.3818129], [-82.9125035, 42.382007], [-82.912309, 42.3820859], [-82.911901, 42.3822489], [-82.911402, 42.3824518], [-82.910648, 42.3827588], [-82.910538, 42.3828038], [-82.9096783, 42.383145], [-82.9095179, 42.383213], [-82.908925, 42.3834638], [-82.908745, 42.3835378], [-82.907649, 42.3839868]]}}, {"type": "Feature", "properties": {"name": "Kercheval Place", "highway": "residential"}, "geometry": {"type": "LineString", "coordinates": [[-82.916666, 42.389435], [-82.9167367, 42.3894085], [-82.917233, 42.3892225], [-82.917676, 42.3890564], [-82.9178312, 42.3889982], [-82.9180083, 42.3889318]]}}, {"type": "Feature", "properties": {"name": "Williams Avenue", "highway": "residential"}, "geometry": {"type": "LineString", "coordinates": [[-82.912199, 42.403292], [-82.9112073, 42.4036112], [-82.910327, 42.403923], [-82.9102437, 42.4039777], [-82.90971, 42.404741], [-82.909192, 42.405442]]}}, {"type": "Feature", "properties": {"name": "Maumee Street", "highway": "residential"}, "geometry": {"type": "LineString", "coordinates": [[-82.9213, 42.382774], [-82.919969, 42.383253], [-82.918663, 42.383721], [-82.916852, 42.384375], [-82.915763, 42.384765], [-82.91399, 42.385408], [-82.912714, 42.385871], [-82.9119355, 42.3861502], [-82.9115474, 42.3862894], [-82.910938, 42.386508], [-82.909616, 42.386983], [-82.908394, 42.38742], [-82.907276, 42.387821], [-82.906448, 42.38812], [-82.905566, 42.388435], [-82.904356, 42.388871], [-82.9035459, 42.3891674], [-82.9030867, 42.3893476]]}}, {"type": "Feature", "properties": {"name": "Goethe Street", "highway": "residential"}, "geometry": {"type": "LineString", "coordinates": [[-82.915967, 42.397973], [-82.915437, 42.398159], [-82.914321, 42.398561], [-82.912676, 42.399152], [-82.9114, 42.399608], [-82.910108, 42.400073]]}}, {"type": "Feature", "properties": {"name": "Charles Street", "highway": "residential"}, "geometry": {"type": "LineString", "coordinates": [[-82.907994, 42.388915], [-82.907286, 42.389175]]}}, {"type": "Feature", "properties": {"name": "Rivard Boulevard", "highway": "residential"}, "geometry": {"type": "LineString", "coordinates": [[-82.905366, 42.3849188], [-82.9056349, 42.3853274], [-82.907276, 42.387821], [-82.907994, 42.388915], [-82.908795, 42.390135], [-82.910204, 42.392286], [-82.9113886, 42.3940893], [-82.912915, 42.396415], [-82.914321, 42.398561], [-82.91644, 42.401793], [-82.9168076, 42.4023618], [-82.9170073, 42.4026559], [-82.91708, 42.402763], [-82.917135, 42.402848]]}}, {"type": "Feature", "properties": {"name": "Neff Lane", "highway": "residential"}, "geometry": {"type": "LineString", "coordinates": [[-82.913434, 42.388473], [-82.912779, 42.38745]]}}, {"type": "Feature", "properties": {"name": "Rathbone Place", "highway": "residential"}, "geometry": {"type": "LineString", "coordinates": [[-82.904734, 42.382982], [-82.904813, 42.383107], [-82.905094, 42.383371], [-82.905227, 42.383532], [-82.905287, 42.383676], [-82.905431, 42.383942], [-82.905509, 42.384145], [-82.90559, 42.384243], [-82.905734, 42.384365], [-82.905881, 42.384518], [-82.9058985, 42.3845496], [-82.905967, 42.3846738]]}}, {"type": "Feature", "properties": {"name": "Bluehill Street", "highway": "residential"}, "geometry": {"type": "LineString", "coordinates": [[-82.921061, 42.396145], [-82.9211, 42.396171], [-82.921138, 42.396198], [-82.921144, 42.396285], [-82.921155, 42.396321], [-82.921173, 42.3963472], [-82.9213578, 42.3966304], [-82.921746, 42.397206], [-82.922177, 42.397856], [-82.9223145, 42.3980641], [-82.922631, 42.398543]]}}, {"type": "Feature", "properties": {"name": "Vernor Highway", "highway": "residential"}, "geometry": {"type": "LineString", "coordinates": [[-82.944406, 42.382242], [-82.943911, 42.382418], [-82.9439022, 42.3824212], [-82.9434545, 42.3825845], [-82.942983, 42.3827566], [-82.9425142, 42.3829264], [-82.9417607, 42.3831916], [-82.9410726, 42.3834375], [-82.9404256, 42.3836715], [-82.9399261, 42.3838496], [-82.9394321, 42.3840328], [-82.9389333, 42.384211], [-82.937962, 42.384553], [-82.936722, 42.384998], [-82.935247, 42.385529], [-82.9337786, 42.386054], [-82.93234, 42.386572], [-82.931126, 42.387009], [-82.929633, 42.387548], [-82.928001, 42.388131], [-82.9267017, 42.3885992], [-82.925395, 42.389064], [-82.924062, 42.389541], [-82.922899, 42.38996], [-82.921967, 42.390296], [-82.920987, 42.390649], [-82.9199022, 42.3910418]]}}, {"type": "Feature", "properties": {"name": "Loraine Street", "highway": "residential"}, "geometry": {"type": "LineString", "coordinates": [[-82.9189994, 42.3913649], [-82.9190364, 42.3914198], [-82.9204894, 42.393625], [-82.9205286, 42.393685], [-82.9205681, 42.3937428], [-82.9215286, 42.3951959], [-82.9216029, 42.3953084]]}}, {"type": "Feature", "properties": {"name": "Beaupre Avenue", "highway": "residential"}, "geometry": {"type": "LineString", "coordinates": [[-82.910108, 42.400073], [-82.9091345, 42.4004211], [-82.908616, 42.400608], [-82.908533, 42.400644], [-82.908455, 42.400686], [-82.908293, 42.400789], [-82.908236, 42.400844], [-82.9081741, 42.4009565], [-82.9076208, 42.4017365]]}}, {"type": "Feature", "properties": {"name": "Ridge Road", "highway": "residential"}, "geometry": {"type": "LineString", "coordinates": [[-82.9071802, 42.3955958], [-82.9062207, 42.395951], [-82.9052582, 42.3963027], [-82.9050314, 42.3963845], [-82.9049464, 42.3964663], [-82.9042545, 42.3973797], [-82.9042156, 42.3974317], [-82.9042061, 42.3974427], [-82.904028, 42.3976789], [-82.903322, 42.398614], [-82.9025729, 42.3996174], [-82.9024864, 42.3997332], [-82.9021894, 42.4001261], [-82.901843, 42.400595], [-82.901131, 42.40155], [-82.900286, 42.402681], [-82.899577, 42.403611], [-82.8994361, 42.4038094], [-82.8993994, 42.4038608], [-82.898749, 42.40474], [-82.898669, 42.404846], [-82.89796, 42.405796], [-82.897337, 42.406629], [-82.896471, 42.407783], [-82.89637, 42.407918]]}}, {"type": "Feature", "properties": {"name": "Guilford Street", "highway": "residential"}, "geometry": {"type": "LineString", "coordinates": [[-82.9270325, 42.4071006], [-82.9267832, 42.4067065], [-82.926576, 42.406379], [-82.925943, 42.405415], [-82.925733, 42.405097], [-82.924867, 42.403787], [-82.924776, 42.40365], [-82.924321, 42.402944], [-82.923807, 42.40216], [-82.923285, 42.401363], [-82.922729, 42.400532], [-82.9216376, 42.3989109], [-82.9207411, 42.3975207], [-82.920568, 42.39725], [-82.9205399, 42.3972316], [-82.9204406, 42.3972027], [-82.9203207, 42.397188]]}}, {"type": "Feature", "properties": {"name": "Loraine Avenue", "highway": "residential"}, "geometry": {"type": "LineString", "coordinates": [[-82.921676, 42.395344], [-82.921732, 42.395409]]}}, {"type": "Feature", "properties": {"name": "Roosevelt Place", "highway": "residential"}, "geometry": {"type": "LineString", "coordinates": [[-82.907286, 42.389175], [-82.907189, 42.389174], [-82.907157, 42.389161], [-82.906809, 42.388669], [-82.906448, 42.38812]]}}, {"type": "Feature", "properties": {"name": "Grosse Point Court", "highway": "residential"}, "geometry": {"type": "LineString", "coordinates": [[-82.917262, 42.394856], [-82.918447, 42.396653], [-82.9194191, 42.3981521], [-82.91948, 42.398246]]}}, {"type": "Feature", "properties": {"name": "Neff Avenue", "highway": "residential"}, "geometry": {"type": "LineString", "coordinates": [[-82.919118, 42.398926], [-82.919169, 42.398999], [-82.9192226, 42.399081], [-82.9194268, 42.3993934], [-82.919622, 42.399692], [-82.920051, 42.400347], [-82.92048, 42.400998], [-82.920908, 42.401652], [-82.921189, 42.40207], [-82.921334, 42.402262], [-82.921749, 42.402893], [-82.922721, 42.404395], [-82.922811, 42.404532], [-82.923312, 42.405306], [-82.9234023, 42.4054545], [-82.9235117, 42.4056684], [-82.923624, 42.405878], [-82.9238798, 42.4062945], [-82.9246473, 42.4074655], [-82.9248669, 42.4078005], [-82.924942, 42.4078553], [-82.9252098, 42.4082498], [-82.9253886, 42.408516], [-82.927165, 42.411161]]}}, {"type": "Feature", "properties": {"name": "Woodhall Drive", "highway": "residential"}, "geometry": {"type": "LineString", "coordinates": [[-82.919686, 42.397961], [-82.919754, 42.397996]]}}, {"type": "Feature", "properties": {"name": "Waterloo Street", "highway": "residential"}, "geometry": {"type": "LineString", "coordinates": [[-82.9199022, 42.3910418], [-82.9198228, 42.3910702], [-82.9189994, 42.3913649]]}}, {"type": "Feature", "properties": {"name": "Cranford Lane", "highway": "residential"}, "geometry": {"type": "LineString", "coordinates": [[-82.916272, 42.385537], [-82.914498, 42.386178]]}}, {"type": "Feature", "properties": {"name": "Hereford Drive", "highway": "residential"}, "geometry": {"type": "LineString", "coordinates": [[-82.918231, 42.400359], [-82.918315, 42.400383]]}}, {"type": "Feature", "properties": {"name": "Alger Place", "highway": "residential"}, "geometry": {"type": "LineString", "coordinates": [[-82.9026687, 42.3838769], [-82.902871, 42.384265], [-82.902993, 42.384554], [-82.903047, 42.384639], [-82.903105, 42.384714], [-82.903193, 42.384808], [-82.903267, 42.384873], [-82.90354, 42.385075], [-82.903658, 42.385175], [-82.903779, 42.385304], [-82.903922, 42.3855078]]}}, {"type": "Feature", "properties": {"name": "Chalfonte Avenue", "highway": "residential"}, "geometry": {"type": "LineString", "coordinates": [[-82.91644, 42.401793], [-82.9148997, 42.4023463], [-82.914792, 42.402385], [-82.9146642, 42.4024308], [-82.9135089, 42.402845], [-82.912199, 42.403292]]}}, {"type": "Feature", "properties": {"name": "Lakeland Court", "highway": "residential"}, "geometry": {"type": "LineString", "coordinates": [[-82.917436, 42.398944], [-82.917473, 42.399099], [-82.917482, 42.39916], [-82.917476, 42.399263], [-82.917449, 42.399368], [-82.917452, 42.399429], [-82.917468, 42.399492], [-82.917511, 42.399552], [-82.917593, 42.399603]]}}, {"type": "Feature", "properties": {"name": "University Place", "highway": "residential"}, "geometry": {"type": "LineString", "coordinates": [[-82.917776, 42.401739], [-82.917717, 42.401637], [-82.917658, 42.401549], [-82.9175882, 42.4014498], [-82.9175011, 42.401326], [-82.915437, 42.398159], [-82.914029, 42.396012], [-82.9125062, 42.3936893], [-82.911322, 42.391885], [-82.90994, 42.389786], [-82.909912, 42.389735], [-82.908394, 42.38742]]}}, {"type": "Feature", "properties": {"name": "Woodhall Street", "highway": "residential"}, "geometry": {"type": "LineString", "coordinates": [[-82.919754, 42.397996], [-82.919798, 42.39802], [-82.919843, 42.398043], [-82.919903, 42.39808], [-82.9199275, 42.3981045], [-82.91995, 42.398127], [-82.920113, 42.3983755], [-82.920697, 42.399253], [-82.92177, 42.40088], [-82.921986, 42.401207], [-82.922841, 42.402508], [-82.923639, 42.403711], [-82.923914, 42.404133], [-82.924984, 42.405763], [-82.9258261, 42.4070499], [-82.9259552, 42.4072418], [-82.9260863, 42.4074476], [-82.9263463, 42.407841]]}}, {"type": "Feature", "properties": {"name": "Cameron Place", "highway": "residential"}, "geometry": {"type": "LineString", "coordinates": [[-82.90359, 42.3829445], [-82.903612, 42.383115], [-82.903642, 42.383188], [-82.904136, 42.383965], [-82.904169, 42.384044], [-82.90436, 42.384622], [-82.904391, 42.384678], [-82.9046395, 42.3850648], [-82.904716, 42.3851838]]}}, {"type": "Feature", "properties": {"name": "Saint Paul Street", "highway": "residential"}, "geometry": {"type": "LineString", "coordinates": [[-82.9412732, 42.3784908], [-82.94085, 42.378635], [-82.9403567, 42.3788098], [-82.9399856, 42.3789458], [-82.939902, 42.3789764], [-82.9398211, 42.3790051], [-82.9391523, 42.3792423], [-82.93849, 42.379482], [-82.937821, 42.3797216], [-82.937337, 42.379895], [-82.9368393, 42.3800717], [-82.936337, 42.38025], [-82.935365, 42.380603], [-82.93414, 42.381046], [-82.93266, 42.381577], [-82.931199, 42.382102], [-82.929755, 42.382621], [-82.928546, 42.383057], [-82.927053, 42.38359], [-82.925418, 42.384175], [-82.9241187, 42.384629], [-82.922819, 42.385106], [-82.921485, 42.385585], [-82.920304, 42.386008], [-82.919372, 42.386342], [-82.918378, 42.386698], [-82.917294, 42.38709], [-82.915518, 42.387726], [-82.91424, 42.388184], [-82.913434, 42.388473], [-82.912459, 42.388822], [-82.911138, 42.389295], [-82.909912, 42.389735], [-82.908795, 42.390135], [-82.907148, 42.390725], [-82.905873, 42.391182], [-82.9050596, 42.3914733], [-82.904583, 42.391644]]}}, {"type": "Feature", "properties": {"name": "Charlevoix Avenue", "highway": "tertiary"}, "geometry": {"type": "LineString", "coordinates": [[-82.9282117, 42.3909467], [-82.926914, 42.391392], [-82.9257255, 42.3918179], [-82.92558, 42.39187], [-82.9254038, 42.391933], [-82.924425, 42.392283], [-82.9235963, 42.3925793], [-82.923491, 42.392617], [-82.9233824, 42.3926557], [-82.922512, 42.392966], [-82.9215476, 42.3933171], [-82.921427, 42.393361], [-82.92135, 42.3933888], [-82.9212246, 42.3934341], [-82.9205915, 42.3936623], [-82.9205286, 42.393685], [-82.9204654, 42.3937077], [-82.9197644, 42.3939594], [-82.919724, 42.3939737], [-82.9196446, 42.3940017], [-82.919565, 42.3940307], [-82.9195183, 42.3940476], [-82.9188949, 42.3942698], [-82.9184829, 42.3944167], [-82.9183643, 42.394459], [-82.917262, 42.394856], [-82.9167164, 42.3950514], [-82.916589, 42.395097], [-82.9164399, 42.3951502], [-82.915258, 42.395572], [-82.9141594, 42.3959653], [-82.914029, 42.396012], [-82.9138639, 42.3960717], [-82.912915, 42.396415], [-82.9114113, 42.3969537], [-82.911268, 42.397005], [-82.9110748, 42.3970744], [-82.909996, 42.397462], [-82.9087941, 42.3978895], [-82.9087, 42.397923]]}}, {"type": "Feature", "properties": {"name": "Village Lane", "highway": "residential"}, "geometry": {"type": "LineString", "coordinates": [[-82.914998, 42.386937], [-82.916765, 42.386285]]}}, {"type": "Feature", "properties": {"name": "Saint Clair Street", "highway": "residential"}, "geometry": {"type": "LineString", "coordinates": [[-82.910648, 42.3827588], [-82.9110888, 42.3834317], [-82.9110974, 42.3834448], [-82.911375, 42.3838615], [-82.9116808, 42.3843204], [-82.9125384, 42.3856075], [-82.912714, 42.385871], [-82.91424, 42.388184], [-82.915181, 42.3896114], [-82.9152579, 42.3897282], [-82.9153283, 42.3898349], [-82.915654, 42.390329], [-82.915915, 42.390725], [-82.9160069, 42.3908644], [-82.916072, 42.3909632], [-82.9161487, 42.3910736], [-82.9161677, 42.3911055], [-82.9162099, 42.3911724], [-82.9164021, 42.391464]]}}, {"type": "Feature", "properties": {"name": "Lincoln Road", "highway": "residential"}, "geometry": {"type": "LineString", "coordinates": [[-82.902523, 42.3860808], [-82.904356, 42.388871], [-82.905873, 42.391182], [-82.907281, 42.393328], [-82.908466, 42.3951355], [-82.909996, 42.397462], [-82.9114, 42.399608], [-82.9135089, 42.402845], [-82.9135463, 42.4029017], [-82.9152315, 42.4054552], [-82.9153075, 42.4055805], [-82.915388, 42.405694], [-82.915409, 42.405713], [-82.9154223, 42.4057192], [-82.915465, 42.405739], [-82.915539, 42.405765]]}}, {"type": "Feature", "properties": {"name": "Hereford Street", "highway": "residential"}, "geometry": {"type": "LineString", "coordinates": [[-82.918315, 42.400383], [-82.918406, 42.40041], [-82.918461, 42.400462], [-82.9184825, 42.4004948], [-82.9186215, 42.4007063], [-82.9186339, 42.4007251], [-82.9187106, 42.4008419], [-82.921367, 42.404885], [-82.9233574, 42.4079241], [-82.923618, 42.408322], [-82.9238866, 42.4087329], [-82.924508, 42.409684], [-82.925825, 42.411678], [-82.926829, 42.413205], [-82.926964, 42.413412], [-82.9270107, 42.4134832], [-82.927958, 42.414927], [-82.929011, 42.41653], [-82.930091, 42.41817], [-82.9307522, 42.4192238], [-82.9309899, 42.4196026]]}}, {"type": "Feature", "properties": {"name": "Washington Road", "highway": "residential"}, "geometry": {"type": "LineString", "coordinates": [[-82.903697, 42.3855998], [-82.9040381, 42.3861172], [-82.9043203, 42.3865453], [-82.905566, 42.388435], [-82.906291, 42.389542], [-82.906514, 42.389877], [-82.906595, 42.389949], [-82.90668, 42.390009], [-82.907148, 42.390725], [-82.9081756, 42.3922909], [-82.908557, 42.392872], [-82.9097432, 42.3946783], [-82.911268, 42.397005], [-82.912676, 42.399152], [-82.914792, 42.402385], [-82.9148294, 42.4024418], [-82.9159163, 42.4040948], [-82.915992, 42.40421], [-82.9161037, 42.4043707], [-82.916146, 42.404408], [-82.916201, 42.404435], [-82.916296, 42.404471], [-82.916368, 42.404498]]}}, {"type": "Feature", "properties": {"name": "Neff Road", "highway": "residential"}, "geometry": {"type": "LineString", "coordinates": [[-82.908925, 42.3834638], [-82.908974, 42.383522], [-82.9094005, 42.3841667], [-82.9106857, 42.3861238], [-82.910938, 42.386508], [-82.912459, 42.388822], [-82.9134845, 42.3903787], [-82.913872, 42.390967], [-82.9150453, 42.3927696], [-82.916589, 42.395097], [-82.9178984, 42.397082], [-82.9189411, 42.3986626], [-82.918956, 42.3986853], [-82.9189942, 42.3987433], [-82.919064, 42.398849], [-82.919118, 42.398926]]}}, {"type": "Feature", "properties": {"name": "Fisher Road", "highway": "residential"}, "geometry": {"type": "LineString", "coordinates": [[-82.901327, 42.3865618], [-82.9014979, 42.3868323], [-82.9030867, 42.3893476], [-82.9034934, 42.3899797], [-82.9036443, 42.3902051], [-82.903735, 42.3903451], [-82.9039553, 42.3906896], [-82.904014, 42.3907812], [-82.9040761, 42.3908781], [-82.9041429, 42.3909823], [-82.904189, 42.3910541], [-82.9044891, 42.3915033], [-82.904583, 42.391644], [-82.9057105, 42.3933742], [-82.905872, 42.393622], [-82.905993, 42.393791]]}}, {"type": "Feature", "properties": {"name": "Lakeland Street", "highway": "residential"}, "geometry": {"type": "LineString", "coordinates": [[-82.917436, 42.398944], [-82.917502, 42.398935], [-82.917612, 42.398897], [-82.917837, 42.398841], [-82.917924, 42.398838], [-82.91801, 42.398846], [-82.918093, 42.398864], [-82.918171, 42.398892], [-82.9182034, 42.3989099], [-82.918258, 42.39894], [-82.918303, 42.398975], [-82.918338, 42.39901], [-82.9185758, 42.3993685], [-82.918651, 42.399482]]}}, {"type": "Feature", "properties": {"name": "Mack Avenue", "highway": "secondary"}, "geometry": {"type": "LineString", "coordinates": [[-82.9220865, 42.3950154], [-82.9219392, 42.3950742], [-82.921852, 42.395109], [-82.921707, 42.395201], [-82.9216029, 42.3953084], [-82.921386, 42.39555], [-82.920997, 42.396102], [-82.9209385, 42.3961844], [-82.9202402, 42.3971619], [-82.9200436, 42.3974648], [-82.919686, 42.397961], [-82.9196378, 42.3980276], [-82.91948, 42.398246], [-82.9194349, 42.3983114], [-82.919064, 42.398849], [-82.9189758, 42.3989744], [-82.918912, 42.399065], [-82.9188596, 42.3991444], [-82.9187552, 42.3993028], [-82.918695, 42.399394], [-82.918651, 42.399482], [-82.918231, 42.400359], [-82.9180163, 42.4008048], [-82.917658, 42.401549], [-82.91708, 42.402763], [-82.9170246, 42.4028699], [-82.916635, 42.403621], [-82.916201, 42.404435], [-82.91588, 42.405049], [-82.915539, 42.405765], [-82.914845, 42.407239], [-82.9147376, 42.4074668], [-82.914353, 42.408283], [-82.9138774, 42.4093091], [-82.913839, 42.409392], [-82.9137875, 42.4094988], [-82.91359, 42.409908], [-82.9134788, 42.4100965], [-82.9133468, 42.4104217], [-82.913197, 42.410738], [-82.9131303, 42.4108821], [-82.9131099, 42.4109261], [-82.913072, 42.411008], [-82.912871, 42.411444], [-82.9128372, 42.411515], [-82.9127597, 42.4116856], [-82.9125467, 42.412137], [-82.912542, 42.412147], [-82.9125084, 42.4122332], [-82.9124629, 42.4123498], [-82.91243, 42.412434]]}}, {"type": "Feature", "properties": {"name": "Mack Avenue", "highway": "secondary"}, "geometry": {"type": "LineString", "coordinates": [[-82.922399, 42.394829], [-82.9220865, 42.3950154]]}}, {"type": "Feature", "properties": {"name": "Loraine Street", "highway": "residential"}, "geometry": {"type": "LineString", "coordinates": [[-82.9216029, 42.3953084], [-82.921676, 42.395344]]}}, {"type": "Feature", "properties": {"name": "Chalfonte Avenue", "highway": "tertiary"}, "geometry": {"type": "LineString", "coordinates": [[-82.912199, 42.403292], [-82.9119962, 42.403434], [-82.9119037, 42.4035564], [-82.9118632, 42.4036059], [-82.911518, 42.404058], [-82.910983, 42.404738], [-82.910877, 42.404898]]}}, {"type": "Feature", "properties": {"name": "Fisher Road", "highway": "residential"}, "geometry": {"type": "LineString", "coordinates": [[-82.9087, 42.397923], [-82.9087507, 42.3980004], [-82.910108, 42.400073], [-82.910162, 42.4001593], [-82.910265, 42.400324], [-82.912199, 42.403292]]}}, {"type": "Feature", "properties": {"name": "Fisher Road", "highway": "residential"}, "geometry": {"type": "LineString", "coordinates": [[-82.912199, 42.403292], [-82.9122288, 42.4033768], [-82.914469, 42.4067819], [-82.914542, 42.4068941], [-82.9146579, 42.4070724], [-82.914711, 42.407154], [-82.9147398, 42.4071761], [-82.914793, 42.407217], [-82.914845, 42.407239], [-82.914935, 42.407266], [-82.915019, 42.40729]]}}, {"type": "Feature", "properties": {"name": "Charlevoix Avenue", "highway": "tertiary"}, "geometry": {"type": "LineString", "coordinates": [[-82.9087, 42.397923], [-82.907737, 42.398266], [-82.9068712, 42.3985989], [-82.9067831, 42.398636], [-82.9066994, 42.3986725], [-82.9065953, 42.39873], [-82.9064697, 42.398808], [-82.9063728, 42.398875], [-82.9062854, 42.3989454], [-82.9062182, 42.399012], [-82.9061558, 42.3991002], [-82.9058069, 42.3995605], [-82.9057619, 42.3996152]]}}, {"type": "Feature", "properties": {"name": "Mack Avenue", "highway": "secondary"}, "geometry": {"type": "LineString", "coordinates": [[-82.92313, 42.3945567], [-82.9230431, 42.3945891], [-82.9229093, 42.3946389], [-82.9225265, 42.3947815], [-82.922399, 42.394829]]}}, {"type": "Feature", "properties": {"name": "Fisher Road", "highway": "residential"}, "geometry": {"type": "LineString", "coordinates": [[-82.905993, 42.393791], [-82.906102, 42.393943], [-82.9062553, 42.3941781], [-82.9071802, 42.3955958], [-82.907898, 42.396696], [-82.9087, 42.397923]]}}, {"type": "Feature", "properties": {"name": "Roosevelt Place", "highway": "residential"}, "geometry": {"type": "LineString", "coordinates": [[-82.906448, 42.38812], [-82.904553, 42.3852508]]}}, {"type": "Feature", "properties": {"name": "University Place", "highway": "residential"}, "geometry": {"type": "LineString", "coordinates": [[-82.908394, 42.38742], [-82.908221, 42.387218], [-82.908144, 42.38711], [-82.908057, 42.386966], [-82.907971, 42.386764], [-82.907866, 42.386575], [-82.90777, 42.386448], [-82.907596, 42.386261], [-82.907492, 42.386123], [-82.907424, 42.386008], [-82.907328, 42.385785], [-82.907244, 42.38563], [-82.907138, 42.385483], [-82.90697, 42.385299], [-82.906866, 42.385167], [-82.906784, 42.385032], [-82.90671, 42.384864], [-82.906666, 42.384783], [-82.90661, 42.384699], [-82.906433, 42.3844838]]}}, {"type": "Feature", "properties": {"name": "Cadieux Road", "highway": "tertiary"}, "geometry": {"type": "LineString", "coordinates": [[-82.918705, 42.389233], [-82.9187586, 42.3893166], [-82.9188643, 42.3894815], [-82.9189455, 42.3896007], [-82.9199022, 42.3910418], [-82.921427, 42.393361], [-82.9221148, 42.3944074], [-82.9221699, 42.3944912], [-82.9223222, 42.394715], [-82.922399, 42.394829]]}}, {"type": "Feature", "properties": {"name": "Kercheval Avenue", "highway": "tertiary"}, "geometry": {"type": "LineString", "coordinates": [[-82.9135154, 42.391096], [-82.912545, 42.391447], [-82.911322, 42.391885], [-82.9111536, 42.3919454], [-82.910204, 42.392286], [-82.9087147, 42.3928159], [-82.908557, 42.392872], [-82.9083148, 42.3929586], [-82.907281, 42.393328], [-82.9062428, 42.3937012], [-82.905993, 42.393791]]}}, {"type": "Feature", "properties": {"name": "East Jefferson Avenue", "highway": "secondary"}, "geometry": {"type": "LineString", "coordinates": [[-82.907649, 42.3839868], [-82.9067753, 42.3843439], [-82.9066809, 42.3843825], [-82.906433, 42.3844838], [-82.905967, 42.3846738], [-82.9058039, 42.3847403], [-82.905366, 42.3849188], [-82.904716, 42.3851838], [-82.904553, 42.3852508], [-82.903922, 42.3855078], [-82.903697, 42.3855998], [-82.903113, 42.3858408], [-82.902523, 42.3860808], [-82.90185, 42.3863488], [-82.901725, 42.3864008], [-82.901327, 42.3865618]]}}, {"type": "Feature", "properties": {"name": "Kercheval Avenue", "highway": "tertiary"}, "geometry": {"type": "LineString", "coordinates": [[-82.905993, 42.393791], [-82.9056948, 42.3938978], [-82.905211, 42.3940711], [-82.905041, 42.394132], [-82.9047863, 42.3942176], [-82.9042543, 42.3943964], [-82.904184, 42.39442], [-82.9040572, 42.3944894], [-82.9039936, 42.39454], [-82.903933, 42.394592], [-82.9038118, 42.3946798], [-82.9028709, 42.395361], [-82.902058, 42.39595], [-82.902027, 42.395977], [-82.901939, 42.396053], [-82.9018172, 42.3962169], [-82.9017695, 42.3962787], [-82.9017228, 42.396339], [-82.9016822, 42.3963939], [-82.9013265, 42.396874], [-82.9011757, 42.3970794], [-82.9008746, 42.3974841], [-82.900798, 42.397587]]}}, {"type": "Feature", "properties": {"name": "Kercheval Street", "highway": "tertiary"}, "geometry": {"type": "LineString", "coordinates": [[-82.9355356, 42.3831989], [-82.9354138, 42.3832424], [-82.9342546, 42.3836555], [-82.9341846, 42.383681], [-82.9340586, 42.383727], [-82.9339344, 42.3837709], [-82.9338944, 42.383785], [-82.9327208, 42.3842073], [-82.9325966, 42.384252], [-82.9324756, 42.3842952], [-82.9313647, 42.3846919], [-82.9312743, 42.3847247], [-82.931152, 42.384769], [-82.9310285, 42.3848124], [-82.9309868, 42.3848271], [-82.9300068, 42.3851791], [-82.929939, 42.3852035], [-82.9298737, 42.385227], [-82.9286366, 42.385674], [-82.9286053, 42.3856855], [-82.9284516, 42.385742], [-82.9282955, 42.385797], [-82.9282851, 42.3858007], [-82.926903, 42.3862959], [-82.926815, 42.3863274], [-82.9267307, 42.3863579], [-82.9256905, 42.3867345], [-82.9256316, 42.3867557], [-82.9255087, 42.3867999], [-82.9253933, 42.3868406], [-82.9242853, 42.3872315], [-82.9242116, 42.3872575], [-82.9241359, 42.3872846], [-82.9230489, 42.3876741], [-82.9230022, 42.3876907], [-82.922879, 42.3877345], [-82.9227519, 42.3877805], [-82.9226864, 42.3878043], [-82.921775, 42.3881329], [-82.9217083, 42.388157], [-82.9216413, 42.3881809], [-82.9210033, 42.3884085], [-82.9208424, 42.388466], [-82.9207766, 42.3884895], [-82.9207081, 42.3885143], [-82.9206127, 42.3885488], [-82.9198578, 42.3888194], [-82.9197863, 42.388845], [-82.9197165, 42.3888701], [-82.9189446, 42.3891472], [-82.9187785, 42.3892066], [-82.918705, 42.389233]]}}, {"type": "Feature", "properties": {"name": "Notre Dame Street", "highway": "residential"}, "geometry": {"type": "LineString", "coordinates": [[-82.9181118, 42.3916827], [-82.9181478, 42.3917371], [-82.9196054, 42.3939416], [-82.9196446, 42.3940017], [-82.9196837, 42.3940601], [-82.9209557, 42.3959825], [-82.920997, 42.396102], [-82.921061, 42.396145]]}}, {"type": "Feature", "properties": {"name": "Waterloo Street", "highway": "residential"}, "geometry": {"type": "LineString", "coordinates": [[-82.9181118, 42.3916827], [-82.9180456, 42.3917064], [-82.917292, 42.3919761], [-82.9169508, 42.3920899], [-82.9168397, 42.3921282], [-82.9167135, 42.3921702], [-82.9157756, 42.3925054], [-82.9150453, 42.3927696], [-82.9137347, 42.3932495], [-82.9125062, 42.3936893], [-82.9113886, 42.3940893], [-82.9097432, 42.3946783], [-82.908466, 42.3951355], [-82.9071802, 42.3955958]]}}, {"type": "Feature", "properties": {"name": "Waterloo Street", "highway": "residential"}, "geometry": {"type": "LineString", "coordinates": [[-82.9189994, 42.3913649], [-82.918214, 42.3916461], [-82.9181118, 42.3916827]]}}, {"type": "Feature", "properties": {"name": "Saint Clair Street", "highway": "residential"}, "geometry": {"type": "LineString", "coordinates": [[-82.9164021, 42.391464], [-82.9164314, 42.3915084], [-82.9167206, 42.3919472], [-82.9168033, 42.3920727], [-82.9168397, 42.3921282], [-82.91688, 42.3921894], [-82.9169896, 42.3923571], [-82.9170722, 42.3924833], [-82.9172249, 42.3927169], [-82.9172833, 42.3928062], [-82.9173736, 42.3929443], [-82.9173986, 42.3929825], [-82.917526, 42.3931772], [-82.9175982, 42.3932877], [-82.9177018, 42.393446], [-82.917749, 42.3935183], [-82.9178198, 42.3936266], [-82.9178853, 42.3937267], [-82.9179685, 42.3938539], [-82.9180362, 42.3939574], [-82.9180924, 42.3940434], [-82.9181437, 42.3941218], [-82.9182631, 42.3943043], [-82.918325, 42.394399], [-82.9183643, 42.394459], [-82.918559, 42.3947334], [-82.9187655, 42.3950424], [-82.9200692, 42.3970499], [-82.9201171, 42.3970991], [-82.9201526, 42.3971185], [-82.9202402, 42.3971619], [-82.9203207, 42.397188]]}}, {"type": "Feature", "properties": {"name": "Kercheval Avenue", "highway": "tertiary"}, "geometry": {"type": "LineString", "coordinates": [[-82.918705, 42.389233], [-82.9186085, 42.3892677], [-82.9185152, 42.3893013], [-82.9171625, 42.3897873], [-82.9170643, 42.3898226], [-82.916949, 42.389864], [-82.916677, 42.3899617], [-82.915654, 42.390329]]}}, {"type": "Feature", "properties": {"name": "Kercheval Place", "highway": "residential"}, "geometry": {"type": "LineString", "coordinates": [[-82.9180083, 42.3889318], [-82.9183299, 42.3888144], [-82.9184018, 42.3887882]]}}, {"type": "Feature", "properties": {"name": "Marseilles Street", "highway": "residential"}, "geometry": {"type": "LineString", "coordinates": [[-82.917135, 42.402848], [-82.917168, 42.402898], [-82.9172, 42.402949], [-82.9172638, 42.4030442], [-82.917397, 42.403243], [-82.9182605, 42.4045681], [-82.9184775, 42.4049012], [-82.9185216, 42.4049688], [-82.91903, 42.405749], [-82.9202, 42.40753], [-82.9210353, 42.4087906], [-82.921296, 42.409184]]}}, {"type": "Feature", "properties": {"name": "Cadieux Road", "highway": "tertiary"}, "geometry": {"type": "LineString", "coordinates": [[-82.922399, 42.394829], [-82.9225037, 42.3949884], [-82.9226414, 42.395198], [-82.922767, 42.3953891]]}}, {"type": "Feature", "properties": {"name": "Mack Avenue", "highway": "secondary"}, "geometry": {"type": "LineString", "coordinates": [[-82.9219714, 42.3951432], [-82.9220123, 42.3950978], [-82.9220865, 42.3950154]]}}, {"type": "Feature", "properties": {"name": "Radnor Street", "highway": "residential"}, "geometry": {"type": "LineString", "coordinates": [[-82.915539, 42.405765], [-82.915629, 42.405798], [-82.915703, 42.405825]]}}, {"type": "Feature", "properties": {"name": "Kercheval Avenue", "highway": "tertiary"}, "geometry": {"type": "LineString", "coordinates": [[-82.9152312, 42.3904804], [-82.9142292, 42.3908391]]}}, {"type": "Feature", "properties": {"name": "Kercheval Avenue", "highway": "tertiary"}, "geometry": {"type": "LineString", "coordinates": [[-82.915654, 42.390329], [-82.9152312, 42.3904804]]}}, {"type": "Feature", "properties": {"name": "Kercheval Avenue", "highway": "tertiary"}, "geometry": {"type": "LineString", "coordinates": [[-82.913872, 42.390967], [-82.9136899, 42.3910329], [-82.9135154, 42.391096]]}}, {"type": "Feature", "properties": {"name": "Kercheval Avenue", "highway": "tertiary"}, "geometry": {"type": "LineString", "coordinates": [[-82.9142292, 42.3908391], [-82.913872, 42.390967]]}}, {"type": "Feature", "properties": {"name": "Island Lane", "highway": "residential"}, "geometry": {"type": "LineString", "coordinates": [[-82.903113, 42.3858408], [-82.902865, 42.385493], [-82.901965, 42.384097]]}}, {"type": "Feature", "properties": {"name": "Dodge Place", "highway": "residential"}, "geometry": {"type": "LineString", "coordinates": [[-82.90185, 42.3863488], [-82.901483, 42.385828], [-82.90121, 42.385409], [-82.90116, 42.385307], [-82.901141, 42.385244], [-82.901131, 42.385179], [-82.901127, 42.384851], [-82.901112, 42.384756], [-82.901093, 42.384697], [-82.900961, 42.384433], [-82.90091, 42.384352], [-82.900887, 42.384339], [-82.90084, 42.384343], [-82.900809, 42.384368], [-82.900808, 42.384392], [-82.900815, 42.384413], [-82.90099, 42.384734], [-82.901006, 42.384775], [-82.9010137, 42.3848004], [-82.901019, 42.384852], [-82.901021, 42.385024], [-82.90104, 42.385268], [-82.901061, 42.385346], [-82.901107, 42.38544], [-82.901382, 42.385864], [-82.901725, 42.3864008]]}}, {"type": "Feature", "properties": {"name": "Dodge Place", "highway": "residential"}, "geometry": {"type": "LineString", "coordinates": [[-82.901896, 42.385666], [-82.901483, 42.385828], [-82.901382, 42.385864]]}}, {"type": "Feature", "properties": {"name": "Grosse Pointe Boulevard", "highway": "residential"}, "geometry": {"type": "LineString", "coordinates": [[-82.9030867, 42.3893476], [-82.9029483, 42.389419], [-82.9025583, 42.3895647]]}}]}