{"type": "FeatureCollection", "features": [{"type": "Feature", "properties": {"name": "Shorecrest Circle", "highway": "residential"}, "geometry": {"type": "LineString", "coordinates": [[-82.876355, 42.451822], [-82.876263, 42.451988], [-82.876232, 42.452017], [-82.87619, 42.452038], [-82.876117, 42.45206], [-82.876051, 42.45207], [-82.875974, 42.45206], [-82.874445, 42.451687], [-82.874291, 42.451632], [-82.874241, 42.451603], [-82.874222, 42.45155], [-82.874234, 42.451482], [-82.874377, 42.450997], [-82.873996, 42.45092], [-82.873904, 42.450913], [-82.873774, 42.450895], [-82.873543, 42.450853], [-82.8733804, 42.4508236], [-82.873276, 42.4508048]]}}, {"type": "Feature", "properties": {"name": "Robert John Road", "highway": "residential"}, "geometry": {"type": "LineString", "coordinates": [[-82.885123, 42.452494], [-82.8849351, 42.4525362], [-82.8847229, 42.4525304], [-82.8845016, 42.4524948], [-82.8828087, 42.4520936], [-82.8822479, 42.4520547], [-82.8801564, 42.4515571], [-82.877202, 42.4508508]]}}, {"type": "Feature", "properties": {"name": "Lakeshore Drive", "highway": "secondary"}, "geometry": {"type": "LineString", "coordinates": [[-82.8729401, 42.4512047], [-82.8728909, 42.4513524], [-82.8728255, 42.4515486], [-82.8727145, 42.4518816], [-82.87269, 42.451955]]}}, {"type": "Feature", "properties": {"name": "Lakeshore Drive", "highway": "secondary"}, "geometry": {"type": "LineString", "coordinates": [[-82.8765858, 42.4547111], [-82.8763032, 42.4545967], [-82.8755293, 42.454304], [-82.875186, 42.4541912], [-82.8750036, 42.4541477], [-82.8747407, 42.4540843], [-82.874464, 42.4539968], [-82.873803, 42.4538178], [-82.873554, 42.4537438], [-82.873281, 42.4536038], [-82.873148, 42.4535128], [-82.873014, 42.4533988], [-82.872854, 42.4532136], [-82.872753, 42.4530068], [-82.872693, 42.4528008]]}}, {"type": "Feature", "properties": {"name": "Shorecrest Circle South", "highway": "residential"}, "geometry": {"type": "LineString", "coordinates": [[-82.874377, 42.450997], [-82.876173, 42.451412], [-82.876329, 42.451459], [-82.876391, 42.451493], [-82.876412, 42.451528], [-82.876419, 42.451591], [-82.876407, 42.451668], [-82.876395, 42.451708], [-82.876384, 42.451746], [-82.876355, 42.451822]]}}, {"type": "Feature", "properties": {"name": "Oxford Road", "highway": "residential"}, "geometry": {"type": "LineString", "coordinates": [[-82.879749, 42.4271501], [-82.879567, 42.427122]]}}, {"type": "Feature", "properties": {"name": "Sunningdale Drive", "highway": "residential"}, "geometry": {"type": "LineString", "coordinates": [[-82.881535, 42.431169], [-82.881481, 42.431282], [-82.881068, 42.432245], [-82.881065, 42.432271], [-82.881082, 42.43229], [-82.88148, 42.432381], [-82.88455, 42.433114], [-82.884871, 42.433197], [-82.8864714, 42.4335774], [-82.886699, 42.433639]]}}, {"type": "Feature", "properties": {"name": "Sunningdale Drive", "highway": "residential"}, "geometry": {"type": "LineString", "coordinates": [[-82.88148, 42.432381], [-82.881936, 42.431334]]}}, {"type": "Feature", "properties": {"name": "South Deeplands Road", "highway": "residential"}, "geometry": {"type": "LineString", "coordinates": [[-82.881882, 42.419434], [-82.882049, 42.4194888], [-82.882654, 42.419615], [-82.88288, 42.419654], [-82.883111, 42.419675], [-82.884057, 42.419716], [-82.884203, 42.419718], [-82.884536, 42.419747], [-82.884745, 42.419776], [-82.885002, 42.419828], [-82.885202, 42.419882], [-82.885348, 42.41993], [-82.8854114, 42.4199535], [-82.885491, 42.419983], [-82.8863876, 42.4203489], [-82.887025, 42.420609], [-82.887266, 42.420701], [-82.887513, 42.420781], [-82.88771, 42.420838], [-82.887919, 42.420891], [-82.888304, 42.420978]]}}, {"type": "Feature", "properties": {"name": "Blairmoor Court", "highway": "residential"}, "geometry": {"type": "LineString", "coordinates": [[-82.875793, 42.4440788], [-82.8758914, 42.4441013], [-82.8770765, 42.4443973], [-82.8793028, 42.4449242]]}}, {"type": "Feature", "properties": {"name": "Deeplands Court", "highway": "residential"}, "geometry": {"type": "LineString", "coordinates": [[-82.888617, 42.420112], [-82.888174, 42.420028], [-82.888035, 42.420034], [-82.887855, 42.420055]]}}, {"type": "Feature", "properties": {"name": "Shoreham Road", "highway": "residential"}, "geometry": {"type": "LineString", "coordinates": [[-82.884162, 42.427001], [-82.88429, 42.426932], [-82.884326, 42.426881], [-82.884565, 42.426338], [-82.884584, 42.426308], [-82.884603, 42.426289], [-82.88463, 42.426276], [-82.88466, 42.42627], [-82.884691, 42.426272], [-82.884766, 42.426287], [-82.886882, 42.426801], [-82.889575, 42.427456]]}}, {"type": "Feature", "properties": {"name": "Cook Road", "highway": "tertiary"}, "geometry": {"type": "LineString", "coordinates": [[-82.888761, 42.419722], [-82.889396, 42.419982], [-82.889942, 42.420205], [-82.891586, 42.420878], [-82.891988, 42.421043], [-82.8932498, 42.4215596], [-82.89371, 42.421748], [-82.894616, 42.422119], [-82.895486, 42.422473], [-82.895836, 42.422618], [-82.896069, 42.422719], [-82.8969114, 42.4230594], [-82.897707, 42.4233809], [-82.897737, 42.423393], [-82.8978709, 42.4234478], [-82.898394, 42.423662], [-82.8986695, 42.4237743], [-82.8992969, 42.4240311], [-82.8998389, 42.424253], [-82.8998807, 42.4242701], [-82.9003653, 42.4244685], [-82.900933, 42.4247009]]}}, {"type": "Feature", "properties": {"name": "Moorland Drive", "highway": "residential"}, "geometry": {"type": "LineString", "coordinates": [[-82.8749074, 42.4459475], [-82.875069, 42.4460318], [-82.8751784, 42.4460531], [-82.8763436, 42.4463157], [-82.877394, 42.44657], [-82.878264, 42.446781], [-82.87832, 42.446805], [-82.878363, 42.446839], [-82.878373, 42.446856]]}}, {"type": "Feature", "properties": {"name": "Moorland Drive", "highway": "residential"}, "geometry": {"type": "LineString", "coordinates": [[-82.878177, 42.447462], [-82.8786229, 42.4475696], [-82.8791762, 42.4477029], [-82.8815787, 42.448282], [-82.884679, 42.4490294], [-82.888303, 42.449903]]}}, {"type": "Feature", "properties": {"name": "Moorland Drive", "highway": "residential"}, "geometry": {"type": "LineString", "coordinates": [[-82.877394, 42.44657], [-82.877229, 42.446947]]}}, {"type": "Feature", "properties": {"name": "Moorland Drive", "highway": "residential"}, "geometry": {"type": "LineString", "coordinates": [[-82.876159, 42.446708], [-82.8763436, 42.4463157]]}}, {"type": "Feature", "properties": {"name": "Stillmeadow Lane", "highway": "residential"}, "geometry": {"type": "LineString", "coordinates": [[-82.874329, 42.4480078], [-82.8744233, 42.4480282], [-82.875019, 42.448157], [-82.875162, 42.448186], [-82.875405, 42.44822], [-82.875814, 42.448256], [-82.87597, 42.448279], [-82.876156, 42.448315], [-82.876357, 42.448366], [-82.876553, 42.448426], [-82.876695, 42.448479], [-82.877112, 42.448649], [-82.87722, 42.448672], [-82.877328, 42.448675], [-82.87741, 42.448663], [-82.877466, 42.448644]]}}, {"type": "Feature", "properties": {"name": "North Deeplands Road", "highway": "residential"}, "geometry": {"type": "LineString", "coordinates": [[-82.883859, 42.420576], [-82.884505, 42.420725], [-82.884913, 42.420835], [-82.885125, 42.420907], [-82.885335, 42.420986], [-82.886456, 42.421442], [-82.8868, 42.421567], [-82.887082, 42.421657], [-82.887289, 42.421716], [-82.887654, 42.421806], [-82.88798, 42.421876]]}}, {"type": "Feature", "properties": {"name": "Fairford Road", "highway": "residential"}, "geometry": {"type": "LineString", "coordinates": [[-82.883071, 42.422437], [-82.883615, 42.422606], [-82.884134, 42.42283], [-82.88503, 42.423234], [-82.885329, 42.423355], [-82.885666, 42.423479], [-82.886051, 42.423609], [-82.886353, 42.423698], [-82.886785, 42.423807], [-82.88725, 42.42391]]}}, {"type": "Feature", "properties": {"name": "Fairford Road", "highway": "residential"}, "geometry": {"type": "LineString", "coordinates": [[-82.887182, 42.424099], [-82.887812, 42.424223], [-82.8879658, 42.4242548], [-82.888121, 42.424287], [-82.888254, 42.424323], [-82.888383, 42.424365], [-82.8888929, 42.4245732], [-82.8895517, 42.4248422], [-82.88968, 42.424887]]}}, {"type": "Feature", "properties": {"name": "Shelden Road", "highway": "residential"}, "geometry": {"type": "LineString", "coordinates": [[-82.8845628, 42.418041], [-82.884479, 42.418172], [-82.884443, 42.418245], [-82.884414, 42.41832], [-82.884393, 42.418397], [-82.884368, 42.418533], [-82.8843652, 42.4185664], [-82.884325, 42.419051], [-82.884301, 42.419269], [-82.884203, 42.419718], [-82.884104, 42.419992], [-82.883859, 42.420576], [-82.88342, 42.421608], [-82.8832049, 42.4221189], [-82.8830908, 42.4223786], [-82.883071, 42.422437], [-82.883018, 42.422574], [-82.882923, 42.422871], [-82.882866, 42.42301], [-82.882795, 42.423146], [-82.882622, 42.423394]]}}, {"type": "Feature", "properties": {"name": "Shelden Road", "highway": "residential"}, "geometry": {"type": "LineString", "coordinates": [[-82.878729, 42.432801], [-82.878661, 42.432802], [-82.87861, 42.432808], [-82.878503, 42.432835], [-82.878407, 42.432879], [-82.878358, 42.432913], [-82.878324, 42.432945], [-82.878267, 42.433013], [-82.878234, 42.433068], [-82.87818, 42.433194], [-82.87815, 42.43329], [-82.878073, 42.433671], [-82.8779075, 42.4345831], [-82.8778188, 42.4350198], [-82.8776571, 42.4354774]]}}, {"type": "Feature", "properties": {"name": "Michaux Court", "highway": "residential"}, "geometry": {"type": "LineString", "coordinates": [[-82.87943, 42.437737], [-82.879983, 42.437859], [-82.880554, 42.438014], [-82.8810639, 42.4381911]]}}, {"type": "Feature", "properties": {"name": "Colonial Road", "highway": "residential"}, "geometry": {"type": "LineString", "coordinates": [[-82.87863, 42.429507], [-82.878722, 42.429552], [-82.878789, 42.4295918], [-82.878947, 42.429634], [-82.8861414, 42.431363]]}}, {"type": "Feature", "properties": {"name": "Belle Meade", "highway": "residential"}, "geometry": {"type": "LineString", "coordinates": [[-82.878729, 42.432801], [-82.878849, 42.432816], [-82.879476, 42.432971], [-82.879644, 42.433022], [-82.880115, 42.433189], [-82.880341, 42.433276], [-82.880514, 42.433334], [-82.880811, 42.433418], [-82.881239, 42.433521], [-82.88143, 42.43356], [-82.881624, 42.433592], [-82.882439, 42.433694], [-82.882695, 42.433734], [-82.883009, 42.4338], [-82.883325, 42.43388], [-82.883368, 42.433896], [-82.883424, 42.433923], [-82.883478, 42.433957], [-82.883524, 42.433997], [-82.883562, 42.43404]]}}, {"type": "Feature", "properties": {"name": "Straton Court", "highway": "residential"}, "geometry": {"type": "LineString", "coordinates": [[-82.8790236, 42.431597], [-82.878861, 42.431935]]}}, {"type": "Feature", "properties": {"name": "Hollywood Avenue", "highway": "residential"}, "geometry": {"type": "LineString", "coordinates": [[-82.8816363, 42.4408598], [-82.8819794, 42.4409401], [-82.8845215, 42.4415573], [-82.8876253, 42.4423071], [-82.894573, 42.443953], [-82.895306, 42.444139], [-82.8954012, 42.4441616], [-82.898752, 42.4449579], [-82.902006, 42.445739], [-82.902109, 42.445742], [-82.902214, 42.445739], [-82.902524, 42.445789], [-82.9060205, 42.4466142], [-82.9061505, 42.4466449]]}}, {"type": "Feature", "properties": {"name": "Woodland Shore Drive", "highway": "tertiary"}, "geometry": {"type": "LineString", "coordinates": [[-82.883326, 42.4160758], [-82.885184, 42.416818], [-82.886382, 42.417275], [-82.886629, 42.417375], [-82.886871, 42.41748], [-82.887793, 42.417905], [-82.888033, 42.418008], [-82.888155, 42.418055], [-82.888349, 42.418121], [-82.888566, 42.418188], [-82.889027, 42.418319], [-82.889084, 42.418347], [-82.88913, 42.418377], [-82.889169, 42.418412], [-82.889221, 42.418476], [-82.889239, 42.41851], [-82.889257, 42.418562], [-82.889263, 42.418607], [-82.889261, 42.418652], [-82.889227, 42.418799], [-82.889173, 42.41894], [-82.889086, 42.419099], [-82.888961, 42.419277]]}}, {"type": "Feature", "properties": {"name": "Duval Road", "highway": "residential"}, "geometry": {"type": "LineString", "coordinates": [[-82.873731, 42.449056], [-82.873913, 42.4491178]]}}, {"type": "Feature", "properties": {"name": "Fontana Lane", "highway": "residential"}, "geometry": {"type": "LineString", "coordinates": [[-82.876727, 42.4329608], [-82.8768365, 42.4329866], [-82.8770975, 42.4330479], [-82.87815, 42.43329]]}}, {"type": "Feature", "properties": {"name": "Fontana Lane", "highway": "residential"}, "geometry": {"type": "LineString", "coordinates": [[-82.878073, 42.433671], [-82.883413, 42.434964]]}}, {"type": "Feature", "properties": {"name": "North Edgewood Drive", "highway": "residential"}, "geometry": {"type": "LineString", "coordinates": [[-82.875897, 42.4432798], [-82.876006, 42.4432779], [-82.876057, 42.443277], [-82.87965, 42.444137]]}}, {"type": "Feature", "properties": {"name": "Pear Tree Lane", "highway": "residential"}, "geometry": {"type": "LineString", "coordinates": [[-82.888164, 42.421364], [-82.888838, 42.421495], [-82.889348, 42.421595]]}}, {"type": "Feature", "properties": {"name": "Ballantyne Road", "highway": "residential"}, "geometry": {"type": "LineString", "coordinates": [[-82.878373, 42.446856], [-82.878395, 42.446892], [-82.8784, 42.446921], [-82.878397, 42.446959], [-82.878177, 42.447462], [-82.878025, 42.447806], [-82.877836, 42.448229], [-82.877694, 42.448462], [-82.877639, 42.448532], [-82.877573, 42.448593], [-82.877506, 42.448631], [-82.877466, 42.448644]]}}, {"type": "Feature", "properties": {"name": "Ballantyne Road", "highway": "residential"}, "geometry": {"type": "LineString", "coordinates": [[-82.883562, 42.43404], [-82.883607, 42.434121], [-82.883621, 42.434172], [-82.883626, 42.434226], [-82.88361, 42.434365], [-82.883581, 42.434492], [-82.883413, 42.434964], [-82.883124, 42.435713], [-82.8830813, 42.4358488], [-82.882975, 42.436203], [-82.882842, 42.436524], [-82.882788, 42.436575], [-82.882741, 42.4366]]}}, {"type": "Feature", "properties": {"name": "Ballantyne Road", "highway": "residential"}, "geometry": {"type": "LineString", "coordinates": [[-82.8798043, 42.4437892], [-82.87965, 42.444137], [-82.8793028, 42.4449242], [-82.878887, 42.445871], [-82.878829, 42.445973], [-82.878797, 42.446001]]}}, {"type": "Feature", "properties": {"name": "Ballantyne Road", "highway": "tertiary"}, "geometry": {"type": "LineString", "coordinates": [[-82.888961, 42.419277], [-82.888853, 42.419471], [-82.888761, 42.419722], [-82.888617, 42.420112], [-82.888304, 42.420978], [-82.888164, 42.421364], [-82.88798, 42.421876], [-82.887612, 42.422904], [-82.88725, 42.42391], [-82.887182, 42.424099], [-82.886868, 42.424972], [-82.886621, 42.425638], [-82.886594, 42.425684], [-82.886561, 42.425721], [-82.886534, 42.425742]]}}, {"type": "Feature", "properties": {"name": "Lochmoor Boulevard", "highway": "residential"}, "geometry": {"type": "LineString", "coordinates": [[-82.878042, 42.43021], [-82.878194, 42.4303088], [-82.878324, 42.430352], [-82.878488, 42.430406], [-82.881395, 42.43113], [-82.881535, 42.431169]]}}, {"type": "Feature", "properties": {"name": "Lochmoor Boulevard", "highway": "residential"}, "geometry": {"type": "LineString", "coordinates": [[-82.881936, 42.431334], [-82.8845915, 42.4319692], [-82.884942, 42.432053], [-82.885168, 42.432105], [-82.887017, 42.432533], [-82.8871504, 42.4325755], [-82.8873275, 42.4326309], [-82.8874905, 42.4326247]]}}, {"type": "Feature", "properties": {"name": "Stonehurst Road", "highway": "residential"}, "geometry": {"type": "LineString", "coordinates": [[-82.88342, 42.421608], [-82.884252, 42.421801], [-82.884431, 42.421846], [-82.884658, 42.421914], [-82.884949, 42.42201], [-82.88513, 42.422077], [-82.885316, 42.422154], [-82.885663, 42.422312], [-82.885951, 42.422435], [-82.886127, 42.422504], [-82.886307, 42.422568], [-82.886708, 42.422692], [-82.886981, 42.422766], [-82.887612, 42.422904]]}}, {"type": "Feature", "properties": {"name": "Lake Shore Road", "highway": "secondary"}, "geometry": {"type": "LineString", "coordinates": [[-82.8761863, 42.435423], [-82.876244, 42.4351408], [-82.8763456, 42.4346275], [-82.876361, 42.4345498], [-82.8764639, 42.4340353], [-82.876563, 42.4335398], [-82.876577, 42.4334778], [-82.876727, 42.4329608], [-82.8768001, 42.4327304], [-82.876842, 42.4326254], [-82.8768866, 42.4325138], [-82.876899, 42.4324828], [-82.8771435, 42.4319117], [-82.877232, 42.4317048], [-82.877341, 42.4314898], [-82.877475, 42.4312508], [-82.8777447, 42.4308019], [-82.878194, 42.4303088], [-82.878329, 42.4301548], [-82.878789, 42.4295918], [-82.878849, 42.4295208], [-82.879096, 42.4291908], [-82.879273, 42.4288878], [-82.879321, 42.4287768], [-82.879361, 42.4286818], [-82.879429, 42.4284808], [-82.8794686, 42.4283203], [-82.8795198, 42.4281128], [-82.879525, 42.4280918], [-82.8795954, 42.4277946], [-82.8796878, 42.4274068], [-82.8797299, 42.4272303], [-82.879749, 42.4271501], [-82.879929, 42.4264058], [-82.880035, 42.4260037], [-82.8802341, 42.4252313], [-82.880268, 42.4251004], [-82.8803388, 42.4248182], [-82.880355, 42.4247538], [-82.880496, 42.4241378], [-82.8806132, 42.4236288], [-82.8807071, 42.4232216], [-82.880713, 42.4231958], [-82.880744, 42.4230738], [-82.880776, 42.4229528], [-82.880957, 42.4223638], [-82.8810461, 42.4221272], [-82.881087, 42.4220188], [-82.8811089, 42.4219668], [-82.8812094, 42.4217281], [-82.881335, 42.4214298], [-82.8813788, 42.4213249], [-82.8814759, 42.4210927], [-82.8815129, 42.4210041], [-82.8816053, 42.420783], [-82.8817322, 42.4204794], [-82.881796, 42.4203268], [-82.88183, 42.4202364], [-82.88186, 42.4201568], [-82.8818955, 42.4200368], [-82.882029, 42.4195858], [-82.882049, 42.4194888], [-82.8821185, 42.4190847], [-82.882129, 42.4190238], [-82.882201, 42.4185998], [-82.8822432, 42.4184155], [-82.8822585, 42.4183488], [-82.882267, 42.4183118], [-82.882362, 42.4180318], [-82.882557, 42.4176138], [-82.8826751, 42.4173854], [-82.8827693, 42.4172032], [-82.8829368, 42.4168542], [-82.8830882, 42.4165513], [-82.883326, 42.4160758], [-82.883382, 42.4159698], [-82.883439, 42.4158648], [-82.88354, 42.4156478], [-82.883886, 42.4149568], [-82.883966, 42.4147965], [-82.884366, 42.4139988], [-82.884467, 42.4137898], [-82.884527, 42.4136518], [-82.884578, 42.4135108], [-82.884634, 42.4133268], [-82.88485, 42.4125868], [-82.8849172, 42.4123561], [-82.885169, 42.4114908]]}}, {"type": "Feature", "properties": {"name": "Willow Tree Place", "highway": "residential"}, "geometry": {"type": "LineString", "coordinates": [[-82.87561, 42.439364], [-82.875799, 42.4394128], [-82.8758913, 42.4394353], [-82.8811532, 42.4407417]]}}, {"type": "Feature", "properties": {"name": "Hawthorne Road", "highway": "residential"}, "geometry": {"type": "LineString", "coordinates": [[-82.875605, 42.43848], [-82.875801, 42.4385628], [-82.8758821, 42.4385824], [-82.881861, 42.440025], [-82.882186, 42.440103], [-82.884877, 42.440753], [-82.887974, 42.4415], [-82.8956549, 42.4433575]]}}, {"type": "Feature", "properties": {"name": "South Duval Road", "highway": "residential"}, "geometry": {"type": "LineString", "coordinates": [[-82.873913, 42.4491178], [-82.8740089, 42.4491371], [-82.874516, 42.449239], [-82.874669, 42.449247]]}}, {"type": "Feature", "properties": {"name": "South Duval Road", "highway": "residential"}, "geometry": {"type": "LineString", "coordinates": [[-82.877148, 42.4497573], [-82.87718, 42.449648], [-82.877197, 42.449535], [-82.877172, 42.449451], [-82.877098, 42.449392], [-82.876944, 42.449342], [-82.875153, 42.448902], [-82.875019, 42.448895], [-82.87492, 42.448933], [-82.87484, 42.448981], [-82.874778, 42.449057], [-82.874669, 42.449247]]}}, {"type": "Feature", "properties": {"name": "Crestwood Drive", "highway": "residential"}, "geometry": {"type": "LineString", "coordinates": [[-82.873396, 42.449927], [-82.873586, 42.4499728], [-82.8736896, 42.4499978], [-82.8738719, 42.4500421], [-82.877202, 42.4508508]]}}, {"type": "Feature", "properties": {"name": "Fordcroft Street", "highway": "residential"}, "geometry": {"type": "LineString", "coordinates": [[-82.888961, 42.419277], [-82.888408, 42.419087], [-82.888033, 42.418944], [-82.884342, 42.417434]]}}, {"type": "Feature", "properties": {"name": "Oxford Road", "highway": "residential"}, "geometry": {"type": "LineString", "coordinates": [[-82.8813368, 42.4275501], [-82.8812929, 42.4275176], [-82.8810971, 42.4274698], [-82.8809766, 42.4274361], [-82.8808201, 42.4273981], [-82.8802979, 42.4272713], [-82.8802094, 42.4272499], [-82.8799104, 42.4271764], [-82.879749, 42.4271501]]}}, {"type": "Feature", "properties": {"name": "Straton Place", "highway": "residential"}, "geometry": {"type": "LineString", "coordinates": [[-82.877475, 42.4312508], [-82.8785234, 42.4314959], [-82.8787729, 42.4315306], [-82.8790236, 42.431597], [-82.879802, 42.431776], [-82.879883, 42.431807], [-82.879936, 42.431851], [-82.879956, 42.431884], [-82.879963, 42.431909], [-82.879958, 42.43194], [-82.8798651, 42.4321963]]}}, {"type": "Feature", "properties": {"name": "Anita Avenue", "highway": "residential"}, "geometry": {"type": "LineString", "coordinates": [[-82.882332, 42.439193], [-82.882627, 42.439264], [-82.88302, 42.439359], [-82.885252, 42.439898], [-82.88675, 42.440258], [-82.887223, 42.440351], [-82.887873, 42.44046], [-82.888283, 42.440545], [-82.888561, 42.440609], [-82.894042, 42.441924], [-82.896054, 42.442412], [-82.897388, 42.442731], [-82.898683, 42.443041], [-82.8994142, 42.4432167], [-82.899507, 42.443239], [-82.9027572, 42.4440182], [-82.9027837, 42.444024], [-82.902856, 42.44404], [-82.9029153, 42.444056], [-82.9060051, 42.4447922], [-82.9061386, 42.4448287], [-82.9064263, 42.4449072], [-82.9065382, 42.4449378]]}}, {"type": "Feature", "properties": {"name": "Clairview Road", "highway": "residential"}, "geometry": {"type": "LineString", "coordinates": [[-82.880604, 42.422901], [-82.880776, 42.4229528], [-82.881114, 42.42301], [-82.881214, 42.423026], [-82.881316, 42.42303], [-82.881471, 42.423021], [-82.881562, 42.423021], [-82.881652, 42.423029], [-82.881769, 42.423048], [-82.881964, 42.42311], [-82.882622, 42.423394], [-82.883263, 42.423663], [-82.884444, 42.424179], [-82.885173, 42.424474], [-82.8855, 42.42459], [-82.886067, 42.424769], [-82.886454, 42.424873], [-82.886868, 42.424972]]}}, {"type": "Feature", "properties": {"name": "Edgewood Drive North", "highway": "residential"}, "geometry": {"type": "LineString", "coordinates": [[-82.875714, 42.44325], [-82.875897, 42.4432798]]}}, {"type": "Feature", "properties": {"name": "Willison Road", "highway": "residential"}, "geometry": {"type": "LineString", "coordinates": [[-82.876244, 42.4351408], [-82.8763549, 42.4351659], [-82.8771679, 42.4353596], [-82.8776571, 42.4354774], [-82.879268, 42.435828], [-82.882546, 42.43662], [-82.882598, 42.436626], [-82.882667, 42.436622], [-82.882741, 42.4366]]}}, {"type": "Feature", "properties": {"name": "Michaux Lane", "highway": "residential"}, "geometry": {"type": "LineString", "coordinates": [[-82.87975, 42.437015], [-82.87943, 42.437737], [-82.879133, 42.43838]]}}, {"type": "Feature", "properties": {"name": "Roslyn Road", "highway": "residential"}, "geometry": {"type": "LineString", "coordinates": [[-82.875549, 42.44139], [-82.87573, 42.4414328], [-82.8758365, 42.4414368], [-82.8837328, 42.4433536], [-82.8868318, 42.4441016], [-82.8930587, 42.445596], [-82.894517, 42.4459395], [-82.898024, 42.446766], [-82.901373, 42.447571], [-82.904941, 42.448426], [-82.905318, 42.448513], [-82.9053373, 42.4485191], [-82.905384, 42.448534], [-82.905444, 42.448589]]}}, {"type": "Feature", "properties": {"name": "South Edgewood Drive", "highway": "residential"}, "geometry": {"type": "LineString", "coordinates": [[-82.875815, 42.4423868], [-82.8759278, 42.4424135], [-82.879747, 42.443316], [-82.879807, 42.443335], [-82.879859, 42.443362], [-82.879892, 42.443392], [-82.879918, 42.443436], [-82.879924, 42.443474], [-82.879922, 42.443502], [-82.879898, 42.443569], [-82.8798043, 42.4437892]]}}, {"type": "Feature", "properties": {"name": "Greenbriar Street", "highway": "residential"}, "geometry": {"type": "LineString", "coordinates": [[-82.8779075, 42.4345831], [-82.8830813, 42.4358488]]}}, {"type": "Feature", "properties": {"name": "Lake Shore Lane", "highway": "residential"}, "geometry": {"type": "LineString", "coordinates": [[-82.879929, 42.4264058], [-82.883242, 42.427178], [-82.883363, 42.427195], [-82.883472, 42.427196], [-82.883555, 42.427188], [-82.883711, 42.42715], [-82.884034, 42.427032], [-82.884162, 42.427001], [-82.886588, 42.427594], [-82.889234, 42.428238]]}}, {"type": "Feature", "properties": {"name": "Renaud Road", "highway": "residential"}, "geometry": {"type": "LineString", "coordinates": [[-82.879151, 42.428709], [-82.879321, 42.4287768], [-82.880192, 42.429023], [-82.880764, 42.42917], [-82.881275, 42.429278], [-82.8822943, 42.4294555], [-82.882464, 42.429485], [-82.8825679, 42.4295053], [-82.8826573, 42.4295227], [-82.8829721, 42.4295842], [-82.883099, 42.429609], [-82.88371, 42.42974], [-82.88467, 42.429973], [-82.885615, 42.430241], [-82.886137, 42.4304], [-82.8867829, 42.4306147], [-82.886853, 42.430638], [-82.8870443, 42.4307082], [-82.8871582, 42.4307499], [-82.8874222, 42.4308467], [-82.887603, 42.430913], [-82.888002, 42.431071], [-82.888491, 42.431269], [-82.888595, 42.431315], [-82.888698, 42.431378], [-82.888773, 42.431445]]}}, {"type": "Feature", "properties": {"name": "North Duval Road", "highway": "residential"}, "geometry": {"type": "LineString", "coordinates": [[-82.874669, 42.449247], [-82.874651, 42.449292], [-82.874676, 42.449379], [-82.87475, 42.449435], [-82.874864, 42.449484], [-82.876725, 42.449935], [-82.876881, 42.449947], [-82.877, 42.44991], [-82.8770801, 42.4498473], [-82.877148, 42.4497573]]}}, {"type": "Feature", "properties": {"name": "Regal Place", "highway": "residential"}, "geometry": {"type": "LineString", "coordinates": [[-82.879133, 42.43838], [-82.87912, 42.438459], [-82.879129, 42.438495], [-82.879149, 42.438528], [-82.87919, 42.438562], [-82.87922, 42.438577], [-82.879266, 42.43859], [-82.8795074, 42.4386382], [-82.8797471, 42.4386791], [-82.880063, 42.4387501], [-82.880344, 42.4388383], [-82.880715, 42.4389398], [-82.880884, 42.4389769], [-82.881035, 42.4390009], [-82.8811855, 42.4390141], [-82.8813694, 42.4390228], [-82.8815258, 42.4390124], [-82.8815528, 42.4390403], [-82.8815903, 42.4390823], [-82.8816242, 42.4391221], [-82.8816572, 42.4391485], [-82.8817039, 42.4391688], [-82.8817433, 42.4391722], [-82.8817928, 42.4391681], [-82.8818303, 42.4391458], [-82.8818441, 42.4391167], [-82.8818541, 42.4390762], [-82.8818523, 42.4390059], [-82.8818477, 42.43897], [-82.8818285, 42.4389329], [-82.8818001, 42.4389139], [-82.8817699, 42.4389078], [-82.8817195, 42.4389112], [-82.8816636, 42.4389227], [-82.8816087, 42.438943], [-82.8815592, 42.4389781], [-82.8815258, 42.4390124]]}}, {"type": "Feature", "properties": {"name": "Briarcliff Place", "highway": "residential"}, "geometry": {"type": "LineString", "coordinates": [[-82.874702, 42.4470178], [-82.8748041, 42.4470415], [-82.878025, 42.447806]]}}, {"type": "Feature", "properties": {"name": "Webber Place", "highway": "tertiary"}, "geometry": {"type": "LineString", "coordinates": [[-82.88032, 42.424093], [-82.880496, 42.4241378], [-82.8808954, 42.4242068], [-82.881131, 42.42425], [-82.881731, 42.424417], [-82.881984, 42.424477], [-82.882574, 42.424583], [-82.882838, 42.424642], [-82.883559, 42.424816], [-82.883801, 42.42489], [-82.884054, 42.424993], [-82.884227, 42.425076], [-82.884571, 42.425252], [-82.884851, 42.425375], [-82.886104, 42.425789], [-82.886222, 42.425816], [-82.886321, 42.425818], [-82.886381, 42.42581], [-82.886437, 42.425794], [-82.886517, 42.425755], [-82.886534, 42.425742]]}}, {"type": "Feature", "properties": {"name": "Putnam Place", "highway": "residential"}, "geometry": {"type": "LineString", "coordinates": [[-82.877729, 42.445782], [-82.8778064, 42.4455767], [-82.8778842, 42.4455513], [-82.8779561, 42.4455164], [-82.8780092, 42.4454758], [-82.878019, 42.4454307], [-82.8780082, 42.4453828], [-82.8779649, 42.445348], [-82.877898, 42.4453298], [-82.8778331, 42.4453313], [-82.8777622, 42.4453501], [-82.8777229, 42.4453734], [-82.8777091, 42.445409], [-82.8777199, 42.4454496], [-82.8777583, 42.4455048], [-82.8778064, 42.4455767]]}}, {"type": "Feature", "properties": {"name": "Putnam Place", "highway": "residential"}, "geometry": {"type": "LineString", "coordinates": [[-82.8770765, 42.4443973], [-82.876709, 42.445354], [-82.87668, 42.445446], [-82.876684, 42.445482], [-82.876699, 42.445504], [-82.876729, 42.445525], [-82.876936, 42.445591], [-82.877729, 42.445782], [-82.878562, 42.445982], [-82.878732, 42.446014], [-82.878768, 42.446012], [-82.878797, 42.446001]]}}, {"type": "Feature", "properties": {"name": "Hampton Road", "highway": "residential"}, "geometry": {"type": "LineString", "coordinates": [[-82.875583, 42.440309], [-82.875764, 42.4403548], [-82.8758651, 42.4403794], [-82.878983, 42.4411392], [-82.881157, 42.441669], [-82.88145, 42.44174], [-82.884157, 42.442393], [-82.8872589, 42.4431489], [-82.892977, 42.444517], [-82.893453, 42.444616], [-82.893593, 42.444634], [-82.89382, 42.444689], [-82.894941, 42.444959], [-82.898441, 42.445797], [-82.901789, 42.446604], [-82.9051326, 42.4474058], [-82.905283, 42.4474419]]}}, {"type": "Feature", "properties": {"name": "Lake Shore Road", "highway": "secondary"}, "geometry": {"type": "LineString", "coordinates": [[-82.8864313, 42.4071905], [-82.886191, 42.407854], [-82.885804, 42.408969], [-82.885447, 42.410022], [-82.885262, 42.410554], [-82.885193, 42.410767], [-82.884993, 42.411447], [-82.884744, 42.412299], [-82.88452, 42.413071], [-82.884468, 42.413276], [-82.884393, 42.413492], [-82.884197, 42.413942], [-82.884168, 42.414008], [-82.883718, 42.414892], [-82.88338, 42.415567], [-82.883268, 42.415787], [-82.882574, 42.417176], [-82.88239, 42.417546], [-82.882349, 42.417628], [-82.882207, 42.417959], [-82.882103, 42.418271], [-82.882016, 42.418647], [-82.88196, 42.418989], [-82.881882, 42.419434], [-82.88187, 42.419492], [-82.881722, 42.420009], [-82.881687, 42.420108], [-82.881447, 42.420697], [-82.881159, 42.421377], [-82.880911, 42.421975], [-82.880657, 42.422713], [-82.880604, 42.422901], [-82.880535, 42.423157], [-82.88032, 42.424093], [-82.880178, 42.424717], [-82.880057, 42.4251923], [-82.879864, 42.4259503], [-82.879567, 42.427122], [-82.879346, 42.428059], [-82.879257, 42.428422], [-82.879193, 42.428611], [-82.879151, 42.428709], [-82.879107, 42.428812], [-82.878952, 42.429091], [-82.878725, 42.429394], [-82.87863, 42.429507], [-82.878042, 42.43021], [-82.8775901, 42.4307439], [-82.8773349, 42.4311092], [-82.8771552, 42.4314319], [-82.877055, 42.431659], [-82.876627, 42.43269], [-82.876385, 42.433494], [-82.876184, 42.434494], [-82.8760096, 42.4354068]]}}, {"type": "Feature", "properties": {"name": "Fairlake Lane", "highway": "residential"}, "geometry": {"type": "LineString", "coordinates": [[-82.87269, 42.451955], [-82.8721528, 42.4518361], [-82.87198, 42.4517938], [-82.8718615, 42.4517632], [-82.87173, 42.4517167], [-82.8716288, 42.4516401], [-82.8714965, 42.4515502], [-82.8713878, 42.4515177], [-82.8707573, 42.4513663]]}}, {"type": "Feature", "properties": {"name": "Lakeshore Drive", "highway": "secondary"}, "geometry": {"type": "LineString", "coordinates": [[-82.87269, 42.451955], [-82.872562, 42.452314], [-82.872521, 42.452524], [-82.8724895, 42.4528597]]}}, {"type": "Feature", "properties": {"name": "Lochmoor Boulevard", "highway": "residential"}, "geometry": {"type": "LineString", "coordinates": [[-82.8872732, 42.432465], [-82.8870904, 42.4324198], [-82.884996, 42.431918], [-82.88466, 42.4318371], [-82.882, 42.431197], [-82.881663, 42.431116], [-82.881535, 42.431169]]}}, {"type": "Feature", "properties": {"name": "Lakeshore Drive", "highway": "secondary"}, "geometry": {"type": "LineString", "coordinates": [[-82.8726312, 42.4532354], [-82.8727465, 42.4533848], [-82.8729021, 42.4535431], [-82.8730416, 42.4536589], [-82.8732696, 42.4537964], [-82.8734908, 42.4538894], [-82.873692, 42.4539458], [-82.8748091, 42.4542338], [-82.8751042, 42.4543109], [-82.8753924, 42.4544003], [-82.8758686, 42.4545722], [-82.8762152, 42.4547217], [-82.8764754, 42.4548221]]}}, {"type": "Feature", "properties": {"name": "Lake Shore Road", "highway": "secondary"}, "geometry": {"type": "LineString", "coordinates": [[-82.8760096, 42.4354068], [-82.8759334, 42.4358056], [-82.875871, 42.436161]]}}, {"type": "Feature", "properties": {"name": "Lake Shore Road", "highway": "secondary"}, "geometry": {"type": "LineString", "coordinates": [[-82.875871, 42.436161], [-82.8758396, 42.4362849], [-82.875816, 42.436378], [-82.8758039, 42.4364404], [-82.8757061, 42.4369458], [-82.8756991, 42.436982], [-82.875668, 42.437143], [-82.875604, 42.437548], [-82.875588, 42.437934], [-82.875605, 42.43848], [-82.8756086, 42.4385972], [-82.875611, 42.438675], [-82.87561, 42.439364], [-82.8756095, 42.4394156], [-82.875608, 42.439586], [-82.8755994, 42.439835], [-82.875593, 42.4400193], [-82.875585, 42.440252], [-82.875583, 42.440309], [-82.8755711, 42.4406212], [-82.8755689, 42.4406801], [-82.8755615, 42.440875], [-82.8755482, 42.4412246], [-82.875545, 42.44131], [-82.875549, 42.44139], [-82.875558, 42.441545], [-82.875592, 42.441912], [-82.8755993, 42.4419928], [-82.875635, 42.442386], [-82.8756686, 42.4427534], [-82.875703, 42.4431419], [-82.875714, 42.44325], [-82.875724, 42.443364], [-82.875727, 42.4434519], [-82.875731, 42.443571], [-82.8757279, 42.4436128], [-82.875722, 42.443664], [-82.875684, 42.443838], [-82.8756146, 42.4440301], [-82.875607, 42.444051], [-82.875515, 42.444349], [-82.8753815, 42.4446896], [-82.875252, 42.44502], [-82.8752189, 42.4451087], [-82.8751238, 42.4453633], [-82.8750141, 42.4456596], [-82.8749074, 42.4459475], [-82.87466, 42.446611], [-82.874595, 42.44678], [-82.8743716, 42.4473554], [-82.8741817, 42.4478599], [-82.8739921, 42.4483637], [-82.8738629, 42.4487069], [-82.873731, 42.449056], [-82.873571, 42.4494721], [-82.8734794, 42.4497102], [-82.873396, 42.449927], [-82.8733551, 42.4500401], [-82.873197, 42.450477], [-82.8731866, 42.4505056], [-82.8729401, 42.4512047]]}}, {"type": "Feature", "properties": {"name": "Vernier Road", "highway": "secondary"}, "geometry": {"type": "LineString", "coordinates": [[-82.8760326, 42.436174], [-82.875871, 42.436161]]}}, {"type": "Feature", "properties": {"name": "Lake Shore Road", "highway": "secondary"}, "geometry": {"type": "LineString", "coordinates": [[-82.8760326, 42.436174], [-82.876102, 42.4358349], [-82.8761863, 42.435423]]}}, {"type": "Feature", "properties": {"name": "Lake Shore Road", "highway": "secondary"}, "geometry": {"type": "LineString", "coordinates": [[-82.873121, 42.4512499], [-82.873276, 42.4508048], [-82.873379, 42.4505298], [-82.873586, 42.4499728], [-82.873913, 42.4491178], [-82.8740597, 42.4487247], [-82.874329, 42.4480078], [-82.874559, 42.4473978], [-82.874702, 42.4470178], [-82.874836, 42.4466588], [-82.875069, 42.4460318], [-82.875426, 42.4450708], [-82.875672, 42.4443978], [-82.875719, 42.4442738], [-82.875793, 42.4440788], [-82.875831, 42.4439798], [-82.875891, 42.4437538], [-82.875907, 42.4436258], [-82.875907, 42.4433908], [-82.875897, 42.4432798], [-82.875815, 42.4423868], [-82.875734, 42.4415198], [-82.87573, 42.4414328], [-82.875726, 42.4413358], [-82.875764, 42.4403548], [-82.875799, 42.4394128], [-82.875801, 42.4385628], [-82.875771, 42.4379448], [-82.875781, 42.4376138], [-82.875829, 42.4372988], [-82.87585, 42.4371608], [-82.875886, 42.4369665], [-82.8759784, 42.4364668], [-82.8760082, 42.436306], [-82.8760326, 42.436174]]}}, {"type": "Feature", "properties": {"name": "Vernier Road", "highway": "secondary"}, "geometry": {"type": "LineString", "coordinates": [[-82.8836241, 42.4379426], [-82.8835215, 42.4379171], [-82.883159, 42.437827], [-82.882831, 42.437745], [-82.87975, 42.437015], [-82.878938, 42.43682], [-82.8776511, 42.4365303], [-82.8774097, 42.4364789], [-82.8761641, 42.4361901], [-82.8760326, 42.436174]]}}, {"type": "Feature", "properties": {"name": "Lakeshore Drive", "highway": "secondary"}, "geometry": {"type": "LineString", "coordinates": [[-82.872693, 42.4528008], [-82.872683, 42.4525768], [-82.87274, 42.4523778], [-82.872901, 42.4519338], [-82.873121, 42.4512499]]}}, {"type": "Feature", "properties": {"name": "", "highway": "residential"}, "geometry": {"type": "LineString", "coordinates": [[-82.88466, 42.4318371], [-82.8845915, 42.4319692]]}}, {"type": "Feature", "properties": {"name": "Oxford Road", "highway": "residential"}, "geometry": {"type": "LineString", "coordinates": [[-82.8813368, 42.4275501], [-82.8816574, 42.4276568], [-82.8818221, 42.4276958], [-82.8824197, 42.4278428], [-82.8829261, 42.4279653], [-82.8837341, 42.4281608], [-82.8839971, 42.4282588], [-82.8844001, 42.4284178], [-82.8844647, 42.4284332], [-82.8848977, 42.4285362], [-82.8861323, 42.4288337], [-82.8862544, 42.428866], [-82.886499, 42.4289328], [-82.8871141, 42.4291008], [-82.8872369, 42.429119], [-82.8873025, 42.4291287], [-82.8873641, 42.4291378], [-82.887556, 42.4291607], [-82.8876348, 42.4291701], [-82.8876463, 42.4291717], [-82.8877273, 42.429183], [-82.8879202, 42.4292119], [-82.8880062, 42.4292263], [-82.8882241, 42.4292628], [-82.8883525, 42.4293074], [-82.8887117, 42.429435]]}}, {"type": "Feature", "properties": {"name": "Oxford Road", "highway": "residential"}, "geometry": {"type": "LineString", "coordinates": [[-82.8797299, 42.4272303], [-82.8798916, 42.427255], [-82.8802557, 42.4273409], [-82.8802688, 42.427344], [-82.8807689, 42.4274638], [-82.8807908, 42.427469], [-82.880947, 42.4275043], [-82.881069, 42.4275319], [-82.8812667, 42.4275759], [-82.8813368, 42.4275501]]}}, {"type": "Feature", "properties": {"name": "", "highway": "residential"}, "geometry": {"type": "LineString", "coordinates": [[-82.87861, 42.432808], [-82.878536, 42.4327348], [-82.8784758, 42.4327022], [-82.8784263, 42.4326944], [-82.8784003, 42.4327034], [-82.8783591, 42.4327179], [-82.8783343, 42.4327557], [-82.8783219, 42.4327962], [-82.878324, 42.432945]]}}, {"type": "Feature", "properties": {"name": "", "highway": "residential"}, "geometry": {"type": "LineString", "coordinates": [[-82.8798043, 42.4437892], [-82.8802331, 42.4438944]]}}, {"type": "Feature", "properties": {"name": "Lakeshore Drive", "highway": "secondary"}, "geometry": {"type": "LineString", "coordinates": [[-82.8724895, 42.4528597], [-82.8725494, 42.4530721], [-82.8725726, 42.4531185], [-82.8726312, 42.4532354]]}}, {"type": "Feature", "properties": {"name": "", "highway": "residential"}, "geometry": {"type": "LineString", "coordinates": [[-82.8854114, 42.4199535], [-82.8857812, 42.4190429]]}}, {"type": "Feature", "properties": {"name": "", "highway": "residential"}, "geometry": {"type": "LineString", "coordinates": [[-82.8857812, 42.4190429], [-82.8858826, 42.4190026], [-82.8859162, 42.4189417], [-82.8858897, 42.4188815], [-82.8858154, 42.4188695], [-82.88574, 42.4188958], [-82.8857257, 42.4189635], [-82.8857812, 42.4190429]]}}, {"type": "Feature", "properties": {"name": "Sunningdale Drive", "highway": "residential"}, "geometry": {"type": "LineString", "coordinates": [[-82.881936, 42.431334], [-82.882, 42.431197]]}}, {"type": "Feature", "properties": {"name": "Lochmoor Boulevard", "highway": "residential"}, "geometry": {"type": "LineString", "coordinates": [[-82.881535, 42.431169], [-82.8816, 42.431252], [-82.881936, 42.431334]]}}]}