{"type": "FeatureCollection", "features": [{"type": "Feature", "properties": {}, "geometry": {"type": "MultiPolygon", "coordinates": [[[[-82.922399, 42.394829], [-82.9220865, 42.3950154], [-82.921867, 42.395172], [-82.921718, 42.395299], [-82.921676, 42.395344], [-82.921569, 42.39546], [-82.921375, 42.395701], [-82.921061, 42.396145], [-82.9203207, 42.397188], [-82.920129, 42.397466], [-82.919754, 42.397996], [-82.91934, 42.398583], [-82.919118, 42.398926], [-82.918748, 42.399496], [-82.918708, 42.399557], [-82.918315, 42.400383], [-82.917717, 42.401637], [-82.917135, 42.402848], [-82.916864, 42.403397], [-82.916794, 42.403528], [-82.916296, 42.404471], [-82.915926, 42.405171], [-82.915629, 42.405798], [-82.914935, 42.407266], [-82.914845, 42.407239], [-82.914787, 42.407213], [-82.914711, 42.407154], [-82.9146579, 42.4070724], [-82.914542, 42.4068941], [-82.914469, 42.4067819], [-82.9122288, 42.4033768], [-82.912199, 42.403292], [-82.910265, 42.400324], [-82.910108, 42.400073], [-82.9087, 42.397923], [-82.907898, 42.396696], [-82.9071802, 42.3955958], [-82.9062553, 42.3941781], [-82.906102, 42.393943], [-82.905993, 42.393791], [-82.905872, 42.393622], [-82.9057105, 42.3933742], [-82.904583, 42.391644], [-82.9044891, 42.3915033], [-82.904189, 42.3910541], [-82.9041429, 42.3909823], [-82.9040761, 42.3908781], [-82.904014, 42.3907812], [-82.9039553, 42.3906896], [-82.903735, 42.3903451], [-82.9036443, 42.3902051], [-82.9034934, 42.3899797], [-82.9030867, 42.3893476], [-82.901327, 42.386546], [-82.899893, 42.384234], [-82.898713, 42.382137], [-82.8849384, 42.3606093], [-82.898561, 42.3575323], [-82.911853, 42.378876], [-82.912362, 42.379634], [-82.913632, 42.381526], [-82.9150344, 42.3836579], [-82.915065, 42.383704], [-82.9152674, 42.3840117], [-82.915763, 42.384765], [-82.9159786, 42.3850921], [-82.9160793, 42.3852447], [-82.916272, 42.385537], [-82.916765, 42.386285], [-82.917294, 42.38709], [-82.9176849, 42.387696], [-82.917919, 42.388059], [-82.9180701, 42.3882774], [-82.9182967, 42.3886241], [-82.9184018, 42.3887882], [-82.9186099, 42.3890886], [-82.9186534, 42.3891547], [-82.918705, 42.389233], [-82.9187586, 42.3893166], [-82.9188643, 42.3894815], [-82.9189455, 42.3896007], [-82.9199022, 42.3910418], [-82.921427, 42.393361], [-82.9221148, 42.3944074], [-82.9221699, 42.3944912], [-82.9223222, 42.394715], [-82.922399, 42.394829]]]]}}]}