{"type": "FeatureCollection", "features": [{"type": "Feature", "properties": {}, "geometry": {"type": "MultiPolygon", "coordinates": [[[[-82.914935, 42.407266], [-82.914442, 42.408317], [-82.913897, 42.40948], [-82.913687, 42.409927], [-82.913297, 42.41076], [-82.913171, 42.411029], [-82.912969, 42.411459], [-82.912887, 42.411634], [-82.912801, 42.41183], [-82.912743, 42.411965], [-82.912663, 42.412148], [-82.912557, 42.41239], [-82.912392, 42.412768], [-82.912303, 42.412962], [-82.9121, 42.413407], [-82.911743, 42.414191], [-82.911312, 42.415147], [-82.911191, 42.415421], [-82.910961, 42.416025], [-82.910933, 42.416099], [-82.910773, 42.416594], [-82.91069, 42.416949], [-82.910651, 42.417117], [-82.910634, 42.417189], [-82.910547, 42.4178], [-82.910534, 42.41789], [-82.910529, 42.417944], [-82.910486, 42.418379], [-82.9104744, 42.4186313], [-82.9104391, 42.4190066], [-82.91039, 42.419338], [-82.910356, 42.41966], [-82.910267, 42.420522], [-82.910241, 42.420775], [-82.910214, 42.42103], [-82.910128, 42.421866], [-82.910082, 42.422338], [-82.9100523, 42.4226907], [-82.909979, 42.4234662], [-82.909959, 42.423664], [-82.909935, 42.423931], [-82.909915, 42.42415], [-82.909808, 42.42495], [-82.909696, 42.425782], [-82.90966, 42.426052], [-82.909629, 42.426282], [-82.9095025, 42.4262359], [-82.906741, 42.425116], [-82.904873, 42.424357], [-82.904012, 42.424007], [-82.890018, 42.418274], [-82.8864353, 42.4168118], [-82.884551, 42.416045], [-82.8836136, 42.4156767], [-82.88354, 42.4156478], [-82.88338, 42.415567], [-82.88294, 42.415407], [-82.879213, 42.413836], [-82.8095487, 42.3920465], [-82.8139122, 42.3876833], [-82.8281825, 42.3734081], [-82.8388405, 42.3710072], [-82.8547466, 42.3674218], [-82.8601541, 42.3662024], [-82.8814645, 42.3613937], [-82.8849384, 42.3606093], [-82.898713, 42.382137], [-82.899893, 42.384234], [-82.901327, 42.386546], [-82.9030867, 42.3893476], [-82.9034934, 42.3899797], [-82.9036443, 42.3902051], [-82.903735, 42.3903451], [-82.9039553, 42.3906896], [-82.904014, 42.3907812], [-82.9040761, 42.3908781], [-82.9041429, 42.3909823], [-82.904189, 42.3910541], [-82.9044891, 42.3915033], [-82.904583, 42.391644], [-82.9057105, 42.3933742], [-82.905872, 42.393622], [-82.905993, 42.393791], [-82.906102, 42.393943], [-82.9062553, 42.3941781], [-82.9071802, 42.3955958], [-82.907898, 42.396696], [-82.9087, 42.397923], [-82.910108, 42.400073], [-82.910265, 42.400324], [-82.912199, 42.403292], [-82.9122288, 42.4033768], [-82.914469, 42.4067819], [-82.914542, 42.4068941], [-82.9146579, 42.4070724], [-82.914711, 42.407154], [-82.914787, 42.407213], [-82.914845, 42.407239], [-82.914935, 42.407266]]]]}}]}