{"type": "FeatureCollection", "features": [{"type": "Feature", "properties": {}, "geometry": {"type": "MultiPolygon", "coordinates": [[[[-82.916328, 42.421349], [-82.916095, 42.423114], [-82.916084, 42.4231964], [-82.9159794, 42.423929], [-82.9159683, 42.4240065], [-82.9159579, 42.4240846], [-82.915953, 42.4241335], [-82.915936, 42.424232], [-82.9158591, 42.4248257], [-82.91585, 42.424896], [-82.916503, 42.425166], [-82.9185323, 42.4259992], [-82.9185246, 42.426042], [-82.9185039, 42.4260727], [-82.9180413, 42.4266404], [-82.9178653, 42.4268499], [-82.917533, 42.427265], [-82.9172, 42.427695], [-82.917046, 42.427905], [-82.916529, 42.428566], [-82.916173, 42.429034], [-82.9172484, 42.429498], [-82.920152, 42.430682], [-82.923023, 42.431848], [-82.922769, 42.432185], [-82.922518, 42.432562], [-82.922338, 42.432839], [-82.922281, 42.432943], [-82.922233, 42.433031], [-82.922154, 42.4332115], [-82.922107, 42.433319], [-82.9190846, 42.4321211], [-82.9162416, 42.4309608], [-82.9156232, 42.4307101], [-82.915297, 42.431173], [-82.914924, 42.432012], [-82.914894, 42.432219], [-82.914771, 42.433088], [-82.9144753, 42.4355745], [-82.9146233, 42.4361], [-82.9144587, 42.436542], [-82.9143131, 42.4368693], [-82.9142842, 42.4369341], [-82.9145411, 42.4378795], [-82.9143532, 42.4387408], [-82.914158, 42.439592], [-82.914107, 42.439728], [-82.9140965, 42.4404857], [-82.914107, 42.44057], [-82.9138266, 42.4413485], [-82.913742, 42.44176], [-82.9136444, 42.4422465], [-82.913546, 42.4431557], [-82.913277, 42.4440168], [-82.913127, 42.444404], [-82.912903, 42.445024], [-82.912885, 42.445116], [-82.912859, 42.445201], [-82.9126504, 42.4460737], [-82.912553, 42.446511], [-82.9124576, 42.4469327], [-82.912359, 42.447344], [-82.9122602, 42.4477641], [-82.912119, 42.448146], [-82.9119732, 42.4485443], [-82.911813, 42.448917], [-82.911647, 42.4492998], [-82.911492, 42.449671], [-82.9113323, 42.4500534], [-82.9110287, 42.4507824], [-82.9097036, 42.4507948], [-82.90926, 42.450799], [-82.904734, 42.450774], [-82.9045329, 42.4507771], [-82.904208, 42.4507822], [-82.9035022, 42.4507932], [-82.9022628, 42.4508126], [-82.9016403, 42.4508224], [-82.9006967, 42.4508371], [-82.8999344, 42.450849], [-82.8991804, 42.4508608], [-82.898384, 42.450873], [-82.898179, 42.450866], [-82.8978218, 42.4509415], [-82.8917803, 42.4510087], [-82.8770808, 42.4511305], [-82.877202, 42.4508508], [-82.8786229, 42.4475696], [-82.8802331, 42.4438944], [-82.8805837, 42.443094], [-82.880995, 42.44267], [-82.88145, 42.44174], [-82.8819794, 42.4409401], [-82.882123, 42.440758], [-82.882105, 42.440249], [-82.882186, 42.440103], [-82.882536, 42.43947], [-82.8825598, 42.4394162], [-82.882627, 42.439264], [-82.882775, 42.438931], [-82.883159, 42.437827], [-82.883732, 42.435891], [-82.884315, 42.434034], [-82.884871, 42.433197], [-82.885168, 42.432105], [-82.88522, 42.431968], [-82.885457, 42.431195], [-82.885615, 42.430241], [-82.8861323, 42.4288337], [-82.886588, 42.427594], [-82.886882, 42.426801], [-82.887035, 42.4263768], [-82.887812, 42.424223], [-82.8883435, 42.4228098], [-82.888838, 42.421495], [-82.889396, 42.419982], [-82.890018, 42.418274], [-82.904012, 42.424007], [-82.904873, 42.424357], [-82.906741, 42.425116], [-82.9095025, 42.4262359], [-82.909629, 42.426282], [-82.90966, 42.426052], [-82.909696, 42.425782], [-82.909808, 42.42495], [-82.909915, 42.42415], [-82.909935, 42.423931], [-82.909959, 42.423664], [-82.909979, 42.4234662], [-82.9100523, 42.4226907], [-82.910082, 42.422338], [-82.910128, 42.421866], [-82.910214, 42.42103], [-82.910241, 42.420775], [-82.910267, 42.420522], [-82.910356, 42.41966], [-82.91039, 42.419338], [-82.9104391, 42.4190066], [-82.910523, 42.4190181], [-82.9117771, 42.4195813], [-82.912229, 42.4196663], [-82.9122421, 42.4196716], [-82.9125671, 42.4198013], [-82.9126244, 42.4198242], [-82.9126367, 42.4198291], [-82.9133126, 42.4200988], [-82.9133906, 42.4201473], [-82.913487, 42.4202561], [-82.9135312, 42.420306], [-82.9135824, 42.4203501], [-82.9141325, 42.4205716], [-82.9142928, 42.420618], [-82.9148401, 42.4207515], [-82.9151087, 42.4208629], [-82.915309, 42.420946], [-82.916111, 42.421272], [-82.916259, 42.421329], [-82.916328, 42.421349]]]]}}]}