{"type": "FeatureCollection", "features": [{"type": "Feature", "properties": {}, "geometry": {"type": "MultiPolygon", "coordinates": [[[[-82.9466352, 42.3874658], [-82.94647, 42.387495], [-82.945602, 42.387648], [-82.944473, 42.387847], [-82.944039, 42.387925], [-82.943353, 42.388047], [-82.9429064, 42.3881253], [-82.9427706, 42.3881322], [-82.9426173, 42.3881615], [-82.9426082, 42.3881789], [-82.94221, 42.388247], [-82.941662, 42.388344], [-82.94089, 42.388479], [-82.940571, 42.388543], [-82.9403494, 42.3885853], [-82.939603, 42.388728], [-82.939416, 42.388771], [-82.939219, 42.388815], [-82.938343, 42.389016], [-82.937643, 42.389182], [-82.937347, 42.389254], [-82.937205, 42.389288], [-82.936352, 42.389522], [-82.9361, 42.389596], [-82.935503, 42.389782], [-82.93537, 42.389827], [-82.934634, 42.390079], [-82.9344115, 42.3901618], [-82.933431, 42.390501], [-82.9334079, 42.3905096], [-82.93244, 42.390869], [-82.931931, 42.391061], [-82.931448, 42.391243], [-82.9308888, 42.3914651], [-82.9305359, 42.3916052], [-82.930325, 42.391689], [-82.9297029, 42.3919467], [-82.929055, 42.392215], [-82.9284118, 42.3924794], [-82.927795, 42.392733], [-82.927261, 42.392951], [-82.926671, 42.393182], [-82.926482, 42.393256], [-82.925692, 42.393564], [-82.925353, 42.393696], [-82.92462, 42.393982], [-82.924442, 42.394055], [-82.9237102, 42.3943374], [-82.923465, 42.394432], [-82.9232384, 42.3945164], [-82.92313, 42.3945567], [-82.9230431, 42.3945891], [-82.922399, 42.394829], [-82.9223222, 42.394715], [-82.9221699, 42.3944912], [-82.9221148, 42.3944074], [-82.921427, 42.393361], [-82.9199022, 42.3910418], [-82.9189455, 42.3896007], [-82.9188643, 42.3894815], [-82.9187586, 42.3893166], [-82.918705, 42.389233], [-82.9186534, 42.3891547], [-82.9186099, 42.3890886], [-82.9184018, 42.3887882], [-82.9182967, 42.3886241], [-82.9180701, 42.3882774], [-82.917919, 42.388059], [-82.9176849, 42.387696], [-82.917294, 42.38709], [-82.916765, 42.386285], [-82.916272, 42.385537], [-82.9160793, 42.3852447], [-82.9159786, 42.3850921], [-82.915763, 42.384765], [-82.9152674, 42.3840117], [-82.915065, 42.383704], [-82.9150344, 42.3836579], [-82.913632, 42.381526], [-82.912362, 42.379634], [-82.911853, 42.378876], [-82.898561, 42.3575323], [-82.901841, 42.3567913], [-82.9240754, 42.3517643], [-82.927241, 42.356454], [-82.928431, 42.3579594], [-82.92866, 42.358249], [-82.930019, 42.360132], [-82.929986, 42.360185], [-82.929971, 42.36022], [-82.929958, 42.360284], [-82.929962, 42.360365], [-82.929968, 42.360398], [-82.929985, 42.360446], [-82.930011, 42.360492], [-82.930293, 42.360914], [-82.930697, 42.361525], [-82.9309685, 42.3619416], [-82.9304103, 42.3621459], [-82.9305762, 42.362413], [-82.932372, 42.3651202], [-82.933512, 42.3668406], [-82.934964, 42.36907], [-82.937402, 42.372693], [-82.938762, 42.374742], [-82.9388503, 42.37516], [-82.939354, 42.375937], [-82.939382, 42.375969], [-82.939426, 42.375993], [-82.939476, 42.376005], [-82.939528, 42.376007], [-82.93959, 42.376004], [-82.939681, 42.375988], [-82.939734, 42.376071], [-82.9399523, 42.3764111], [-82.942572, 42.380395], [-82.942414, 42.380457], [-82.942375, 42.380643], [-82.94235, 42.380748], [-82.94258, 42.381107], [-82.942838, 42.381094], [-82.943001, 42.381039], [-82.943911, 42.382418], [-82.945441, 42.384737], [-82.9454345, 42.3848117], [-82.945791, 42.3853259], [-82.9457501, 42.3853896], [-82.94606, 42.38586], [-82.946206, 42.385961], [-82.946876, 42.38699], [-82.946735, 42.387043], [-82.9466352, 42.3874658]]]]}}]}