{"type": "FeatureCollection", "features": [{"type": "Feature", "properties": {}, "geometry": {"type": "MultiPolygon", "coordinates": [[[[-82.890018, 42.418274], [-82.889396, 42.419982], [-82.888838, 42.421495], [-82.8883435, 42.4228098], [-82.887812, 42.424223], [-82.887035, 42.4263768], [-82.886882, 42.426801], [-82.886588, 42.427594], [-82.8861323, 42.4288337], [-82.885615, 42.430241], [-82.885457, 42.431195], [-82.88522, 42.431968], [-82.885168, 42.432105], [-82.884871, 42.433197], [-82.884315, 42.434034], [-82.883732, 42.435891], [-82.883159, 42.437827], [-82.882775, 42.438931], [-82.882627, 42.439264], [-82.8825598, 42.4394162], [-82.882536, 42.43947], [-82.882186, 42.440103], [-82.882105, 42.440249], [-82.882123, 42.440758], [-82.8819794, 42.4409401], [-82.88145, 42.44174], [-82.880995, 42.44267], [-82.8805837, 42.443094], [-82.8802331, 42.4438944], [-82.8786229, 42.4475696], [-82.877202, 42.4508508], [-82.8770808, 42.4511305], [-82.8769967, 42.4512749], [-82.8764406, 42.4525867], [-82.875789, 42.4543848], [-82.875733, 42.454495], [-82.87448, 42.457507], [-82.874034, 42.458474], [-82.874048, 42.458752], [-82.873183, 42.4605], [-82.872715, 42.461437], [-82.873212, 42.462537], [-82.872992, 42.462995], [-82.871855, 42.46533], [-82.871279, 42.465998], [-82.870332, 42.466696], [-82.86918, 42.467273], [-82.867698, 42.467759], [-82.866376, 42.467991], [-82.864282, 42.468184], [-82.861524, 42.462597], [-82.861652, 42.46204], [-82.864114, 42.451337], [-82.821535, 42.451246], [-82.7501073, 42.4514091], [-82.7567664, 42.444766], [-82.7710626, 42.4304981], [-82.7853523, 42.4162283], [-82.7996355, 42.4019567], [-82.8034901, 42.3981036], [-82.8095487, 42.3920465], [-82.879213, 42.413836], [-82.88294, 42.415407], [-82.88338, 42.415567], [-82.88354, 42.4156478], [-82.8836136, 42.4156767], [-82.884551, 42.416045], [-82.8864353, 42.4168118], [-82.890018, 42.418274]]]]}}]}